school_id,school_name,url_address,address,postal_code,telephone_no,telephone_no_2,fax_no,fax_no_2,email_address,mrt_desc,bus_desc,principal_name,first_vp_name,second_vp_name,third_vp_name,fourth_vp_name,fifth_vp_name,sixth_vp_name,dgp_code,zone_code,type_code,nature_code,session_code,mainlevel_code,sap_ind,autonomous_ind,gifted_ind,ip_ind,mothertongue1_code,mothertongue2_code,mothertongue3_code,alp_domain,alp_title,llp_domain1,llp_title1,llp_domain2,llp_title2
0,ADMIRALTY PRIMARY SCHOOL,https://admiraltypri.moe.edu.sg/,11   WOODLANDS CIRCLE,738907,63620598,na,63627512,na,ADMIRALTY_PS@MOE.EDU.SG,Admiralty Station,"TIBS 965, 964, 913",MR PEK WEE HAUR,MDM CHUA MUI LING,MDM NUR SABARIAH BTE MOHD IBRAHIM,,,,,WOODLANDS,NORTH,GOVERNMENT SCHOOL,CO-ED SCHOOL,FULL DAY,PRIMARY,FALSE,FALSE,FALSE,FALSE,Chinese,Malay,Tamil,STEM,Design Thinking for Sustainability (DTS @ Admiralty),Community Service & Student Leadership,High Performance Mind-set for Personal Leadership,,
1,ADMIRALTY SECONDARY SCHOOL,http://www.admiraltysec.moe.edu.sg,31   WOODLANDS CRESCENT,737916,63651733,63654596,63652774,na,Admiralty_SS@moe.edu.sg,ADMIRALTY MRT,904,MR LAM YUI- P'NG,MR NG SONG LIM STEVEN,MR SHEIK ALAUDIN B MOHD ISMAIL,,,,,WOODLANDS,NORTH,GOVERNMENT SCHOOL,CO-ED SCHOOL,SINGLE SESSION,SECONDARY,FALSE,FALSE,FALSE,FALSE,Chinese,Malay,Tamil,STEM,Design Thinking Through Innovation and Technology,Community & Youth Leadership,Nurturing Mindful Leaders through Community Outreach,,
11,ANG MO KIO SECONDARY SCHOOL,http://www.angmokiosec.moe.edu.sg,6    ANG MO KIO STREET 22,569362,64548605,na,64582425,na,AMKSS@MOE.EDU.SG,ANG MO KIO MRT,"13, 74, 76, 88, 130, 132, 133, 136, 165, 169, 265, 268, 269, 851, 852",MR SHAW SWEE TAT,MDM TONG WAI HAN,MDM LEE KEE CHIN,,,,,ANG MO KIO,SOUTH,GOVERNMENT SCHOOL,CO-ED SCHOOL,SINGLE SESSION,SECONDARY,FALSE,FALSE,FALSE,FALSE,Chinese,Malay,Tamil,STEM,Environment Science & Technology,Music & Performing Arts,Integrated Arts Programme,,
21,BARTLEY SECONDARY SCHOOL,http://www.bartleysec.moe.edu.sg,10   JALAN BUNGA RAMPAI,538403,62889013,na,62805595,na,bartley_ss@moe.edu.sg,"BARTLEY MRT, TAI SENG MRT","22, 24, 28, 43, 58, 62, 70, 70M, 76, 80, 80A, 93, 158",MR MOHD AZHAR B TERIMO,MRS TAN CHYE NA,MR NG CHOR YAM,,,,,TOA PAYOH,SOUTH,GOVERNMENT SCHOOL,CO-ED SCHOOL,SINGLE SESSION,SECONDARY,FALSE,FALSE,FALSE,FALSE,Chinese,Malay,Tamil,STEM,Chemical and Life Sciences (Perfumery),Community & Youth Leadership,i-LEAD @ Bartley (Leadership Experience and Development),,
23,BEATTY SECONDARY SCHOOL,http://www.beattysec.moe.edu.sg,1    TOA PAYOH NORTH,318990,62569108,na,62542284,na,BEATTY_SS@MOE.EDU.SG,"BRADDELL MRT, TOA PAYOH MRT","28, 56, 73, 88, 93, 105, 153, 155, 157, 159, 163, 231, 232",MR LING KHOON CHOW,MR LIM SOON WAI,,,,,,TOA PAYOH,SOUTH,GOVERNMENT SCHOOL,CO-ED SCHOOL,SINGLE SESSION,SECONDARY,FALSE,FALSE,FALSE,FALSE,Chinese,Malay,Tamil,STEM,Beattyians Think. Create. Innovate,Community & Youth Leadership,Beatty's Leaders for Life Programme,,
25,BEDOK GREEN SECONDARY SCHOOL,http://www.bedokgreensec.moe.edu.sg,360  BEDOK NORTH AVE 3,469722,64463301,na,64465969,na,BGSS@MOE.EDU.SG,"BEDOK MRT, BEDOK RESERVOIR MRT","14, 17, 18, 28, 46, 66, 67, 69, 168, 222, 228, 506",MR BOY ENG SENG,MS FOO SHEUE FENG (FU XUEFENG),MISS SAKINAH BINTE MOHAMED SARIP,,,,,BEDOK,EAST,GOVERNMENT SCHOOL,CO-ED SCHOOL,SINGLE SESSION,SECONDARY,FALSE,FALSE,FALSE,FALSE,Chinese,Malay,Tamil,STEM,ilnquire. ilnnovate. Developing scientific thinking and inquiry skills through real-life applications,Music & Performing Arts,PAssion Programme,,
29,BENDEMEER SECONDARY SCHOOL,http://www.bendemeersec.moe.edu.sg,1    ST WILFRED ROAD,327919,62927616,na,62932594,na,BENDEMEER_SS@MOE.EDU.SG,BOON KENG MRT,"13,  23,  31,  64,  65,  66, 125, 133, 140, 147, 857, 985",MR CHEN FOOK PANG,MR LAWRENCE POON YEW LEE,MR HO CHI CHENG,,,,,KALLANG,SOUTH,GOVERNMENT SCHOOL,CO-ED SCHOOL,SINGLE SESSION,SECONDARY,FALSE,FALSE,FALSE,FALSE,Chinese,Malay,Tamil,STEM,Making Health Science Alive through Authentic Problem-Based Learning,Community & Youth Leadership,Developing Student Leadership Through Service Learning,,
30,BLANGAH RISE PRIMARY SCHOOL,http://www.blangahrisepri.moe.edu.sg/,91   TELOK BLANGAH HEIGHTS,109100,62717387,na,62763037,na,BRPS@MOE.EDU.SG,"Telok Blangah, Tiong Bahru & Redhill",SBS 273 & 124,MR FRANCIS FOO,MDM ONG AI SIAN,MRS LEONG-HO HIL MAY,,,,,BUKIT MERAH,SOUTH,GOVERNMENT SCHOOL,CO-ED SCHOOL,SINGLE SESSION,PRIMARY,FALSE,FALSE,FALSE,FALSE,Chinese,Malay,Tamil,STEM,Aspiring Confident Engineers (ACE)@BRPS,Sports & Outdoor Education,"The RISE3 (Explore, Empower, Enrich) Outdoor Experience",,
32,BOON LAY SECONDARY SCHOOL,https://www.boonlaysec.moe.edu.sg,11   JURONG WEST STREET 65,648354,67940161,na,67941324,na,BLSS@MOE.EDU.SG,BOON LAY MRT,"99, 181, 192, 193, 242, 243, 257, 502, 502A",MR INDERJIT SINGH,MR ABDULATTIF S/O ABDULLAH,MISS SHARON SHEN QIUHUA,,,,,JURONG WEST,WEST,GOVERNMENT SCHOOL,CO-ED SCHOOL,SINGLE SESSION,SECONDARY,FALSE,FALSE,FALSE,FALSE,Chinese,Malay,Tamil,STEM,Exploring Possibilities in Materials Science,Music & Performing Arts,Music & Performing Arts,,
34,BROADRICK SECONDARY SCHOOL,http://www.broadricksec.moe.edu.sg,61   DAKOTA CRESCENT,399935,63445025,na,64471427,na,BROADRICK_SS@MOE.EDU.SG,DAKOTA MRT,"10, 16, 30, 31, 32, 33",MDM TAN LAY HONG,MDM SUTINAH BINTE TAIB,"MR QUEK POH BENG, KENNETH",,,,,GEYLANG,EAST,GOVERNMENT SCHOOL,CO-ED SCHOOL,SINGLE SESSION,SECONDARY,FALSE,FALSE,FALSE,FALSE,Chinese,Malay,Tamil,STEM,Broadrick Entrepreneurship in STEM,Community & Youth Leadership,"Confidence And REsilience (CARE) though Aesthetics, Community and Youth Leadership",,
35,BUKIT BATOK SECONDARY SCHOOL,http://www.bukitbatoksec.moe.edu.sg,50   BUKIT BATOK WEST AVE 8,658962,65663121,na,65607006,na,bbss@moe.edu.sg,BUKIT BATOK MRT,"66, 66B, 157, 174, 174E, 178, 506, 941, 991",MR PHUA HUAT CHUAN,MR MAK YEW CHONG,MR WU TIAN HWEE,,,,,BUKIT BATOK,WEST,GOVERNMENT SCHOOL,CO-ED SCHOOL,SINGLE SESSION,SECONDARY,FALSE,FALSE,FALSE,FALSE,Chinese,Malay,Tamil,STEM,Developing Proactive Problem-Solvers who care for our World through STEM,Community & Youth Leadership,Developing Community Youth Leadership through VIA - Journey to Become RESPECTful Leaders,,
36,BUKIT MERAH SECONDARY SCHOOL,http://www.bukitmerahsec.moe.edu.sg,10   LENGKOK BAHRU,159050,64748934,na,64744122,na,bmss@moe.edu.sg,REDHILL MRT,"14, 32, 33, 63, 64, 120, 132, 139, 145, 147, 196, 197, 855, 961",MR CHENG GHEE HOCK TIMOTHY,MR KOH YONG HWEE DARYL,MDM YAP SHARON,,,,,BUKIT MERAH,SOUTH,GOVERNMENT SCHOOL,CO-ED SCHOOL,SINGLE SESSION,SECONDARY,FALSE,FALSE,FALSE,FALSE,Chinese,Malay,Tamil,STEM,Creative Robotics and Engineering,Sports & Outdoor Education,Character Development & Leadership through Sports,,
41,BUKIT VIEW SECONDARY SCHOOL,https://www.bukitviewsec.moe.edu.sg,16   BUKIT BATOK STREET 21,659633,65661990,na,65630945,na,BUKITVIEW_SS@MOE.EDU.SG,BUKIT BATOK MRT,"61, 66, 77, 106, 157, 173, 174, 178, 189, 506, 653, 852, 963, 990",MR KEVIN ANG,MISS WONG KAH WAI SHIRLEY,MR ANG CHERN KWANG KYRIS,,,,,BUKIT BATOK,WEST,GOVERNMENT SCHOOL,CO-ED SCHOOL,SINGLE SESSION,SECONDARY,FALSE,FALSE,FALSE,FALSE,Chinese,Malay,Tamil,STEM,Clean Energy and Environmental Technology,Music & Performing Arts,"Learning the Arts, Living the Values",,
51,CHANGKAT CHANGI SECONDARY SCHOOL,http://www.changkatchangisec.moe.edu.sg,23   SIMEI ST 3,529894,67859790,na,67868481,na,CHANGKATCHGI@MOE.EDU.SG,SIMEI MRT,"5, 9, 20, 38",MR HO MING DA,MISS LOH SEIN LING,MR DANNY CHEW POH HUAT,,,,,TAMPINES,EAST,GOVERNMENT SCHOOL,CO-ED SCHOOL,SINGLE SESSION,SECONDARY,FALSE,FALSE,FALSE,FALSE,Chinese,Malay,Tamil,STEM,Programme SOAR (Student centered Opportunities for AeRospace Industry),Community & Youth Leadership,Service and Leadership through School to Nation,,
52,CHANGKAT PRIMARY SCHOOL,http://www.changkatpri.moe.edu.sg/,11   SIMEI ST 3,529896,67830923,na,67844740,na,CHANGKAT_PS@MOE.EDU.SG,Simei MRT Station,"9,38,5",MDM CHENG HUEY TENG,MDM SITI NAZRAH BTE ABDUL RAHMAN,,,,,,TAMPINES,EAST,GOVERNMENT SCHOOL,CO-ED SCHOOL,SINGLE SESSION,PRIMARY,FALSE,FALSE,FALSE,FALSE,Chinese,Malay,Tamil,STEM,"Empathetic towards our Earth and Environment, skilful in Computational thinking with the development of Coding skills, and Opportunity seekers with entrepreneurial dare (ECO@CKP)",Sports & Outdoor Education,"Sports, Outdoor, Athletics & Recreation @ Changkat Primary",,
66,CHRIST CHURCH SECONDARY SCHOOL,http://www.christchurchsec.moe.edu.sg,20   WOODLANDS DRIVE 17,737924,68933297,na,68932789,na,ccss@moe.edu.sg,"WOODLANDS MRT, WOODLANDS SOUTH MRT","901, 901M, 665",MR LAU YAN BOON DAVID,MR ONG KAH HUI VICTOR,MRS LEE BEE CHEOW,,,,,WOODLANDS,NORTH,GOVERNMENT-AIDED SCH,CO-ED SCHOOL,SINGLE SESSION,SECONDARY,FALSE,FALSE,FALSE,FALSE,Chinese,Malay,Tamil,STEM,Developing 21st Century Competencies through an Inquiry approach  in Health Science and Technology,Sports & Outdoor Education,Developing Social Emotional Learning Competencies through Outdoor Adventure Learning,,
68,CHUA CHU KANG SECONDARY SCHOOL,http://www.chuachukangsec.moe.edu.sg,3    TECK WHYE CRESCENT,688845,67655228,67664425,67636807,na,CCKSS@MOE.EDU.SG,CHOA CHU KANG MRT,"190, 307, 975, 982E, 985",MDM ONG LIANG FUNG,MDM HARTATI BTE OSMAN,,,,,,CHOA CHU KANG,WEST,GOVERNMENT SCHOOL,CO-ED SCHOOL,SINGLE SESSION,SECONDARY,FALSE,FALSE,FALSE,FALSE,Chinese,Malay,Tamil,STEM,Robotics & Automation for a Better Tomorrow,Community & Youth Leadership,Student Leadership,,
70,CHUNG CHENG HIGH SCHOOL (YISHUN),http://www.chungchenghighyishun.moe.edu.sg,11   YISHUN STREET 61,768547,67583912,na,67587397,na,cchys@moe.edu.sg,KHATIB MRT,"85, 811, 812, 851, 852, 853, 854, 855, 858, 860, 965, 969",MR TAN YEE KAN,MRS CHONG LAI PENG NEE YEO,MR CHANG FOOK YONG,,,,,YISHUN,NORTH,GOVERNMENT-AIDED SCH,CO-ED SCHOOL,SINGLE SESSION,SECONDARY,FALSE,FALSE,FALSE,FALSE,Chinese,Malay,Tamil,STEM,Food and Science Technology,Music & Performing Arts,Cultivating Values Through Aesthetics,,
72,CLEMENTI TOWN SECONDARY SCHOOL,http://www.clementitownsec.moe.edu.sg,10   CLEMENTI AVE 3,129904,67777362,na,67789543,na,ctss@moe.edu.sg,CLEMENTI MRT,"14, 105, 106, 147, 156, 165, 166, 173, 175, 184, 196, 282, 284, 285, 7, 96, 99",MDM LEE CHING GUAN HELEN,MISS LEONG KAI LING,MRS TAY CHEN LAI,,,,,CLEMENTI,WEST,GOVERNMENT SCHOOL,CO-ED SCHOOL,SINGLE SESSION,SECONDARY,FALSE,FALSE,FALSE,FALSE,Chinese,Malay,Tamil,STEM,CODE: COmputing to Discover and Empower,Community & Youth Leadership,Leadership Development through Uniformed Groups,,
75,COMPASSVALE SECONDARY SCHOOL,http://www.compassvalesec.moe.edu.sg,51   COMPASSVALE CRESCENT,545083,68815047,na,68815998,na,CVSS@MOE.EDU.SG,"SENGKANG MRT, COMPASSVALE LRT","27, 27A, 82,  83,  86,  88,  89, 89E, 136, 161, 371, 965",MR CHIA CHOR YANN,MR SUKHDEV SINGH S/O GURDEEP SINGH,MISS KEE LEE LING,,,,,SENG KANG,NORTH,GOVERNMENT SCHOOL,CO-ED SCHOOL,SINGLE SESSION,SECONDARY,FALSE,FALSE,FALSE,FALSE,Chinese,Malay,Tamil,STEM,Aeronautics Applied Learning Programme,Community & Youth Leadership,Inspired North Stars Inspire Actions,,
81,DAMAI SECONDARY SCHOOL,http://www.damaisec.moe.edu.sg,4800 BEDOK RESERVOIR ROAD,479229,64436848,na,64425629,na,damai_ss@moe.edu.sg,"BEDOK RESERVOIR MRT, BEDOK MRT, TAMPINES MRT","5, 21, 22, 59, 65, 66, 228, 506, CT18",MDM CHAN WAN SIONG,MRS OH WEE MING,MR SIVAKUMAR S/O VISWANATHAN,,,,,BEDOK,EAST,GOVERNMENT SCHOOL,CO-ED SCHOOL,SINGLE SESSION,SECONDARY,FALSE,FALSE,FALSE,FALSE,Chinese,Malay,Tamil,STEM,Environmental & Health Sciences,Sports & Outdoor Education,"Character, Citizenship and Leadership Development through Water Sports",,
85,DUNEARN SECONDARY SCHOOL,http://www.dunearnsec.moe.edu.sg,21   BUKIT BATOK WEST AVENUE 2,659204,65653692,na,65668650,na,DUNEARN_SS@MOE.EDU.SG,"BUKIT BATOK MRT, BUKIT GOMBAK MRT","160, 180, 187, 188, 945, 947, 985",MDM TAN MIAO LING,MRS SHANTHIMALAR SOMASUNDRAM,MISS TAY JIA MING JASMINE,,,,,BUKIT BATOK,WEST,GOVERNMENT SCHOOL,CO-ED SCHOOL,SINGLE SESSION,SECONDARY,FALSE,FALSE,FALSE,FALSE,Chinese,Malay,Tamil,STEM,FSciTech: Developing Dunearnites as confident and creative young scientists through Food Science and Technology,Community & Youth Leadership,Every Dunearnite a Community Youth Leader,,
89,EAST SPRING SECONDARY SCHOOL,http://www.eastspringsec.moe.edu.sg,30   TAMPINES STREET 34,529231,65873805,na,65873804,na,esss@moe.edu.sg,"TAMPINES MRT, TAMPINES EAST MRT","3, 4, 9, 12, 17, 18, 19, 21, 28, 29, 34, 37, 39, 59, 81, 291, 518",MISS HO SUSIE,MR ANG JOHNNY,MR TAN SHIN EIK,,,,,TAMPINES,EAST,GOVERNMENT SCHOOL,CO-ED SCHOOL,SINGLE SESSION,SECONDARY,FALSE,FALSE,FALSE,FALSE,Chinese,Malay,Tamil,STEM,21st Century Innovators through Health Science,Community & Youth Leadership,Every Student a Leader Through Service,,
100,FAJAR SECONDARY SCHOOL,http://www.fajarsec.moe.edu.sg,31   GANGSA ROAD,678972,67691491,na,67633025,na,FAJAR_SS@MOE.EDU.SG,"BUKIT PANJANG MRT, BUKIT PANJANG LRT, PETIR LRT","67, 75, 75A, 170, 171, 176, 177, 178, 180, 180A, 920, 922, 960, 961, 963, 963E, 963R, 970, 972, 972A, 973, 973A, 975, 976, 979",MISS HO SOOK FUN DORIS,MS CHOO WAN XIAN,MR NGOH SING KIEN ARTHUR,,,,,BUKIT PANJANG,WEST,GOVERNMENT SCHOOL,CO-ED SCHOOL,SINGLE SESSION,SECONDARY,FALSE,FALSE,FALSE,FALSE,Chinese,Malay,Tamil,STEM,Sustainability through 21st Century Applied Critical and Inventive Thinking Skills (ACIT),Community & Youth Leadership,Rise to Lead,,
108,FUCHUN SECONDARY SCHOOL,http://www.fuchunsec.moe.edu.sg,21   WOODLANDS AVENUE 1,739062,63681984,na,63670180,na,fcss@moe.edu.sg,"MARSILING MRT, WOODLANDS MRT","187, 856, 912, 913M, 925, 925M, 926, 950, 960, 960E, 961, 961M, 963, 963E, 963R, 966, 912B, 912M",MDM ONG BEE LIAN DORIS,"MR SIM KOK HIAN, KENNETH",MR KWAN YEW MENG,,,,,WOODLANDS,NORTH,GOVERNMENT SCHOOL,CO-ED SCHOOL,SINGLE SESSION,SECONDARY,FALSE,FALSE,FALSE,FALSE,Chinese,Malay,Tamil,STEM,Innovations in Science & Technology for Sustain-Ability,Music & Performing Arts,Values Through Dance,,
110,FUHUA SECONDARY SCHOOL,http://www.fuhuasec.moe.edu.sg,5    JURONG WEST STREET 41,649410,65633067,na,65634379,na,FHSS@MOE.EDU.SG,"CHINESE GARDEN MRT, LAKESIDE MRT","49, 98, 99, 157, 180, 185, 187, 198, 334, 335, 502, 657",MISS FOONG LAI LEONG,MR SIM HOW CHONG,MRS SHAIMA ANSHAD,,,,,JURONG WEST,WEST,GOVERNMENT SCHOOL,CO-ED SCHOOL,SINGLE SESSION,SECONDARY,FALSE,FALSE,FALSE,FALSE,Chinese,Malay,Tamil,STEM,Forensic Science@Fuhua,Community & Youth Leadership,"Values in Action, Leadership through Service",,
112,GAN ENG SENG SCHOOL,http://www.ganengsengsch.moe.edu.sg,1    HENDERSON ROAD,159561,64745594,na,64732479,na,GESS@MOE.EDU.SG,"REDHILL MRT, TIONG BAHRU MRT","14, 16, 32, 33, 51, 63, 64, 120, 122, 145, 139, 186, 851, 970",MISS TAN HWEE PIN,MR CHUNG KWOK LEONG DANIEL,MDM SARAWATHY D/O VARADARAJU,,,,,BUKIT MERAH,SOUTH,GOVERNMENT SCHOOL,CO-ED SCHOOL,SINGLE SESSION,SECONDARY,FALSE,FALSE,FALSE,FALSE,Chinese,Malay,Tamil,STEM,GESS Probes Programme,Community & Youth Leadership,GESS LIFE Programme,,
114,GEYLANG METHODIST SCHOOL (SECONDARY),http://www.geylangmethodistsec.moe.edu.sg,2    GEYLANG EAST CENTRAL,389705,67466503,na,67477317,na,gmss@moe.edu.sg,ALJUNIED MRT,"40, 62, 63, 80, 100, 125, 134, 155, 158",MR WEE TAT CHUEN,MDM LOY WEE MENG,MR LEW KING LUN JULIAN,,,,,GEYLANG,EAST,GOVERNMENT-AIDED SCH,CO-ED SCHOOL,SINGLE SESSION,SECONDARY,FALSE,FALSE,FALSE,FALSE,Chinese,Malay,Tamil,STEM,Environmental Science and Sustainable Living,Community & Youth Leadership,Nurturing Confident and Compassionate Leaders via Values-in-Action,,
117,GREENDALE SECONDARY SCHOOL,http://www.greendalesec.moe.edu.sg,51   EDGEDALE PLAINS,828866,63158616,na,63158420,na,greendale_ss@moe.edu.sg,"PUNGGOL MRT, MERIDIAN LRT","3, 62, 83, 85, 136, 386",MISS NG AMY,MR LOH CHIH HUI,MRS ANNE CHAN,,,,,PUNGGOL,NORTH,GOVERNMENT SCHOOL,CO-ED SCHOOL,SINGLE SESSION,SECONDARY,FALSE,FALSE,FALSE,FALSE,Chinese,Malay,Tamil,STEM,SMART Living: Design. Code. Build,Sports & Outdoor Education,Character Development through Outdoor and Adventure Education,,
122,GUANGYANG SECONDARY SCHOOL,http://guangyangsec.moe.edu.sg,8    BISHAN STREET 12,579807,62589781,na,63543108,na,gyss@moe.edu.sg,BISHAN MRT,"13, 56, 57, 59, 71, 88, 93, 157, 163, 410",MR LIM HOCK CHUAN ALVIN,MR KOH LIP KANG,,,,,,BISHAN,SOUTH,GOVERNMENT SCHOOL,CO-ED SCHOOL,SINGLE SESSION,SECONDARY,FALSE,FALSE,FALSE,FALSE,Chinese,Malay,Tamil,STEM,Environmental Science for Sustainable Living,Music & Performing Arts,heARTbeat -- Art for Life,,
123,HAI SING CATHOLIC SCHOOL,http://www.haisingcatholic.moe.edu.sg,9    PASIR RIS DRIVE 6,519421,65827864,na,65822543,na,HSHS@MOE.EDU.SG,PASIR RIS MRT,"3, 5, 6, 12, 17, 21, 89, 354, 358",MR ANG TECK SIANG DANIEL,MRS TEO-TAY CHAI HONG,MISS SHEREEN WONG MINGRUI,,,,,PASIR RIS,EAST,GOVERNMENT-AIDED SCH,CO-ED SCHOOL,SINGLE SESSION,SECONDARY,FALSE,FALSE,FALSE,FALSE,Chinese,Malay,Tamil,STEM,Applied Learning in Robotics and Engineering,Community & Youth Leadership,Developing Leadership Competencies in Every HaiSian,,
126,HILLGROVE SECONDARY SCHOOL,http://www.hillgrovesec.moe.edu.sg,10   BUKIT BATOK STREET 52,659250,65603726,na,65630920,na,HILLGROVE_SS@MOE.EDU.SG,"BUKIT BATOK MRT, BUKIT GOMBAK MRT","176, 985, 945",MDM ONG HUI MIIN ANGELINE,MR MALVIN CHAN HUAN JIAN,MR SNG CHIN SENG,,,,,BUKIT BATOK,WEST,GOVERNMENT SCHOOL,CO-ED SCHOOL,SINGLE SESSION,SECONDARY,FALSE,FALSE,FALSE,FALSE,Chinese,Malay,Tamil,STEM,Broadening our Learning Horizons through Flight and Aerospace,Music & Performing Arts,Nurturing Confident and Passionate Hillgrovians through the Arts,,
133,HUA YI SECONDARY SCHOOL,http://www.huayisec.moe.edu.sg,60   JURONG WEST ST 42,649371,65634568,na,65634505,na,HYSS@MOE.EDU.SG,"LAKESIDE MRT, CHINESE GARDEN MRT","49, 98, 98B, 98M, 99, 157, 185, 187, 198, 198A, 334, 335, 502",MISS GWEE SU PIN SANDRA,MDM KHOO HENG OI CATHERINE,MDM TAN KAY BIN,,,,,JURONG WEST,WEST,GOVERNMENT SCHOOL,CO-ED SCHOOL,SINGLE SESSION,SECONDARY,FALSE,FALSE,FALSE,FALSE,Chinese,Malay,Tamil,STEM,Health Sciences: Healthcare technologies for the elderly,Community & Youth Leadership,Community and Youth Leadership in Hua Yi,,
140,JUNYUAN SECONDARY SCHOOL,http://www.junyuansec.moe.edu.sg,11   TAMPINES STREET 84,528933,65873683,na,65873682,na,JUNYUAN_SS@MOE.EDU.SG,"TAMPINES MRT, TAMPINES WEST MRT","69, 291, 293",MR MOHAMED RAZALI B ABDUL HAMED,MR NG CHENG KEONG,,,,,,TAMPINES,EAST,GOVERNMENT SCHOOL,CO-ED SCHOOL,SINGLE SESSION,SECONDARY,FALSE,FALSE,FALSE,FALSE,Chinese,Malay,Tamil,STEM,Developing Application-based Learning through Food Science,Community & Youth Leadership,Cultivating Community Champions through Youth Leadership,,
146,JURONGVILLE SECONDARY SCHOOL,http://www.jurongvillesec.moe.edu.sg,202  JURONG EAST AVENUE 1,609790,65638704,na,65662137,na,JURONGVILLE@MOE.EDU.SG,"JURONG EAST MRT, CHINESE GARDEN MRT","98, 98M, 99, 157, 185, 187, 198, 334, 502",MR CHAN YEW WOOI,MR YONG KEK SHOONG,,,,,,JURONG EAST,WEST,GOVERNMENT SCHOOL,CO-ED SCHOOL,SINGLE SESSION,SECONDARY,FALSE,FALSE,FALSE,FALSE,Chinese,Malay,Tamil,STEM,Real World Learning through Electronics,Sports & Outdoor Education,"Sports for Life - Character Education through Sports Exposure, Sports Empowerment and Sports Excellence",,
150,KENT RIDGE SECONDARY SCHOOL,http://www.kentridgesec.moe.edu.sg,147  WEST COAST ROAD,127368,67731127,na,67735119,na,KRSS@MOE.EDU.SG,"CLEMENTI MRT, HAW PAR VILLA MRT","30, 51, 143, 175, 176, 201, 282",MR KEH CHIN CHUAN BENEDICT,MR OW KWOK LEONG,,,,,,CLEMENTI,SOUTH,GOVERNMENT SCHOOL,CO-ED SCHOOL,SINGLE SESSION,SECONDARY,FALSE,FALSE,FALSE,FALSE,Chinese,Malay,na,STEM,Developing Computational Thinking through Robotics,Sports & Outdoor Education,EVOKE!@KR (Educational Values of Olympism at Kent Ridge) through Sports and Outdoor Education,,
159,LOYANG VIEW SECONDARY SCHOOL,http://www.loyangviewsec.moe.edu.sg,12   PASIR RIS STREET 11,519073,65821727,na,65810557,na,loyangview_ss@moe.edu.sg,PASIR RIS MRT,"12, 21, 39, 53, 81, 109, 359, 518",MR LEE HAK BOON,MISS TAN CHOR HIANG,MS SAADIAH SAADON WYLDE,,,,,PASIR RIS,EAST,GOVERNMENT SCHOOL,CO-ED SCHOOL,SINGLE SESSION,SECONDARY,FALSE,FALSE,FALSE,FALSE,Chinese,Malay,Tamil,STEM,Design and Engineering,Sports & Outdoor Education,Sports and Outdoor Education,,
161,MANJUSRI SECONDARY SCHOOL,http://www.manjusrisec.moe.edu.sg,20   UBI AVENUE 1,408940,68424558,na,67454492,na,manjusri_ss@moe.edu.sg,"UBI MRT, MACPHERSON MRT","5, 8, 15, 22, 25, 45, 51, 55, 59, 61, 63, 63M, 65, 66, 93, 94, 137, 854",MR SIM CHONG BOON,MDM HENG WEI SHAN,MISS ELEANOR CHIA SHUEN LI,,,,,GEYLANG,EAST,GOVERNMENT-AIDED SCH,CO-ED SCHOOL,SINGLE SESSION,SECONDARY,FALSE,FALSE,FALSE,FALSE,Chinese,Malay,na,STEM,Building Smart Homes with a Big Heart,Music & Performing Arts,Learning through the ARTS,,
164,MARSILING SECONDARY SCHOOL,http://www.marsilingsec.moe.edu.sg,12   MARSILING ROAD,739110,68941413,na,68946156,na,MARSILING_SS@MOE.EDU.SG,MARSILING MRT,"913, 911",MR GOH AIK CHOON,MR TAY KIM SENG,,,,,,WOODLANDS,NORTH,GOVERNMENT SCHOOL,CO-ED SCHOOL,SINGLE SESSION,SECONDARY,FALSE,FALSE,FALSE,FALSE,Chinese,Malay,Tamil,STEM,Eco-sustainability through Inquiry-Based Learning,Sports & Outdoor Education,Values and Character Building through Outdoor Curriculum (VALOUR),,
175,MONTFORT SECONDARY SCHOOL,https://montfortsec.moe.edu.sg/,50   HOUGANG AVENUE 8,538785,65107070,na,63862804,na,contact@montfortsec.edu.sg,HOUGANG MRT,"74, 74e, 88, 88A, 101, 147, 147A, 161",MR LIM HOCK SEONG KELVIN,MR LEE THUAN SIM,MDM CHING LEE HOE,,,,,HOUGANG,NORTH,GOVERNMENT-AIDED SCH,BOYS' SCHOOL,SINGLE SESSION,SECONDARY,FALSE,FALSE,FALSE,FALSE,Chinese,Malay,Tamil,STEM,"Made In Montfort ? Design, Code, Make",Sports & Outdoor Education,Student Leadership through Outdoor Adventure & Sports,,
176,NAN CHIAU HIGH SCHOOL,http://www.nchs.edu.sg,20   ANCHORVALE LINK,545079,64897971,na,64897970,na,nchs@moe.edu.sg,"SENGKANG MRT, RENJONG LRT, TONGKANG LRT","43, 83, 85, 109, 156, 159, 161, 163, 372",MISS SIAU FONG FUI,MDM CHOW NYET YOON,,,,,,SENG KANG,NORTH,GOVERNMENT-AIDED SCH,CO-ED SCHOOL,SINGLE SESSION,SECONDARY,FALSE,FALSE,FALSE,FALSE,Chinese,na,na,STEM,Electronics in Health Sciences and Health Care Technology,Music & Performing Arts,"Enhancing Expression, Creativity and Aesthetics Appreciation (ECAA) through the ARTS (Drama, Puppetry and Creative Lyrics Composition)",,
193,NORTH VISTA SECONDARY SCHOOL,http://www.northvistasec.moe.edu.sg,11   RIVERVALE LINK,545081,68793930,na,68793931,na,northvistass@moe.edu.sg,"SENGKANG MRT, BUANGKOK MRT, RANGGUNG LRT","80, 82, 87, 88, 89, 119",MR YAP THIAM CHUAN,MR MOHAMED NASIM S/O ABDUL RAHIM,,,,,,SENG KANG,NORTH,GOVERNMENT SCHOOL,CO-ED SCHOOL,SINGLE SESSION,SECONDARY,FALSE,FALSE,FALSE,FALSE,Chinese,Malay,Tamil,STEM,Investigative Science in Health & Sports,Visual Arts & Design,Nurturing Creative Problem Solvers through the Arts & Design,,
194,NORTHBROOKS SECONDARY SCHOOL,http://www.northbrookssec.moe.edu.sg,585  YISHUN RING ROAD,768692,67524311,na,67566110,na,NORTHBROOKS@MOE.EDU.SG,"YISHUN MRT, KHATIB MRT","804, 806, 807, 860, 103",MR CHAN CHOON LOONG,MR ADAM BIN AHMAD,MISS POH SHI HUI,,,,,YISHUN,NORTH,GOVERNMENT SCHOOL,CO-ED SCHOOL,SINGLE SESSION,SECONDARY,FALSE,FALSE,FALSE,FALSE,Chinese,Malay,Tamil,STEM,Northbrooks Aerospace Programme (Applied Learning In Aerospace),Sports & Outdoor Education,"Northbrooks Outdoor Education: Adventure, Character, Environment (A.C.E.) Programme",,
196,NORTHLAND SECONDARY SCHOOL,http://www.northlandsec.moe.edu.sg,3    YISHUN STREET 22,768578,62576781,na,62573634,na,NORTHLAND_SS@MOE.EDU.SG,YISHUN MRT,"811, 804, 800",MDM TAN SIEW WOON,MS BIAN YU WEI,MR PETERSON JOSEPH STANLEY,,,,,YISHUN,NORTH,GOVERNMENT SCHOOL,CO-ED SCHOOL,SINGLE SESSION,SECONDARY,FALSE,FALSE,FALSE,FALSE,Chinese,Malay,Tamil,STEM,ALP Health Sciences - Healthy Lifestyle and Caring for Elderly,Sports & Outdoor Education,Game for Life ? Developing Social Emotional Competencies through Sports and Physical Activities,,
214,PEI HWA SECONDARY SCHOOL,http://www.peihwasec.moe.edu.sg,21   FERNVALE LINK,797702,65009580,na,63438326,na,peihwasec@moe.edu.sg,"SENGKANG MRT, LAYAR LRT","50, 70, 86, 103, 163, 854",MDM YONG LI LING BELINDA,MR TAN CHER HUI PHILIP,MRS MICHELLE WILLMAN,,,,,SENG KANG,NORTH,GOVERNMENT SCHOOL,CO-ED SCHOOL,SINGLE SESSION,SECONDARY,FALSE,FALSE,FALSE,FALSE,Chinese,Malay,Tamil,STEM,"Robotics and Programming - Nurturing Leaders, Scholars and Altruists",Community & Youth Leadership,PRIDE of the Community: Developing Altruists,,
216,PEICAI SECONDARY SCHOOL,http://www.peicaisec.moe.edu.sg,10   SERANGOON AVENUE 4,556094,62884159,na,62830480,na,peicai_ss@moe.edu.sg,SERANGOON MRT,"22, 24, 43, 53, 70, 76, 103, 109, 116, 147, 156, 315, 317, 853",MR LIM KOK HWA,MISS TAN LI PING,MR SHUE PEI YAN,,,,,SERANGOON,SOUTH,GOVERNMENT SCHOOL,CO-ED SCHOOL,SINGLE SESSION,SECONDARY,FALSE,FALSE,FALSE,FALSE,Chinese,Malay,Tamil,STEM,?We are what we eat; and what we do? ? Knowing Better; Living Healthier; Transforming Lives,Community & Youth Leadership,Becoming Persons for Others ? Leadership through and for the Community,,
219,PING YI SECONDARY SCHOOL,http://pingyisec.moe.edu.sg,61   CHAI CHEE STREET,468980,64489580,na,64442731,na,pyss@moe.edu.sg,BEDOK MRT,"26, 222, 222B, 2, 7, 24, 25, 28, 30, 30E, 32, 33, 40, 67, 229, 854, 60, 87",MR ANG CHEE SENG,MR CHEONG HUEI LEONARD,,,,,,BEDOK,EAST,GOVERNMENT SCHOOL,CO-ED SCHOOL,SINGLE SESSION,SECONDARY,FALSE,FALSE,FALSE,FALSE,Chinese,Malay,Tamil,STEM,Design Education and Aeronautical Engineering,Community & Youth Leadership,Leadership through CCE,,
222,PRESBYTERIAN HIGH SCHOOL,http://www.presbyterian.moe.edu.sg,5209 ANG MO KIO AVENUE 6,569845,64543722,na,64543430,na,presbyterian@moe.edu.sg,YIO CHU KANG MRT,"45, 70, 70M, 71, 76, 86, 668, 851, 851e, 852, 853",MR OWYONG TUCK SING VICTOR,MISS YEW MEI FOONG SARAH,,,,,,ANG MO KIO,SOUTH,GOVERNMENT-AIDED SCH,CO-ED SCHOOL,SINGLE SESSION,SECONDARY,FALSE,FALSE,FALSE,FALSE,Chinese,Malay,Tamil,STEM,Forensic & Pharmaceutical Science,Community & Youth Leadership,Community Youth Leadership,,
227,PUNGGOL SECONDARY SCHOOL,http://www.punggolsec.moe.edu.sg,51   EDGEFIELD PLAINS,828870,64897851,na,64897859,na,PUNGGOL_SS@MOE.EDU.SG,"PUNGGOL MRT, COVE LRT","3, 34, 62, 82, 83, 85, 136, 965, 386",MS TOH ENG BENG ANGELINE,MR ANITH KUMAR S/O NADESAN,MR VINCENT LEE WEI YEE,,,,,PUNGGOL,NORTH,GOVERNMENT SCHOOL,CO-ED SCHOOL,SINGLE SESSION,SECONDARY,FALSE,FALSE,FALSE,FALSE,Chinese,Malay,Tamil,STEM,Environment Education,Community & Youth Leadership,"Serving with values and good habits, developing the 21st century gentlemen/ ladies",,
233,QUEENSWAY SECONDARY SCHOOL,http://www.queenswaysec.moe.edu.sg,2A   MARGARET DRIVE,149295,64741421,na,64741302,na,QSS@moe.edu.sg,"COMMONWEALTH MRT, QUEENSTOWN MRT","32, 51, 93, 100, 105, 111, 122, 123, 145, 147, 153, 186, 195, 196, 198, 855, 961, 970","MR TAN CHONG TZE, PETER",MR NG HOCK SOON,MR LOH KAR WAI JAY,,,,,QUEENSTOWN,SOUTH,GOVERNMENT SCHOOL,CO-ED SCHOOL,SINGLE SESSION,SECONDARY,FALSE,FALSE,FALSE,FALSE,Chinese,Malay,Tamil,STEM,Environmental Science Applied Learning Programme: Developing Confident Learners and Caring Citizens,Sports & Outdoor Education,Sports for Life & Outdoor Education Programme: Nurturing Responsible Citizens and Life-long Learners,,
239,REGENT SECONDARY SCHOOL,http://regentsec.moe.edu.sg,50   CHOA CHU KANG NORTH 5,689621,67653828,na,67653413,na,REGENT_SS@MOE.EDU.SG,"YEW TEE MRT, CHOA CHU KANG MRT","307, 160, 170, 178, 925, 927, 960, 961, 979",MR LEONG KOK KEE,MRS TANG HUAY JIUAN PATRINE,,,,,,CHOA CHU KANG,WEST,GOVERNMENT SCHOOL,CO-ED SCHOOL,SINGLE SESSION,SECONDARY,FALSE,FALSE,FALSE,FALSE,Chinese,Malay,Tamil,STEM,Engineering @ Regent,Community & Youth Leadership,"Empowering every Regenite to be a Responsible and Confident Leader, Committed to Excellence",,
252,SENG KANG SECONDARY SCHOOL,http://www.sengkangsec.moe.edu.sg,10   COMPASSVALE LANE,545090,63887258,na,63887254,na,skss@moe.edu.sg,"SENGKANG MRT, RANGGUNG LRT","27, 80, 85, 86, 87, 89, 89E, 163, 163M, 372",MR KOH YIAK KHENG,MR TAN TECK TIAN,MDM NAZIMAH BTE ABDULLAH,,,,,SENG KANG,NORTH,GOVERNMENT SCHOOL,CO-ED SCHOOL,SINGLE SESSION,SECONDARY,FALSE,FALSE,FALSE,FALSE,Chinese,Malay,Tamil,STEM,Health Science & Technology,Sports & Outdoor Education,Building Character Through Physical Education & Sports,,
255,SERANGOON SECONDARY SCHOOL,http://www.serangoonsec.moe.edu.sg,11   UPPER SERANGOON VIEW,534237,63851589,na,63851635,na,SERANGOON_SS@MOE.EDU.SG,"HOUGANG MRT, KANGKAR LRT","62, 74, 102, 113, 119, 136, 147, 324",MDM TAY SIOK HWA,MR JIN SEBASTIAN,MR TAN SOON HUI,,,,,HOUGANG,NORTH,GOVERNMENT SCHOOL,CO-ED SCHOOL,SINGLE SESSION,SECONDARY,FALSE,FALSE,FALSE,FALSE,Chinese,Malay,Tamil,STEM,Real-world Explorations in ICT,Community & Youth Leadership,Project Ablaze: Harnessing Student Leadership in the Service of Community,,
264,SPRINGFIELD SECONDARY SCHOOL,http://www.springfieldsec.moe.edu.sg,30   TAMPINES AVENUE 8,529593,63183053,na,63183050,na,SPRINGFIELDS@MOE.EDU.SG,"TAMPINES MRT, TAMPINES WEST MRT","8, 15, 23, 58, 69, 118, 129, 291, 293, 298, 513, 518",MRS MABEL LEONG,MR CHAN WENG ONN MARTIN,MR KEITH TAN,,,,,TAMPINES,EAST,GOVERNMENT SCHOOL,CO-ED SCHOOL,SINGLE SESSION,SECONDARY,FALSE,FALSE,FALSE,FALSE,Chinese,Malay,na,STEM,Exploring Health Sciences through SP2A,Community & Youth Leadership,"GEARing Springfielders for Success - Grounding in Values, Engaged to Learn and Lead, Aspiring to Serve, Ready to Soar",,
267,ST. ANDREW'S SECONDARY SCHOOL,http://www.standrewssec.moe.edu.sg,15   FRANCIS THOMAS DRIVE,359342,62851944,na,63823779,na,sass@moe.edu.sg,POTONG PASIR MRT,"8, 13, 26, 31, 90, 90A, 107, 133, 142, 147, 853",MR LEE HAN HWA,"MR TEO HAN WOON, DENNIS",MISS TEO PEK HOON AGNES,,,,,TOA PAYOH,SOUTH,GOVERNMENT-AIDED SCH,BOYS' SCHOOL,SINGLE SESSION,SECONDARY,FALSE,FALSE,FALSE,FALSE,Chinese,Malay,Tamil,STEM,Saints Engineering Design Programme,Sports & Outdoor Education,Saints Rugby for Life,,
270,ST. ANTHONY'S PRIMARY SCHOOL,http://www.stanthonyspri.moe.edu.sg,30   Bukit Batok St 32,659401,65690822,na,65690811,na,SAPS@MOE.EDU.SG,Bukit Gombak MRT Station,945,MISS CECILIA LIM SEOK CHENG,MDM SEOW SWEE NEO CHRISTINA,MISS MATHEW ANNA,,,,,BUKIT BATOK,WEST,GOVERNMENT-AIDED SCH,CO-ED SCHOOL,SINGLE SESSION,PRIMARY,FALSE,FALSE,FALSE,FALSE,Chinese,Malay,Tamil,STEM,CODE@SAPS,Visual Arts & Design,Visual Arts Programme for Active Learning (VAPAL),,
272,ST. GABRIEL'S SECONDARY SCHOOL,http://www.stgabrielssec.moe.edu.sg,24   SERANGOON AVENUE 1,556140,62889470,na,62898615,na,STGSS@MOE.EDU.SG,SERANGOON MRT,158,MR LIM CHEE KOON SHAWN,MISS CHENG LI NGOH JACKIE,MDM YEE WHOY CHONG,,,,,SERANGOON,SOUTH,GOVERNMENT-AIDED SCH,BOYS' SCHOOL,SINGLE SESSION,SECONDARY,FALSE,FALSE,FALSE,FALSE,Chinese,Malay,Tamil,STEM,Project GaIA - Gabrielites Inspired for Aviation,Community & Youth Leadership,Developing Life Skills through Uniformed Groups Experience,,
279,ST. PATRICK'S SCHOOL,http://www.stpatricks.moe.edu.sg,490  EAST COAST ROAD,429058,63440929,63441429,63445152,na,stpatricksch@moe.edu.sg,KEMBANGAN MRT,"10, 10E, 12, 13, 14, 14E, 15, 16, 31, 32, 36, 40, 43, 47, 48, 55, 135, 150, 155, 196, 197",MR MARK GERARD MINJOOT,MR LEONG TSHUN KHONG PAUL,MS NG FOONG MENG,,,,,BEDOK,EAST,GOVERNMENT-AIDED SCH,BOYS' SCHOOL,SINGLE SESSION,SECONDARY,FALSE,FALSE,FALSE,FALSE,Chinese,Malay,Tamil,STEM,Sports and Health Science,Music & Performing Arts,Music Development Programme,,
282,SWISS COTTAGE SECONDARY SCHOOL,http://www.swisscottagesec.moe.edu.sg,3    BUKIT BATOK STREET 34,659322,65637173,na,65693028,na,SCSS@MOE.EDU.SG,BUKIT GOMBAK MRT,"187, 188, 985, 945",MR SHERWIN CHENG SAN SHIAN,MR HOI WENG KIT DERRICK,MISS WONG WEE LING,,,,,BUKIT BATOK,WEST,GOVERNMENT SCHOOL,CO-ED SCHOOL,SINGLE SESSION,SECONDARY,FALSE,FALSE,FALSE,FALSE,Chinese,Malay,Tamil,STEM,Applied Sciences for Sustainable Development,Community & Youth Leadership,Swiss Thoughtful Leadership Programme,,
286,TAMPINES SECONDARY SCHOOL,https://www.tampinessec.moe.edu.sg,252  TAMPINES ST 12,529427,67835423,na,67843059,na,TPSS@MOE.EDU.SG,TAMPINES MRT,"3,  8,  10,  15,  17,  18,  20,  21,  23,  27,  28,  31,  34,  39,  59,  65,  129,  168,  292,  298,  518",MR LAN MINGJUN,MS SANTHA SUKUMARAN,MR CHEONG TIEN BENG,,,,,TAMPINES,EAST,GOVERNMENT SCHOOL,CO-ED SCHOOL,SINGLE SESSION,SECONDARY,FALSE,FALSE,FALSE,FALSE,Chinese,Malay,Tamil,STEM,Creative Engineering: Inter-disciplinary Authentic Problem Solving,Music & Performing Arts / Visual Arts & Design,Creative Expressions: Expressing creatively through visual and performing arts (Arts Education),,
294,TECK WHYE SECONDARY SCHOOL,http://www.teckwhyesec.moe.edu.sg,31   TECK WHYE CRESCENT,688848,67691386,na,67630487,na,TWSS@MOE.EDU.SG,"CHUA CHU KANG MRT, PHOENIX LRT","975, 985, 190, 982E",MR N SIVARAJAN,MISS DIANA GOH BOON LANG,MDM JANE LEE EE LEI,,,,,CHOA CHU KANG,WEST,GOVERNMENT SCHOOL,CO-ED SCHOOL,SINGLE SESSION,SECONDARY,FALSE,FALSE,FALSE,FALSE,Chinese,Malay,Tamil,STEM,Re-designing the Future with Materials Science,Sports & Outdoor Education,"Sports and Sportsmanship Programme @ TWSS (Experience, Expose, Excel)",,
301,UNITY SECONDARY SCHOOL,http://www.unitysec.moe.edu.sg,20   CHOA CHU KANG STREET 62,689143,67671070,na,67654189,na,UNITY_SS@MOE.EDU.SG,YEW TEE MRT,307,MDM AINI BTE MAAROF,MR DANIEL ONG POH SOON,MS NG TIEN NI JENNY,,,,,CHOA CHU KANG,WEST,GOVERNMENT SCHOOL,CO-ED SCHOOL,SINGLE SESSION,SECONDARY,FALSE,FALSE,FALSE,FALSE,Chinese,Malay,Tamil,STEM,Inspire through Scientific Innovation and Enterprise,Sports & Outdoor Education,Lead through Outdoor and Sporting Adventures,,
316,WOODGROVE SECONDARY SCHOOL,https://woodgrovesec.moe.edu.sg/,3    WOODLANDS AVENUE 6,738990,68932564,na,68934458,na,woodgrove_ss@moe.edu.sg,"WOODLANDS MRT, WOODLANDS SOUTH MRT","901, 901M",MR CHUA CHOR HUAT,MR TAN BOON CHENG,MISS FOO SIEW YONG,,,,,WOODLANDS,NORTH,GOVERNMENT SCHOOL,CO-ED SCHOOL,SINGLE SESSION,SECONDARY,FALSE,FALSE,FALSE,FALSE,Chinese,Malay,Tamil,STEM,Materials Science for Sustainable Living,Community & Youth Leadership,Learners and Leaders for Life,,
319,WOODLANDS RING SECONDARY SCHOOL,http://www.woodlandsringsec.moe.edu.sg,10   WOODLANDS RING ROAD,738239,63643712,na,63643713,na,wrss@moe.edu.sg,ADMIRALTY MRT,912,MDM NG SIEW BEE,MDM NUR HIDAYANI IBRAHIM,MDM KOMATHI D/O P KESAVAN,,,,,WOODLANDS,NORTH,GOVERNMENT SCHOOL,CO-ED SCHOOL,SINGLE SESSION,SECONDARY,FALSE,FALSE,FALSE,FALSE,Chinese,Malay,Tamil,STEM,The Robotics Education & Enterprise (TREE),Community & Youth Leadership,Student Leadership Development through Involvement in the Community Programme,,
320,WOODLANDS SECONDARY SCHOOL,http://www.woodlandssec.moe.edu.sg,11   MARSILING ROAD,739111,68494400,na,62691774,na,wdl_ss@moe.edu.sg,"MARSILING MRT, WOODLANDS MRT","913, 913M, 913T, 178, 856, 903",MDM TAN YANG FERN,MDM MASAYU BINTE MAHMUD,MR CHEN BING HONG,,,,,WOODLANDS,NORTH,GOVERNMENT SCHOOL,CO-ED SCHOOL,SINGLE SESSION,SECONDARY,FALSE,FALSE,FALSE,FALSE,Chinese,Malay,Tamil,STEM,"Real Food, Real Science",Community & Youth Leadership,Active Glocal Citizens Programme,,
329,YIO CHU KANG SECONDARY SCHOOL,http://www.yiochukangsec.moe.edu.sg,3063 ANG MO KIO AVENUE 5,569868,64560669,na,65522927,na,yckss@moe.edu.sg,YIO CHU KANG MRT,"13, 45, 86, 138, 162, 269, 851, 852, 853",MRS LIM CAROL,MISS S G SARAH ABDULLAH,MR LIM HOCK CHYE KEVIN,,,,,ANG MO KIO,SOUTH,GOVERNMENT SCHOOL,CO-ED SCHOOL,SINGLE SESSION,SECONDARY,FALSE,FALSE,FALSE,FALSE,Chinese,Malay,Tamil,STEM,Developing inquiring minds and creative learners through Arduino,Music & Performing Arts,"Growing Character Leadership through Arts, Media and Design",,
335,YUAN CHING SECONDARY SCHOOL,http://www.yuanchingsec.moe.edu.sg,103  YUAN CHING ROAD,618654,62612489,na,62616275,na,YCSS@MOE.EDU.SG,LAKESIDE MRT,"98, 154, 154A, 180, 182, 187, 240, 240A, 246",MS NG SOOK KIT,MR LOH KOK NIAM VINCENT,MR CHEONG LIT SERN WESLEY,,,,,JURONG WEST,WEST,GOVERNMENT SCHOOL,CO-ED SCHOOL,SINGLE SESSION,SECONDARY,FALSE,FALSE,FALSE,FALSE,Chinese,Malay,Tamil,STEM,Marine Robotics,Sports & Outdoor Education,gRowing Values through Sports and Outdoor Education,,
337,YUHUA SECONDARY SCHOOL,http://www.yuhuasec.moe.edu.sg,35   JURONG WEST STREET 41,649406,65661985,na,65696689,na,YUHUA_SS@MOE.EDU.SG,LAKESIDE MRT,"49, 98, 99, 157, 180, 185, 187, 198, 334, 335, 502","MR PANG CHIN KEAT, KEVIN",MR TAN WEIMING BRIAN,MR CHNG PUAY KEONG,,,,,JURONG WEST,WEST,GOVERNMENT SCHOOL,CO-ED SCHOOL,SINGLE SESSION,SECONDARY,FALSE,FALSE,FALSE,FALSE,Chinese,Malay,Tamil,STEM,"Coding, Design, Thinking and Robotics (CODER)",Music & Performing Arts,"MELODY- Music Empowered Learners, Our Dynamic Yuhuans",,
339,YUSOF ISHAK SECONDARY SCHOOL,http://www.yusofishaksec.moe.edu.sg,11   BUKIT BATOK STREET 25,658712,65009800,na,65675502,na,yiss@moe.edu.sg,BUKIT BATOK MRT,"61, 66, 77, 106, 157, 174, 178, 506, 852, 963",MDM LEE WEE LIN MAUREEN,MR WILSON TAY SWEE KIAT,,,,,,BUKIT BATOK,WEST,GOVERNMENT SCHOOL,CO-ED SCHOOL,SINGLE SESSION,SECONDARY,FALSE,FALSE,FALSE,FALSE,Chinese,Malay,Tamil,STEM,"Programme for Authentic Science, Technology and Environmental Learning",Music & Performing Arts / Visual Arts & Design,H2eArts in Tune Programme: History & Heritage through Arts & Music Programme,,
343,ZHENGHUA SECONDARY SCHOOL,http://www.zhenghuasec.moe.edu.sg,91   SENJA ROAD,677741,67639455,na,67633577,na,ZHENGHUA_SS@MOE.EDU.SG,JELAPANG LRT,"920, 922, 976",MR LIN YUCHENG EUGENE,MR PHOR HOAY GUAN,MDM TAN PEI LEE ELAINE,,,,,BUKIT PANJANG,WEST,GOVERNMENT SCHOOL,CO-ED SCHOOL,SINGLE SESSION,SECONDARY,FALSE,FALSE,FALSE,FALSE,Chinese,Malay,Tamil,STEM,Game Design and Simulation and Robotics,Sports & Outdoor Education,Outdoor Education for Character & Leadership Development,,
344,ZHONGHUA PRIMARY SCHOOL,http://www.zhonghuapri.moe.edu.sg,12   SERANGOON AVENUE 4,556095,62835413,na,62823882,na,zhonghua_ps@moe.edu.sg,"Ang Mo Kio MRT, Bishan MRT, Serangoon MRT","Boundary Road: 22,24,53,105,156,315,853,501,502 Yio Chu Kang Road: 70,76,103,147,156,501,502",MDM ROSTINAH BTE MOHAMAD SAID,MDM THAM SIEW LENG,MRS TRINA YEE-POOK SIM NAR,,,,,SERANGOON,SOUTH,GOVERNMENT SCHOOL,CO-ED SCHOOL,SINGLE SESSION,PRIMARY,FALSE,FALSE,FALSE,FALSE,Chinese,Malay,Tamil,STEM,ZPS STE(A)M ? Thinknovate,Community Service & Student Leadership,Green Education Movement @ Zhonghua Primary School (GEM@ZPS),,
