school_id,school_name,url_address,address,postal_code,telephone_no,telephone_no_2,fax_no,fax_no_2,email_address,mrt_desc,bus_desc,principal_name,first_vp_name,second_vp_name,third_vp_name,fourth_vp_name,fifth_vp_name,sixth_vp_name,dgp_code,zone_code,type_code,nature_code,session_code,mainlevel_code,sap_ind,autonomous_ind,gifted_ind,ip_ind,mothertongue1_code,mothertongue2_code,mothertongue3_code,alp_domain,alp_title,llp_domain1,llp_title1,llp_domain2,llp_title2
0,ADMIRALTY PRIMARY SCHOOL,https://admiraltypri.moe.edu.sg/,11   WOODLANDS CIRCLE,738907,63620598,na,63627512,na,ADMIRALTY_PS@MOE.EDU.SG,Admiralty Station,"TIBS 965, 964, 913",MR PEK WEE HAUR,MDM CHUA MUI LING,MDM NUR SABARIAH BTE MOHD IBRAHIM,,,,,WOODLANDS,NORTH,GOVERNMENT SCHOOL,CO-ED SCHOOL,FULL DAY,PRIMARY,No,No,No,No,Chinese,Malay,Tamil,STEM,Design Thinking for Sustainability (DTS @ Admiralty),Community Service & Student Leadership,High Performance Mind-set for Personal Leadership,,
1,ADMIRALTY SECONDARY SCHOOL,http://www.admiraltysec.moe.edu.sg,31   WOODLANDS CRESCENT,737916,63651733,63654596,63652774,na,Admiralty_SS@moe.edu.sg,ADMIRALTY MRT,904,MR LAM YUI- P'NG,MR NG SONG LIM STEVEN,MR SHEIK ALAUDIN B MOHD ISMAIL,,,,,WOODLANDS,NORTH,GOVERNMENT SCHOOL,CO-ED SCHOOL,SINGLE SESSION,SECONDARY,No,No,No,No,Chinese,Malay,Tamil,STEM,Design Thinking Through Innovation and Technology,Community & Youth Leadership,Nurturing Mindful Leaders through Community Outreach,,
2,AHMAD IBRAHIM PRIMARY SCHOOL,http://www.ahmadibrahimpri.moe.edu.sg,10   YISHUN STREET 11,768643,67592906,na,67592927,na,aips@moe.edu.sg,Yishun,"Yishun Ring Road - 812 (white plate); Yishun Ave 2 - 169, 804, 965, 117, 883",MISS ONG LEE CHOO,MADAM SULASNI BINTE ABDUL RAHMAN,,,,,,YISHUN,NORTH,GOVERNMENT SCHOOL,CO-ED SCHOOL,SINGLE SESSION,PRIMARY,No,No,No,No,Chinese,Malay,Tamil,Science,Sustainability Education ? Nurturing Students to be Stewards of Our Environment,Community Service & Student Leadership,From Values to Action - Nurturing Community-Based Student Leaders,,
3,AHMAD IBRAHIM SECONDARY SCHOOL,http://www.ahmadibrahimsec.moe.edu.sg,751  YISHUN AVENUE 7,768928,67585384,na,67557778,na,aiss@moe.edu.sg,"CANBERRA MRT, YISHUN MRT","117, 167, 169, 800, 811, 812, 883, 856, 858, 859, 965, 969, 980",MISS TAN KE XIN,MR YAO ZHIXUAN TERENCE,MISS LEA SHU HUI,,,,,YISHUN,NORTH,GOVERNMENT SCHOOL,CO-ED SCHOOL,SINGLE SESSION,SECONDARY,No,No,No,No,Chinese,Malay,Tamil,Languages & Humanities,Critical Social Inquiry and Media Literacy,Sports & Outdoor Education,Character Development through Outdoor Learning Experience (OLE),,
4,AI TONG SCHOOL,http://www.aitong.moe.edu.sg,100  Bright Hill Drive,579646,64547672,na,64532726,na,AITONG_SCH@MOE.EDU.SG,Bishan MRT,"410, 162, 52",MDM GOH LING LING DIANE,"MDM NG BEE ENG, CINDY",MR YAK BENG WEI,,,,,BISHAN,SOUTH,GOVERNMENT-AIDED SCH,CO-ED SCHOOL,SINGLE SESSION,PRIMARY,Yes,No,No,No,Chinese,na,na,,,Music & Performing Arts,Caring through ARTS,Sports & Outdoor Education,Character and Leadership Development through Outdoor Education Programme
5,ALEXANDRA PRIMARY SCHOOL,http://alexandrapri.moe.edu.sg,2A   Prince Charles Crescent,159016,62485400,na,62485409,na,alexandra_ps@moe.edu.sg,Redhill Station  Tiong Bahru Station,"51, 122, 139, 186, 970.",MDM TEO CHING LING,MDM NORAINI BTE MANSOOR,,,,,,BUKIT MERAH,SOUTH,GOVERNMENT SCHOOL,CO-ED SCHOOL,SINGLE SESSION,PRIMARY,No,No,No,No,Chinese,Malay,Tamil,Science,"Science, Design Technology & Design Thinking at ALPS (SDT2@ALPS)",Community Service & Student Leadership,Cultural Intelligence (CQ) ? The Code of Life,,
6,ANCHOR GREEN PRIMARY SCHOOL,http://www.anchorgreenpri.moe.edu.sg,31   Anchorvale Drive,544969,68861356,na,63159825,na,anchorgreen_ps@moe.edu.sg,MRT : NE16-Sengkang LRT : SW7-TongKang,"Bus 372, 110, 50",MDM NORLIZA BTE A RAHIM,MDM VASUNDHARA  REDDY,MDM NEO LAY PIN,,,,,SENG KANG,NORTH,GOVERNMENT SCHOOL,CO-ED SCHOOL,SINGLE SESSION,PRIMARY,No,No,No,No,Chinese,Malay,Tamil,Interdisciplinary,Empowering Learners to be Environmental Activists (ELEA),Music & Performing Arts/ Visual Arts & Design,"A.G.P.S Arts (Aspire, Grow, Passion and Serve through the Arts)",,
7,ANDERSON PRIMARY SCHOOL,http://www.andersonpri.moe.edu.sg,19   ANG MO KIO AVE 9,569785,64560340,na,65522310,na,anderson_ps@moe.edu.sg,Yio Chu Kang MRT Station,"Ang Mo Kio Ave 9 - Bus 76, 265, 268",MDM DELIA HOO,"MDM NGOH YING LI, JANE",,,,,,ANG MO KIO,NORTH,GOVERNMENT SCHOOL,CO-ED SCHOOL,SINGLE SESSION,PRIMARY,No,No,No,No,Chinese,Malay,Tamil,,,Sports & Outdoor Education,Andersonians Living Actively through Values-based Experiences (ALIVE) Programme,Music & Performing Arts,Values Inculcation Via Arts and Creative Experiences (VIVACE) @ Anderson
8,ANDERSON SECONDARY SCHOOL,http://www.andersonsec.moe.edu.sg,10   ANG MO KIO STREET 53,569206,64598303,na,64586104,na,anderson_ss@moe.edu.sg,"ANG MO KIO MRT, YIO CHU KANG MRT","265, 548, 45, 50, 72",MDM THONG MAY TENG,MDM LOW CHIA YEE,MR JONAH LIM TUCK HWAY,,,,,ANG MO KIO,NORTH,GOVERNMENT SCHOOL,CO-ED SCHOOL,SINGLE SESSION,SECONDARY,No,Yes,No,No,Chinese,Malay,Tamil,,,,,,
9,ANDERSON SERANGOON JUNIOR COLLEGE,www.asrjc.moe.edu.sg,4500 ANG MO KIO AVENUE 6,569843,64596822,na,64598734,na,asrjc@moe.edu.sg,Yio Chu Kang MRT Station,"13, 45, 86, 162, 269, 825, 851, 852, 853, 860",MR MANOGARAN S/O SUPPIAH,MDM LOW BEE YEN,MR CHAN ZHENG MING,,,,,ANG MO KIO,NORTH,GOVERNMENT SCHOOL,CO-ED SCHOOL,FULL DAY,JUNIOR COLLEGE,No,No,No,No,Chinese,Malay,Tamil,,,,,,
10,ANG MO KIO PRIMARY SCHOOL,http://www.angmokiopri.moe.edu.sg,20   ANG MO KIO AVENUE 3,569920,64520794,na,64588121,na,AMKPS@MOE.EDU.SG,Ang Mo Kio MRT Station,"76,132,165,166,169,200,000,000",MRS LIM BEE LAY,MR KYAW SAW LYNN,MDM TAN SIEW KHIM (CHEN XIUQIN),,,,,ANG MO KIO,SOUTH,GOVERNMENT SCHOOL,CO-ED SCHOOL,SINGLE SESSION,PRIMARY,No,No,No,No,Chinese,Malay,Tamil,,,Community Service & Student Leadership,AMKP Leadership-Inspired Values Education (ALIVE),,
11,ANG MO KIO SECONDARY SCHOOL,http://www.angmokiosec.moe.edu.sg,6    ANG MO KIO STREET 22,569362,64548605,na,64582425,na,AMKSS@MOE.EDU.SG,ANG MO KIO MRT,"13, 74, 76, 88, 130, 132, 133, 136, 165, 169, 265, 268, 269, 851, 852",MR SHAW SWEE TAT,MDM TONG WAI HAN,MDM LEE KEE CHIN,,,,,ANG MO KIO,SOUTH,GOVERNMENT SCHOOL,CO-ED SCHOOL,SINGLE SESSION,SECONDARY,No,No,No,No,Chinese,Malay,Tamil,STEM,Environment Science & Technology,Music & Performing Arts,Integrated Arts Programme,,
12,ANGLICAN HIGH SCHOOL,http://www.anglicanhigh.moe.edu.sg,600  UPPER CHANGI ROAD,487012,62414866,na,64414690,na,AHS@MOE.EDU.SG,TANAH MERAH MRT,"2, 9, 12, 14, 24, 31, 35, 38, 45, 47, 48",MR KHOO TSE HORNG,MR GOH CHIN WEI,MR CHIN LIH KEONG,,,,,BEDOK,EAST,GOVERNMENT-AIDED SCH,CO-ED SCHOOL,SINGLE SESSION,SECONDARY,Yes,Yes,No,No,Chinese,na,na,,,,,,
13,ANGLO-CHINESE JUNIOR COLLEGE,http://www.acjc.edu.sg,25   DOVER CLOSE EAST,139745,67750511,na,67775479,na,acjc@acjc.edu.sg,Buona Vista,"74,95,100,105,106,111,145,147,191,196,198,602",DR CHEE YAN HOON SHIRLEEN,MDM SEOW HONG KIANG,"MISS LIM MEI LIN, AUDREY",,,,,QUEENSTOWN,WEST,GOVERNMENT-AIDED SCH,CO-ED SCHOOL,FULL DAY,JUNIOR COLLEGE,No,No,No,No,na,na,na,,,,,,
14,ANGLO-CHINESE SCHOOL (BARKER ROAD),http://www.acsbr.moe.edu.sg,60   BARKER ROAD,309919,62561633,na,62561366,na,acsbr@moe.edu.sg,"NEWTON MRT, STEVENS MRT","48, 66, 67, 170, 960, 972",MR LOO MING YAW,MRS AW MENG YIN,MR TAN WHYE WEE JEFFREY,,,,,NOVENA,SOUTH,GOVERNMENT-AIDED SCH,BOYS' SCHOOL,SINGLE SESSION,SECONDARY,No,No,No,No,Chinese,Malay,Tamil,Languages & Humanities,"Developing Effective Communicators through Drama, Debates and Public Speaking",Sports & Outdoor Education,"Building Character through Sports (Basketball, Rugby, Tennis and Water Polo) & Outdoor Education",,
15,ANGLO-CHINESE SCHOOL (INDEPENDENT),http://www.acsindep.moe.edu.sg,121  DOVER ROAD,139650,67731633,na,67731433,na,ACIS@MOE.EDU.SG,"DOVER MRT, BUONA VISTA MRT, ONE-NORTH MRT","33, 74, 166, 196",MR KOH SUNG- YI ARENE,MRS TEO LAI CHENG JUDY-HO,MISS CHOCK SIEW HWA,MDM YONG LEE HAR,MR SOO MUN KEONG PATRICK,MR CHIEW TECK TZER TERENCE,DR YONG YUN LEONG ANDREW,QUEENSTOWN,SOUTH,INDEPENDENT SCHOOL,CO-ED SCHOOL,SINGLE SESSION,MIXED LEVELS,No,No,Yes,Yes,Chinese,Malay,Tamil,,,,,,
16,ANGLO-CHINESE SCHOOL (JUNIOR),www.acsj.moe.edu.sg,16   WINSTEDT ROAD,227988,67337911,67337912,67346518,na,acjs@moe.edu.sg,Newton MRT Station,"5, 54, 124, 143, 162, 162M, 167, 167e, 518, 518A, 972M",MRS CHAILLAN MUI TUAN,MR CHIA CHEE WENG RICHARD CHRIS,,,,,,CENTRAL,SOUTH,GOVERNMENT-AIDED SCH,BOYS' SCHOOL,SINGLE SESSION,PRIMARY,No,No,No,No,Chinese,Malay,Tamil,Interdisciplinary,Creative Thinkers,Sports & Outdoor Education,"All for Sports, Sports for All @ ACS (Junior)",,
17,ANGLO-CHINESE SCHOOL (PRIMARY),http://www.acspri.moe.edu.sg/,50   BARKER ROAD,309918,62501633,na,63531366,na,acps@moe.edu.sg,Newton MRT Station,"Bus 48, 66, 67, 170, 603, 972M",DR NG SIEW PENG IRENE,MDM CHOH THIAN JENG CELIA,MR CHUA THIAN KEONG,,,,,NOVENA,SOUTH,GOVERNMENT-AIDED SCH,BOYS' SCHOOL,SINGLE SESSION,PRIMARY,No,No,Yes,No,Chinese,Malay,Tamil,,,Sports & Outdoor Education,Building Character Through Sports,Music & Performing Arts/ Visual Arts & Design,The Arts at ACS(P)
18,ANGSANA PRIMARY SCHOOL,www.angsanapri.moe.edu.sg,3    Tampines Street 22,529366,67830427,na,67845293,na,angsana_pri@moe.edu.sg,Tampines and Simei Stations,"Bus Service 8, 17, 18, 20, 28, 34, 39, 59, 518, Feeder Bus Service 292",MISS FOONG YIN WEI,MR BHIMBAHADUR GURUNG,,,,,,TAMPINES,EAST,GOVERNMENT SCHOOL,CO-ED SCHOOL,SINGLE SESSION,PRIMARY,No,No,No,No,Chinese,Malay,Tamil,Coding,Nurturing Problem Solvers through Computational Thinking,Community Service & Student Leadership,Nurturing and Developing 21st Century Leaders through Enrichment and Lifeskills (ENL) Programmes,,
19,ASSUMPTION ENGLISH SCHOOL,http://www.assumptionenglish.moe.edu.sg,622  UPPER BUKIT TIMAH ROAD,678117,65729100,na,67636560,na,AES@MOE.EDU.SG,CASHEW MRT,"67, 75, 170, 176, 178, 184, 961, 963, 970",MR KWOK CHIN POH BENJAMIN,MISS WONG KER SIN,,,,,,BUKIT PANJANG,WEST,GOVERNMENT-AIDED SCH,CO-ED SCHOOL,SINGLE SESSION,SECONDARY,No,No,No,No,Chinese,Malay,Tamil,Languages & Humanities,Speak English with grAce and Knowledge (SPEAK),Community & Youth Leadership,Community and Youth Leadership,,
20,ASSUMPTION PATHWAY SCHOOL,http://www.aps.edu.sg,30   Cashew Road,679697,62793000,na,67622857,na,aps@schools.gov.sg,"DOWNTOWN LINE 2, CASHEW MRT","SBS Transit No 170    SMRT No 67, 75, 171, 176, 178, 184, 961, 963 & 970",MR STEPHEN CHIN,MR SHASHIDARAN S/O KANESON,,,,,,BUKIT PANJANG,WEST,SPECIALISED SCHOOL,CO-ED SCHOOL,SINGLE SESSION,SECONDARY,No,No,No,No,Chinese,Malay,Tamil,,,,,,
21,BARTLEY SECONDARY SCHOOL,http://www.bartleysec.moe.edu.sg,10   JALAN BUNGA RAMPAI,538403,62889013,na,62805595,na,bartley_ss@moe.edu.sg,"BARTLEY MRT, TAI SENG MRT","22, 24, 28, 43, 58, 62, 70, 70M, 76, 80, 80A, 93, 158",MR MOHD AZHAR B TERIMO,MRS TAN CHYE NA,MR NG CHOR YAM,,,,,TOA PAYOH,SOUTH,GOVERNMENT SCHOOL,CO-ED SCHOOL,SINGLE SESSION,SECONDARY,No,No,No,No,Chinese,Malay,Tamil,STEM,Chemical and Life Sciences (Perfumery),Community & Youth Leadership,i-LEAD @ Bartley (Leadership Experience and Development),,
22,BEACON PRIMARY SCHOOL,https://beaconpri.moe.edu.sg/,36   Bukit Panjang Ring Road,679944,67697255,na,67697244,na,beaconprisch@moe.edu.sg,"Bangkit LRT, Fajar LRT Station","920, 922, 971, 972, 972A, 972M, 976",MISS PANG WEE MIAN,MR ONG HONG GHEE,MDM LELA BTE SHAMSUHADI,,,,,BUKIT PANJANG,WEST,GOVERNMENT SCHOOL,CO-ED SCHOOL,SINGLE SESSION,PRIMARY,No,No,No,No,Chinese,Malay,Tamil,Science,Stimulating Senses Through Science (S3),Community Service & Student Leadership,Beacons At Your Service,,
23,BEATTY SECONDARY SCHOOL,http://www.beattysec.moe.edu.sg,1    TOA PAYOH NORTH,318990,62569108,na,62542284,na,BEATTY_SS@MOE.EDU.SG,"BRADDELL MRT, TOA PAYOH MRT","28, 56, 73, 88, 93, 105, 153, 155, 157, 159, 163, 231, 232",MR LING KHOON CHOW,MR LIM SOON WAI,,,,,,TOA PAYOH,SOUTH,GOVERNMENT SCHOOL,CO-ED SCHOOL,SINGLE SESSION,SECONDARY,No,No,No,No,Chinese,Malay,Tamil,STEM,Beattyians Think. Create. Innovate,Community & Youth Leadership,Beatty's Leaders for Life Programme,,
24,BEDOK GREEN PRIMARY SCHOOL,http://www.bedokgreenpri.moe.edu.sg,1    BEDOK SOUTH AVE 2,469317,64425416,na,64491491,na,bgps@moe.edu.sg,"Bedok MRT Station, Tanah Merah MRT Station","Bus No. 2, 9, 12, 24, 31, 34 & 38",MR YONG YIK YEN BENJAMIN,MDM SHARIFAH FAIRUZ BTE S Y A,MR YEO SHO HOR,,,,,BEDOK,EAST,GOVERNMENT SCHOOL,CO-ED SCHOOL,SINGLE SESSION,PRIMARY,No,No,No,No,Chinese,Malay,Tamil,Interdisciplinary,Environmental Education (E2@BGPS),Sports & Outdoor Education,Sports to Reinforce Values Education or STRIVE @ BGPS,,
25,BEDOK GREEN SECONDARY SCHOOL,http://www.bedokgreensec.moe.edu.sg,360  BEDOK NORTH AVE 3,469722,64463301,na,64465969,na,BGSS@MOE.EDU.SG,"BEDOK MRT, BEDOK RESERVOIR MRT","14, 17, 18, 28, 46, 66, 67, 69, 168, 222, 228, 506",MR BOY ENG SENG,MS FOO SHEUE FENG (FU XUEFENG),MISS SAKINAH BINTE MOHAMED SARIP,,,,,BEDOK,EAST,GOVERNMENT SCHOOL,CO-ED SCHOOL,SINGLE SESSION,SECONDARY,No,No,No,No,Chinese,Malay,Tamil,STEM,ilnquire. ilnnovate. Developing scientific thinking and inquiry skills through real-life applications,Music & Performing Arts,PAssion Programme,,
26,BEDOK SOUTH SECONDARY SCHOOL,http://www.bedoksouthsec.moe.edu.sg,1    JALAN LANGGAR BEDOK,468585,64414479,na,64491314,na,bsss@moe.edu.sg,TANAH MERAH MRT,"10, 14, 45",MR TEOH TEIK HOE,MISS AZLINDA BTE SAMSUDIN,MISS TAN PO CHIN,,,,,BEDOK,EAST,GOVERNMENT SCHOOL,CO-ED SCHOOL,SINGLE SESSION,SECONDARY,No,No,No,No,Chinese,Malay,Tamil,Interdisciplinary,Project S.H.I.N.E -- An Integrated Student-Centred and Holistic Programme that Develops Innovation and Nurtures Empathy,Sports & Outdoor Education,SHAPE @ BDS: A School of Healthy And Physically Educated Enthusiasts,,
27,BEDOK VIEW SECONDARY SCHOOL,http://www.bedokviewsec.moe.edu.sg,6    BEDOK SOUTH AVENUE 3,469293,64430563,na,64494286,na,bedokview_ss@moe.edu.sg,TANAH MERAH MRT,"2, 9, 12, 14, 24, 25, 31, 35, 38, 45, 46, 47, 48, 506",MDM TEO YVONNE,MDM CH'NG YUEN PING,MR LAWRENCE KOH,,,,,BEDOK,EAST,GOVERNMENT SCHOOL,CO-ED SCHOOL,SINGLE SESSION,SECONDARY,No,No,No,No,Chinese,Malay,Tamil,Languages & Humanities,Global Awareness for the 21st Century @ BV,Community & Youth Leadership,Good Values @ BV,,
28,BENDEMEER PRIMARY SCHOOL,http://www.bendemeerpri.moe.edu.sg/,91   BENDEMEER ROAD,339948,62982911,na,62995735,na,BENDEMEER_PS@MOE.EDU.SG,"Boon Keng, Kallang","13 23 31 61 64 65 65M 66 125, 125X ,133,140,147,853,857,985",MDM LIM KIM GEK,MRS SANTHI RAVINDRAN,,,,,,KALLANG,SOUTH,GOVERNMENT SCHOOL,CO-ED SCHOOL,SINGLE SESSION,PRIMARY,No,No,No,No,Chinese,Malay,Tamil,,,Community Service & Student Leadership,"Developing Bendemeerians to be Confident Leaders, Rooted in Values",Music & Performing Arts,Bendemeer?s TEMPO (Towards Enhancement of Music and Performing Arts Opportunities)
29,BENDEMEER SECONDARY SCHOOL,http://www.bendemeersec.moe.edu.sg,1    ST WILFRED ROAD,327919,62927616,na,62932594,na,BENDEMEER_SS@MOE.EDU.SG,BOON KENG MRT,"13,  23,  31,  64,  65,  66, 125, 133, 140, 147, 857, 985",MR CHEN FOOK PANG,MR LAWRENCE POON YEW LEE,MR HO CHI CHENG,,,,,KALLANG,SOUTH,GOVERNMENT SCHOOL,CO-ED SCHOOL,SINGLE SESSION,SECONDARY,No,No,No,No,Chinese,Malay,Tamil,STEM,Making Health Science Alive through Authentic Problem-Based Learning,Community & Youth Leadership,Developing Student Leadership Through Service Learning,,
30,BLANGAH RISE PRIMARY SCHOOL,http://www.blangahrisepri.moe.edu.sg/,91   TELOK BLANGAH HEIGHTS,109100,62717387,na,62763037,na,BRPS@MOE.EDU.SG,"Telok Blangah, Tiong Bahru & Redhill",SBS 273 & 124,MR FRANCIS FOO,MDM ONG AI SIAN,MRS LEONG-HO HIL MAY,,,,,BUKIT MERAH,SOUTH,GOVERNMENT SCHOOL,CO-ED SCHOOL,SINGLE SESSION,PRIMARY,No,No,No,No,Chinese,Malay,Tamil,STEM,Aspiring Confident Engineers (ACE)@BRPS,Sports & Outdoor Education,"The RISE3 (Explore, Empower, Enrich) Outdoor Experience",,
31,BOON LAY GARDEN PRIMARY SCHOOL,www.boonlaygardenpri.moe.edu.sg,20   BOON LAY DRIVE,649930,63160998,na,63160209,na,BLGPS@MOE.EDU.SG,Lakeside & Boon Lay,"30,99,154,178,180,187,240,246",MDM CHRISTINE LIM MIN HUI,MDM HOONG WHEE SIEN,,,,,,JURONG WEST,WEST,GOVERNMENT SCHOOL,CO-ED SCHOOL,SINGLE SESSION,PRIMARY,No,No,No,No,Chinese,Malay,Tamil,Interdisciplinary,Thinking curriculum through Habits of Mind @ BLGPS - Developing Self-directed Learners,Community Service & Student Leadership,Environment Education at Boon Lay Garden Primary School,,
32,BOON LAY SECONDARY SCHOOL,https://www.boonlaysec.moe.edu.sg,11   JURONG WEST STREET 65,648354,67940161,na,67941324,na,BLSS@MOE.EDU.SG,BOON LAY MRT,"99, 181, 192, 193, 242, 243, 257, 502, 502A",MR INDERJIT SINGH,MR ABDULATTIF S/O ABDULLAH,MISS SHARON SHEN QIUHUA,,,,,JURONG WEST,WEST,GOVERNMENT SCHOOL,CO-ED SCHOOL,SINGLE SESSION,SECONDARY,No,No,No,No,Chinese,Malay,Tamil,STEM,Exploring Possibilities in Materials Science,Music & Performing Arts,Music & Performing Arts,,
33,BOWEN SECONDARY SCHOOL,http://www.bowensec.moe.edu.sg,2    LORONG NAPIRI,547529,63859466,na,63856559,na,BOWEN_SS@MOE.EDU.SG,"HOUGANG MRT, SERANGOON MRT, SENGKANG MRT","43, 70, 73, 103, 109, 156, 854, 25, 74, 74E, 76, 112, 132, 147, 165, 55",MR LIU EARNLER,MISS LIM GUIHAO,MR TAY YONG SEAH MELVIN,,,,,HOUGANG,NORTH,GOVERNMENT SCHOOL,CO-ED SCHOOL,SINGLE SESSION,SECONDARY,No,No,No,No,Chinese,Malay,Tamil,Business & Entrepreneurship,"Nurturing Creativity, Empathy and Enterprise through Social Entrepreneurship",Community & Youth Leadership,Bowen ChANgemakers Programme,,
34,BROADRICK SECONDARY SCHOOL,http://www.broadricksec.moe.edu.sg,61   DAKOTA CRESCENT,399935,63445025,na,64471427,na,BROADRICK_SS@MOE.EDU.SG,DAKOTA MRT,"10, 16, 30, 31, 32, 33",MDM TAN LAY HONG,MDM SUTINAH BINTE TAIB,"MR QUEK POH BENG, KENNETH",,,,,GEYLANG,EAST,GOVERNMENT SCHOOL,CO-ED SCHOOL,SINGLE SESSION,SECONDARY,No,No,No,No,Chinese,Malay,Tamil,STEM,Broadrick Entrepreneurship in STEM,Community & Youth Leadership,"Confidence And REsilience (CARE) though Aesthetics, Community and Youth Leadership",,
35,BUKIT BATOK SECONDARY SCHOOL,http://www.bukitbatoksec.moe.edu.sg,50   BUKIT BATOK WEST AVE 8,658962,65663121,na,65607006,na,bbss@moe.edu.sg,BUKIT BATOK MRT,"66, 66B, 157, 174, 174E, 178, 506, 941, 991",MR PHUA HUAT CHUAN,MR MAK YEW CHONG,MR WU TIAN HWEE,,,,,BUKIT BATOK,WEST,GOVERNMENT SCHOOL,CO-ED SCHOOL,SINGLE SESSION,SECONDARY,No,No,No,No,Chinese,Malay,Tamil,STEM,Developing Proactive Problem-Solvers who care for our World through STEM,Community & Youth Leadership,Developing Community Youth Leadership through VIA - Journey to Become RESPECTful Leaders,,
36,BUKIT MERAH SECONDARY SCHOOL,http://www.bukitmerahsec.moe.edu.sg,10   LENGKOK BAHRU,159050,64748934,na,64744122,na,bmss@moe.edu.sg,REDHILL MRT,"14, 32, 33, 63, 64, 120, 132, 139, 145, 147, 196, 197, 855, 961",MR CHENG GHEE HOCK TIMOTHY,MR KOH YONG HWEE DARYL,MDM YAP SHARON,,,,,BUKIT MERAH,SOUTH,GOVERNMENT SCHOOL,CO-ED SCHOOL,SINGLE SESSION,SECONDARY,No,No,No,No,Chinese,Malay,Tamil,STEM,Creative Robotics and Engineering,Sports & Outdoor Education,Character Development & Leadership through Sports,,
37,BUKIT PANJANG GOVT. HIGH SCHOOL,http://www.bpghs.moe.edu.sg,7    CHOA CHU KANG AVE 4,689809,67691031,na,67626576,na,BPGHS@MOE.EDU.SG,CHOA CHU KANG MRT,"300, 983",MR CHUA LEK HONG,MR LING TING LIANG EDMUND,,,,,,CHOA CHU KANG,WEST,GOVERNMENT SCHOOL,CO-ED SCHOOL,SINGLE SESSION,SECONDARY,No,Yes,No,No,Chinese,Malay,Tamil,,,,,,
38,BUKIT PANJANG PRIMARY SCHOOL,http://www.bukitpanjangpri.moe.edu.sg,109  CASHEW ROAD,679676,67691912,na,67637462,na,BPPS@MOE.EDU.SG,From Pending LRT station to Choa Chu Kang MRT station,"75, 184",MR BUCKTHA SEELAN,MDM KAY HWEE GEAK,,,,,,BUKIT PANJANG,WEST,GOVERNMENT SCHOOL,CO-ED SCHOOL,SINGLE SESSION,PRIMARY,No,No,No,No,Chinese,Malay,Tamil,,,Music & Performing Arts,i2 Can Dance!,,
39,BUKIT TIMAH PRIMARY SCHOOL,http://www.bukittimahpri.moe.edu.sg,111  Lorong Kismis,598112,64662863,na,64692179,na,bukittimahps@moe.edu.sg,"Beauty World, Bukit Batok and Clementi Stations",173,MDM LEN LENG LENG TERESA KELLY,MR WONG SUNG LAI,MDM KITHA D/O ARUMUGAM,,,,,BUKIT TIMAH,WEST,GOVERNMENT SCHOOL,CO-ED SCHOOL,SINGLE SESSION,PRIMARY,No,No,No,No,Chinese,Malay,Tamil,Interdisciplinary,Inquiry-based Learning Supported by Thinking Routines,Music & Performing Arts,Music for Everyone - Building Empathy and Resilience,,
40,BUKIT VIEW PRIMARY SCHOOL,http://www.bukitviewpri.moe.edu.sg,18   BUKIT BATOK STREET 21,659634,65661980,na,65635015,na,bukitview_ps@moe.edu.sg,Bukit Batok MRT Station,"173,157,178,852,66,106,61,506,963,77",MDM KOH YUEN CHOO,MDM TEO ENG HUI,,,,,,BUKIT BATOK,WEST,GOVERNMENT SCHOOL,CO-ED SCHOOL,SINGLE SESSION,PRIMARY,No,No,No,No,Chinese,Malay,Tamil,Interdisciplinary,"Developing Thinkers, Collaborators and Communicators",Music & Performing Arts,Nurturing Values and Character through Aesthetics,,
41,BUKIT VIEW SECONDARY SCHOOL,https://www.bukitviewsec.moe.edu.sg,16   BUKIT BATOK STREET 21,659633,65661990,na,65630945,na,BUKITVIEW_SS@MOE.EDU.SG,BUKIT BATOK MRT,"61, 66, 77, 106, 157, 173, 174, 178, 189, 506, 653, 852, 963, 990",MR KEVIN ANG,MISS WONG KAH WAI SHIRLEY,MR ANG CHERN KWANG KYRIS,,,,,BUKIT BATOK,WEST,GOVERNMENT SCHOOL,CO-ED SCHOOL,SINGLE SESSION,SECONDARY,No,No,No,No,Chinese,Malay,Tamil,STEM,Clean Energy and Environmental Technology,Music & Performing Arts,"Learning the Arts, Living the Values",,
42,CANBERRA PRIMARY SCHOOL,http://www.canberrapri.moe.edu.sg,21   ADMIRALTY DRIVE,757714,67597433,na,67587312,na,CANBERRA_PS@MOE.EDU.SG,Sembawang MRT Station,Bus No. 859,MR WONG POO MUN,MS HO STEPHANIE LOUISE,MR SHAH JAHAN B MOHAMED IQBAL,,,,,SEMBAWANG,NORTH,GOVERNMENT SCHOOL,CO-ED SCHOOL,SINGLE SESSION,PRIMARY,No,No,No,No,Chinese,Malay,Tamil,ICT & Media,"Start Young, Start It Right ? Curating My Learning",Music & Performing Arts,Immersing in Canberra Experience through Musical Theatre Education,,
43,CANBERRA SECONDARY SCHOOL,https://canberrasec.moe.edu.sg,51   SEMBAWANG DRIVE,757699,67585070,na,67583110,na,CANBERRA_SS@MOE.EDU.SG,SEMBAWANG MRT,"859, 962",MR NG TIONG NAM,MS TNG YA WEN VALERIE,MDM ONG LAY YEN,,,,,SEMBAWANG,NORTH,GOVERNMENT SCHOOL,CO-ED SCHOOL,SINGLE SESSION,SECONDARY,No,No,No,No,Chinese,Malay,Tamil,Aesthetics,Digital Media in Visual Arts,Community & Youth Leadership,Active Holistic Health Advocates (AHHAs) Championing Efforts towards a Healthier Community,,
44,CANOSSA CATHOLIC PRIMARY SCHOOL,https://canossacatholicpri.moe.edu.sg/,1    Sallim Road,387621,68441418,na,68441417,na,ccps@moe.edu.sg,Nearest MRT station: Mattar Station (about 7-minute walk),"Aljunied Road (same side as CCPS): 62, 64, 100    Aljunied Road (opposite CCPS): 61, 62, 64, 66, 100, 135, 154, 155    Merpati Rd (after Jln Anggerek): 40, 61, 63, 65, 66, 135,",MDM SIA LU-MING EUGENIE,MR LEE KOK MENG CLEMENT,,,,,,GEYLANG,EAST,GOVERNMENT-AIDED SCH,CO-ED SCHOOL,SINGLE SESSION,PRIMARY,No,No,No,No,Chinese,Malay,Tamil,,,,,,
45,CANTONMENT PRIMARY SCHOOL,http://www.cantonmentpri.moe.edu.sg,1    Cantonment Close,88256,65119555,na,65119556,na,cantonment_ps@moe.edu.sg,Tanjong Pagar Outram Park,"75, 167, 196",MRS MANOKARA SUGUNAVATHI,MRS AUDREA CHIN,MISS CHENG SHIN MIIN,,,,,BUKIT MERAH,SOUTH,GOVERNMENT SCHOOL,CO-ED SCHOOL,SINGLE SESSION,PRIMARY,No,No,No,No,Chinese,Malay,Tamil,Interdisciplinary,TC@CPS,Music & Performing Arts,PAVE @CPS (Performing Art for Values & Excellence),,
46,CASUARINA PRIMARY SCHOOL,http://www.casuarinapri.moe.edu.sg/,30   PASIR RIS ST 41,518935,65837132,na,65836227,na,CASUARINA_PS@MOE.EDU.SG,Pasir Ris MRT Station,"Nos. 12, 21 & 358",MDM ONG KWEE LAN,MR WONG JUNFU STEVEN,MR TAYEB B RAJIB,,,,,PASIR RIS,EAST,GOVERNMENT SCHOOL,CO-ED SCHOOL,SINGLE SESSION,PRIMARY,No,No,No,No,Chinese,Malay,Tamil,Science,Nature-Based Education,Visual Arts & Design,Holistic Education through the ARTS at Casuarina Primary School (HE?ARTS@CAPS),,
47,CATHOLIC HIGH SCHOOL,http://www.catholichigh.moe.edu.sg,9    BISHAN STREET 22,579767,64582177 (Secondary),64589869 (Primary),64561322 (Secondary),64593938 (Primary),chs@moe.edu.sg,BISHAN MRT,"13, 52, 54, 88, 156, 162, 162M, 410",MR POH CHUN LECK,MISS HO PING PING,MS TAN PEY SAN,MR TAN KELLY,,,,BISHAN,NORTH,GOVERNMENT-AIDED SCH,BOYS' SCHOOL,SINGLE SESSION,MIXED LEVELS,Yes,Yes,Yes,Yes,Chinese,na,na,Science,Coding in Environmental Solutions (CODES),Sports & Outdoor Education,VITALS (Values Infused Through Active Learning in Sports),,
48,CATHOLIC JUNIOR COLLEGE,https://cjc.moe.edu.sg/,129  WHITLEY ROAD,297822,62524083,na,62537267,na,catholic_jc@moe.edu.sg,"Toa Payoh (NS Line),  Novena (NS Line),  Stevens (DT Line),  Caldecott (CC Line,TE Line)","105, 132, 151, 153, 154, 156, 186, 966, 985",MDM CHUA SUAN GEK PHYLLIS,MR TAN JEK SUAN,MDM KAM WAI CHIN,,,,,NOVENA,SOUTH,GOVERNMENT-AIDED SCH,CO-ED SCHOOL,FULL DAY,JUNIOR COLLEGE,No,No,No,No,na,na,na,,,,,,
49,CEDAR GIRLS' SECONDARY SCHOOL,http://www.cedargirlssec.moe.edu.sg,1    CEDAR AVENUE,349692,62884909,na,62820244,na,cedargirlss@moe.edu.sg,"WOODLEIGH MRT, POTONG PASIR MRT, MATTAR MRT","8, 13, 61, 64, 65, 66, 90, 100, 107, 133, 135, 142, 147, 151, 154, 155, 853",MDM TEY KAH HWEE,MDM LIM YING YING,MDM TAN GEOK LAN,,,,,TOA PAYOH,EAST,GOVERNMENT SCHOOL,GIRLS' SCHOOL,SINGLE SESSION,SECONDARY,No,Yes,No,Yes,Chinese,Malay,Tamil,,,,,,
50,CEDAR PRIMARY SCHOOL,Http://www.cedarpri.moe.edu.sg,15   CEDAR AVENUE,349700,62885633,na,62830113,na,CEDAR_PS@MOE.EDU.SG,Potong Pasir MRT Station,"8, 61, 64, 65, 66, 66A, 90, 90A, 100, 135, 151, 154, 155",MR CHRIS CHUA,MS CHOONG PEI CHIN,MDM NUR RASHIDAH BTE ABDUL RASHID,,,,,TOA PAYOH,SOUTH,GOVERNMENT SCHOOL,CO-ED SCHOOL,SINGLE SESSION,PRIMARY,No,No,No,No,Chinese,Malay,Tamil,Interdisciplinary,Creative and Inventive Thinking (CIT) Programme,Community Service & Student Leadership,Leadership through Service and Sports,,
51,CHANGKAT CHANGI SECONDARY SCHOOL,http://www.changkatchangisec.moe.edu.sg,23   SIMEI ST 3,529894,67859790,na,67868481,na,CHANGKATCHGI@MOE.EDU.SG,SIMEI MRT,"5, 9, 20, 38",MR HO MING DA,MISS LOH SEIN LING,MR DANNY CHEW POH HUAT,,,,,TAMPINES,EAST,GOVERNMENT SCHOOL,CO-ED SCHOOL,SINGLE SESSION,SECONDARY,No,No,No,No,Chinese,Malay,Tamil,STEM,Programme SOAR (Student centered Opportunities for AeRospace Industry),Community & Youth Leadership,Service and Leadership through School to Nation,,
52,CHANGKAT PRIMARY SCHOOL,http://www.changkatpri.moe.edu.sg/,11   SIMEI ST 3,529896,67830923,na,67844740,na,CHANGKAT_PS@MOE.EDU.SG,Simei MRT Station,"9,38,5",MDM CHENG HUEY TENG,MDM SITI NAZRAH BTE ABDUL RAHMAN,,,,,,TAMPINES,EAST,GOVERNMENT SCHOOL,CO-ED SCHOOL,SINGLE SESSION,PRIMARY,No,No,No,No,Chinese,Malay,Tamil,STEM,"Empathetic towards our Earth and Environment, skilful in Computational thinking with the development of Coding skills, and Opportunity seekers with entrepreneurial dare (ECO@CKP)",Sports & Outdoor Education,"Sports, Outdoor, Athletics & Recreation @ Changkat Primary",,
53,CHIJ (KATONG) PRIMARY,http://chijkcp.moe.edu.sg/,17   MARTIA ROAD,424821,63443072,na,63459007,na,CHIJKTPS@moe.edu.sg,EUNOS PAYA LEBAR,"15, 55, 36, 16, 135, 197, 196, 31, 13, 76, 12, 10, 14, 32, 40",MDM CHUA SOOK LIAN JUDINA,MDM TAN POH KUAN JOYCELYN,,,,,,BEDOK,EAST,GOVERNMENT-AIDED SCH,GIRLS' SCHOOL,SINGLE SESSION,PRIMARY,No,No,No,No,Chinese,Malay,Tamil,Languages,"Competent, Confident and Respectful Communicators",,Community Student Leadership,,
54,CHIJ (KELLOCK),http://www.chijkellock.moe.edu.sg/,1    Bukit Teresa Road,99757,62730096,na,62731710,na,CHIJKS@MOE.EDU.SG,Outram Park Station,"61, 124, 143, 166",MRS SHANTHI SURAJ NAIR,MS NG CHIOU HIEN HELEN,MRS CHAN-TIONG LE CHIN,,,,,BUKIT MERAH,SOUTH,GOVERNMENT-AIDED SCH,GIRLS' SCHOOL,SINGLE SESSION,PRIMARY,No,No,No,No,Chinese,Malay,Tamil,Interdisciplinary,Rethinking Possibilities to Serve the Common Good,Music & Performing Arts,ArtsONE+ : Purposeful Learning of Music and Performing Arts Using the Self-regulated Approach,,
55,CHIJ KATONG CONVENT,http://www.chijkatongconvent.moe.edu.sg,346  MARINE TERRACE,449150,64486433,na,64494405,na,chijktcs@moe.edu.sg,"BEDOK MRT, KEMBANGAN MRT, EUNOS MRT, PAYA LEBAR MRT","4N, 13, 16, 31, 36, 36A, 36B, 43, 47, 48, 55, 134, 135, 135A, 150, 196, 196E, 197, 853C, 763",MDM CHAN GEK SAN PATRICIA,MDM ONG BEE HOON,MISS LIM AI HUI ANNIE,,,,,MARINE PARADE,EAST,GOVERNMENT-AIDED SCH,GIRLS' SCHOOL,SINGLE SESSION,SECONDARY,No,Yes,No,No,Chinese,Malay,Tamil,,,,,,
56,CHIJ OUR LADY OF GOOD COUNSEL,http://www.chijourladyofgoodcounsel.moe.edu.sg,2C   Burghley Drive,558979,62886930,na,62814132,na,chijolgcs@moe.edu.sg,"Ang Mo Kio MRT, Bishan MRT, Serangoon MRT station.","317 Feeder Bus Service from Serangoon Interchange. 135,136 from Ang Mo Kio Interchange.",MISS TAN LEE YIN GRACE,MRS WONG-LIM ENG LING ANGELINA,MISS LIAT MEI KUEN GERALDINE SHARON,,,,,SERANGOON,SOUTH,GOVERNMENT-AIDED SCH,GIRLS' SCHOOL,SINGLE SESSION,PRIMARY,No,No,No,No,Chinese,Malay,Tamil,Languages,Drama and Literary Arts for LifE! (D?LitE),Community Service & Student Leadership,The PROACTIVE Leader in Me Development Programme,,
57,CHIJ OUR LADY OF THE NATIVITY,http://www.chijourladyofthenativity.moe.edu.sg/,1257 UPPER SERANGOON ROAD,534793,63852455,na,63852012,na,chijoln@moe.edu.sg,Hougang MRT,"74, 102, 112, 113, 119, 136, 147, 324, 672",MDM CHRISTINA TEO,MDM YEO DAI YUN,MDM LIM HUI MEOW ANNIE,,,,,HOUGANG,SOUTH,GOVERNMENT-AIDED SCH,GIRLS' SCHOOL,SINGLE SESSION,PRIMARY,No,No,No,No,Chinese,Malay,Tamil,Languages,"LEAPS (Learn, Engage, Articulate & Perform)",Sports & Outdoor Education,OLN SPARK (SPorts Active and Resilient Kids),,
58,CHIJ OUR LADY QUEEN OF PEACE,http://www.chijourladyqueenofpeace.moe.edu.sg/,4    Chestnut Drive,679287,67691529,na,67653551,na,CHIJOLQP@MOE.EDU.SG,Cashew and Hillview,"180, 67, 171, 176, 177, 178, 184, 961, 963, 970",MS ALBUQUERQUE KAREN ANNE,MISS CECILIA TAN LI HUA,MDM LOH AH LAH CATHERINE MICHELLE,,,,,BUKIT PANJANG,WEST,GOVERNMENT-AIDED SCH,GIRLS' SCHOOL,SINGLE SESSION,PRIMARY,No,No,No,No,Chinese,Malay,Tamil,Science,Science and Environment Education @ OLQP (SEE @ OLQP),Sports & Outdoor Education,Character Lives In My Behaviour (CLIMB) Through Sports,,
59,CHIJ PRIMARY (TOA PAYOH),http://www.chijpritoapayoh.moe.edu.sg,628  Lorong 1 Toa Payoh,319765,63532164,na,63536362,na,CHIJTPPS@MOE.EDU.SG,Toa Payoh,"59, 231, 141",DR TAN SOON KEE MARGARET,MDM MISCHA LEIGH PEREIRA,MRS CHARMAINE LEE,,,,,TOA PAYOH,SOUTH,GOVERNMENT-AIDED SCH,GIRLS' SCHOOL,SINGLE SESSION,PRIMARY,No,No,No,No,Chinese,Malay,Tamil,,,Music & Performing Arts,IJ Venture & Values Programme,Sports & Outdoor Education,IJSports
60,CHIJ SECONDARY (TOA PAYOH),http://www.chijsec.edu.sg,626  LORONG 1 TOA PAYOH,319764,63534972,na,63544573,na,CHIJTPSS@MOE.EDU.SG,TOA PAYOH MRT,"59, 141, 231",MDM RACHEL ANG LAY KOON,MISS TEO GEOK SIAN,MISS PHUA AI LING ADELINE,,,,,TOA PAYOH,SOUTH,GOVERNMENT-AIDED SCH,GIRLS' SCHOOL,SINGLE SESSION,SECONDARY,No,Yes,No,No,Chinese,Malay,Tamil,,,,,,
61,CHIJ ST. JOSEPH'S CONVENT,http://www.chijstjosephsconvent.moe.edu.sg,62   SENGKANG EAST WAY,548595,64897580,na,64897589,na,CHIJSJCS@MOE.EDU.SG,SENGKANG MRT,"50, 82, 86, 88, 119, 136",MRS VALERIE PINTO,MISS TAN KIM BERLINA,MISS HO WEI LING,,,,,SENG KANG,NORTH,GOVERNMENT-AIDED SCH,GIRLS' SCHOOL,SINGLE SESSION,SECONDARY,No,No,No,No,Chinese,Malay,Tamil,Languages & Humanities,The Art of Communication through Theatre and Debates,Community & Youth Leadership,Buidling Critical and Creative Thinking through Future-Problem Solving,,
62,CHIJ ST. NICHOLAS GIRLS' SCHOOL,http://www.chijstnicholasgirls.moe.edu.sg,501  ANG MO KIO STREET 13,569405,63541839 (Secondary),64549698 (Primary),64511335 (Secondary),64566169 (Primary),chijsng_sec@moe.edu.sg,"ANG MO KIO MRT, YIO CHU KANG MRT, MAYFLOWER MRT (End 2021)","76, 265, 268, 269",MDM FIONA YEO SU LING,MISS YEO TECK WOON,MS BAEY EE-LYN,MDM AMY TAN,MR TING POH LEONG ALOYSIUS,,,ANG MO KIO,NORTH,GOVERNMENT-AIDED SCH,GIRLS' SCHOOL,SINGLE SESSION,MIXED LEVELS,Yes,Yes,No,Yes,Chinese,na,na,,,Community Service & Student Leadership,A Leader in Every St Nicks Girl (Student Leadership),,
63,CHIJ ST. THERESA'S CONVENT,http://www.chijsttheresasconvent.moe.edu.sg,160  LOWER DELTA ROAD,99138,64775777,na,64775700,na,CHIJSTCS@MOE.EDU.SG,"HARBOURFRONT MRT, TIONG BAHRU MRT","65, 121, 123, 123M, 124, 131, 131M, 195, 195A, 272, 855",MDM TAN MEI MEI JENNY,MDM ONG LEE LEE,"MISS KUO ZHAOYAN, FELICIA",,,,,BUKIT MERAH,SOUTH,GOVERNMENT-AIDED SCH,GIRLS' SCHOOL,SINGLE SESSION,SECONDARY,No,No,No,No,Chinese,Malay,Tamil,Interdisciplinary,Education For Life ? Developing Portable Skills through and for Real World Problem Solving,Sports & Outdoor Education,"Developing Self-directed, Confident and Resilient Leaders, Learners and Ladies through Sports",,
64,CHONGFU SCHOOL,http://www.chongfu.moe.edu.sg/,170  YISHUN AVENUE 6,768959,67585527,na,62579571,na,CFS@MOE.EDU.SG,Yishun MRT station,Feeder Service 811,MDM FOO MUI CHUW,MR SOON WOO SIN,MISS LIM HWEE MIEN ANGELYNNA,,,,,YISHUN,NORTH,GOVERNMENT-AIDED SCH,CO-ED SCHOOL,SINGLE SESSION,PRIMARY,No,No,No,No,Chinese,Malay,Tamil,,,Sports & Outdoor Education,Growing Character through Sports and Outdoor Education,,
65,CHONGZHENG PRIMARY SCHOOL,http://www.chongzhengpri.moe.edu.sg,1    TAMPINES STREET 21,529392,67819002,na,67845054,na,czps@moe.edu.sg,Tampines MRT Station,"3,3A, 8, 17, 18, 20, 28, 34, 39, 59, 518",MR LIM WEE JAMES,MDM RANJIT KAUR D/O MUKHTAR SINGH,,,,,,TAMPINES,EAST,GOVERNMENT SCHOOL,CO-ED SCHOOL,SINGLE SESSION,PRIMARY,No,No,No,No,Chinese,Malay,Tamil,Innovation & Enterprise,EPIC -  Empowering Pupils to Innovate for Community,Community Service & Student Leadership,Chong Zheng Community Leaders (CZCL),,
66,CHRIST CHURCH SECONDARY SCHOOL,http://www.christchurchsec.moe.edu.sg,20   WOODLANDS DRIVE 17,737924,68933297,na,68932789,na,ccss@moe.edu.sg,"WOODLANDS MRT, WOODLANDS SOUTH MRT","901, 901M, 665",MR LAU YAN BOON DAVID,MR ONG KAH HUI VICTOR,MRS LEE BEE CHEOW,,,,,WOODLANDS,NORTH,GOVERNMENT-AIDED SCH,CO-ED SCHOOL,SINGLE SESSION,SECONDARY,No,No,No,No,Chinese,Malay,Tamil,STEM,Developing 21st Century Competencies through an Inquiry approach  in Health Science and Technology,Sports & Outdoor Education,Developing Social Emotional Learning Competencies through Outdoor Adventure Learning,,
67,CHUA CHU KANG PRIMARY SCHOOL,http://www.chuachukangpri.moe.edu.sg,20   CHOA CHU KANG AVENUE 2,689905,67661574,na,67661583,na,cckps@moe.edu.sg,Choa Chu Kang MRT Station and Southview LRT Station,"Bus Service 300, 301 and NR3 along Chua Chu Kang Ave 2 Bus Service 172, 301, 991 along Chua Chu Kang Ave 1",MDM KUEK YEN YEN SHEREE,MDM CHEW BOON HWEE,,,,,,CHOA CHU KANG,WEST,GOVERNMENT SCHOOL,CO-ED SCHOOL,SINGLE SESSION,PRIMARY,No,No,No,No,Chinese,Malay,Tamil,Coding,Creative Problem Solving through Robotics,Community Service & Student Leadership,A Confident & Caring Leader - Leading Through C.A.R.E,,
68,CHUA CHU KANG SECONDARY SCHOOL,http://www.chuachukangsec.moe.edu.sg,3    TECK WHYE CRESCENT,688845,67655228,67664425,67636807,na,CCKSS@MOE.EDU.SG,CHOA CHU KANG MRT,"190, 307, 975, 982E, 985",MDM ONG LIANG FUNG,MDM HARTATI BTE OSMAN,,,,,,CHOA CHU KANG,WEST,GOVERNMENT SCHOOL,CO-ED SCHOOL,SINGLE SESSION,SECONDARY,No,No,No,No,Chinese,Malay,Tamil,STEM,Robotics & Automation for a Better Tomorrow,Community & Youth Leadership,Student Leadership,,
69,CHUNG CHENG HIGH SCHOOL (MAIN),http://www.chungchenghighmain.moe.edu.sg,50   GOODMAN ROAD,439012,63441393,na,63449686,na,CCHMS@MOE.EDU.SG,DAKOTA MRT,"10, 12, 14, 16, 16M, 30, 31, 32, 33, 40, 43, 135, 134, 196, 197",MR CHAN YING YIN,DR ONG CHUN GHEE,"MDM TAN JWEE LYNN, CHERYL",,,,,MARINE PARADE,EAST,GOVERNMENT-AIDED SCH,CO-ED SCHOOL,SINGLE SESSION,SECONDARY,Yes,Yes,No,No,Chinese,na,na,,,,,,
70,CHUNG CHENG HIGH SCHOOL (YISHUN),http://www.chungchenghighyishun.moe.edu.sg,11   YISHUN STREET 61,768547,67583912,na,67587397,na,cchys@moe.edu.sg,KHATIB MRT,"85, 811, 812, 851, 852, 853, 854, 855, 858, 860, 965, 969",MR TAN YEE KAN,MRS CHONG LAI PENG NEE YEO,MR CHANG FOOK YONG,,,,,YISHUN,NORTH,GOVERNMENT-AIDED SCH,CO-ED SCHOOL,SINGLE SESSION,SECONDARY,No,No,No,No,Chinese,Malay,Tamil,STEM,Food and Science Technology,Music & Performing Arts,Cultivating Values Through Aesthetics,,
71,CLEMENTI PRIMARY SCHOOL,http://www.clementipri.moe.edu.sg,8    CLEMENTI AVE 3,129903,67797449,na,67732898,na,admin_clementi_ps@moe.edu.sg,Clementi MRT Station,We are just beside Clementi Bus Interchange.,MR VIMALENTHIRAN S/O VIJAYASINGAM,MRS TAN SIEW HONG,,,,,,CLEMENTI,WEST,GOVERNMENT SCHOOL,CO-ED SCHOOL,SINGLE SESSION,PRIMARY,No,No,No,No,Chinese,Malay,Tamil,,,Visual Arts & Design,Instilling Lifelong Learning Through Visual Arts,,
72,CLEMENTI TOWN SECONDARY SCHOOL,http://www.clementitownsec.moe.edu.sg,10   CLEMENTI AVE 3,129904,67777362,na,67789543,na,ctss@moe.edu.sg,CLEMENTI MRT,"14, 105, 106, 147, 156, 165, 166, 173, 175, 184, 196, 282, 284, 285, 7, 96, 99",MDM LEE CHING GUAN HELEN,MISS LEONG KAI LING,MRS TAY CHEN LAI,,,,,CLEMENTI,WEST,GOVERNMENT SCHOOL,CO-ED SCHOOL,SINGLE SESSION,SECONDARY,No,No,No,No,Chinese,Malay,Tamil,STEM,CODE: COmputing to Discover and Empower,Community & Youth Leadership,Leadership Development through Uniformed Groups,,
73,COMMONWEALTH SECONDARY SCHOOL,http://www.commonwealthsec.moe.edu.sg,698  WEST COAST ROAD,608784,65606866,na,65645204,na,cwss@moe.edu.sg,"JURONG EAST MRT, CLEMENTI MRT","30, 51, 78, 79, 143, 143M, 176, 201",MR NG BOON KIAT,MR LEOW ZHI WEN PHILIBERT,,,,,,JURONG EAST,WEST,GOVERNMENT SCHOOL,CO-ED SCHOOL,SINGLE SESSION,SECONDARY,No,Yes,No,No,Chinese,Malay,Tamil,,,,,,
74,COMPASSVALE PRIMARY SCHOOL,http://www.compassvalepri.moe.edu.sg/,21   COMPASSVALE ST,545091,63882819,na,63882798,na,cvps@moe.edu.sg,Sengkang,"83 (along Compassvale Street) 27, 89, 89E & 965 (along Compassvale Road).",MR JEFFREY AW,MDM YEOW CHERN EE,,,,,,SENG KANG,NORTH,GOVERNMENT SCHOOL,CO-ED SCHOOL,SINGLE SESSION,PRIMARY,No,No,No,No,Chinese,Malay,Tamil,Coding,Inculcating 21st Century Competencies Through Robotics in Math & Science Curriculum,Music & Performing Arts,Developing Aesthetics Appreciation  Through Music Empowerment,,
75,COMPASSVALE SECONDARY SCHOOL,http://www.compassvalesec.moe.edu.sg,51   COMPASSVALE CRESCENT,545083,68815047,na,68815998,na,CVSS@MOE.EDU.SG,"SENGKANG MRT, COMPASSVALE LRT","27, 27A, 82,  83,  86,  88,  89, 89E, 136, 161, 371, 965",MR CHIA CHOR YANN,MR SUKHDEV SINGH S/O GURDEEP SINGH,MISS KEE LEE LING,,,,,SENG KANG,NORTH,GOVERNMENT SCHOOL,CO-ED SCHOOL,SINGLE SESSION,SECONDARY,No,No,No,No,Chinese,Malay,Tamil,STEM,Aeronautics Applied Learning Programme,Community & Youth Leadership,Inspired North Stars Inspire Actions,,
76,CONCORD PRIMARY SCHOOL,http://www.concordpri.moe.edu.sg/,3    CHOA CHU KANG AVE 4,689814,67632139,na,67632452,na,CONCORD_PS@MOE.EDU.SG,Choa Chu Kang MRT Station,Bus 300 and 983,MR TAN SIEW TIONG,MS LIM KAR WAE FIONA,MDM GOH PUAY HOON JENNY,,,,,CHOA CHU KANG,WEST,GOVERNMENT SCHOOL,CO-ED SCHOOL,SINGLE SESSION,PRIMARY,No,No,No,No,Chinese,Malay,Tamil,Interdisciplinary,"E3 Reasoning (Enable, Enrich and Empower) @ Concord",Sports & Outdoor Education,Outdoor Education@Concord,,
77,CORPORATION PRIMARY SCHOOL,http://www.corporationpri.moe.edu.sg,31   JURONG WEST STREET 24,648347,67957381,na,67957098,na,cps@moe.edu.sg,BOON LAY STATION LAKESIDE STATION,"157 (from Boon Lay Interchange), or 185",MRS JENNIFER PANG CHEE CHYN,MDM POON GEK HONG,MRS CHRISTINA TAN-LIM LAY LENG,,,,,JURONG WEST,WEST,GOVERNMENT SCHOOL,CO-ED SCHOOL,SINGLE SESSION,PRIMARY,No,No,No,No,Chinese,Malay,Tamil,,,Music & Performing Arts,Creativity Through Dance,,
78,CRESCENT GIRLS' SCHOOL,http://www.crescent.edu.sg,357  TANGLIN ROAD,247961,64758711,na,64741248,na,CRESCENTGIRL@MOE.EDU.SG,REDHILL MRT,"32, 111, 122, 132, 51, 139, 186, 970",MRS HELEN CHONG,MISS USHA JEYARAJAH,,,,,,BUKIT MERAH,SOUTH,GOVERNMENT SCHOOL,GIRLS' SCHOOL,SINGLE SESSION,SECONDARY,No,Yes,No,No,Chinese,Malay,Tamil,,,,,,
79,CREST SECONDARY SCHOOL,http://www.crestsec.edu.sg,561  JURONG EAST STREET 24,609561,68992779,na,68992668,na,info@crestsec.edu.sg,"BUKIT BATOK MRT, JURONG EAST MRT","41, 52, 98, 98M, 105, 176, 183, 187, 188, 188R, 333, 502, 868, 990",MR SEET TIAT HEE,MR HO KUM FAI SAM,MR CHAN TECK HONG DAVID,,,,,JURONG EAST,WEST,SPECIALISED SCHOOL,CO-ED SCHOOL,SINGLE SESSION,SECONDARY,No,No,No,No,Chinese,Malay,Tamil,,,,,,
80,DAMAI PRIMARY SCHOOL,http://www.damaipri.moe.edu.sg,52   BEDOK RESERVOIR CRESCENT,479226,64456483,na,64499681,na,DAMAI_PS@MOE.EDU.SG,Bedok North MRT Station,"Bus 228,66,65,22,21,5 and 506",MRS LEONG- TAN LING LING JENNY,MDM LIM PECK CHIN YENLYN,,,,,,BEDOK,EAST,GOVERNMENT SCHOOL,CO-ED SCHOOL,SINGLE SESSION,PRIMARY,No,No,No,No,Chinese,Malay,Tamil,,,Sports & Outdoor Education,SPARKS@Play Programme,Music & Performing Arts,Empowering Learners Through the Arts
81,DAMAI SECONDARY SCHOOL,http://www.damaisec.moe.edu.sg,4800 BEDOK RESERVOIR ROAD,479229,64436848,na,64425629,na,damai_ss@moe.edu.sg,"BEDOK RESERVOIR MRT, BEDOK MRT, TAMPINES MRT","5, 21, 22, 59, 65, 66, 228, 506, CT18",MDM CHAN WAN SIONG,MRS OH WEE MING,MR SIVAKUMAR S/O VISWANATHAN,,,,,BEDOK,EAST,GOVERNMENT SCHOOL,CO-ED SCHOOL,SINGLE SESSION,SECONDARY,No,No,No,No,Chinese,Malay,Tamil,STEM,Environmental & Health Sciences,Sports & Outdoor Education,"Character, Citizenship and Leadership Development through Water Sports",,
82,DAZHONG PRIMARY SCHOOL,http://www.dazhongpri.moe.edu.sg,35   BUKIT BATOK STREET 31,659441,65658002,na,65636421,na,dazhong_ps@moe.edu.sg,Bukit Gombak,"187, 188",MDM YAP SIU LIN,MR PHANG TECK HOW,MRS BOEY- LIM SEOW KHIM,,,,,BUKIT BATOK,WEST,GOVERNMENT SCHOOL,CO-ED SCHOOL,SINGLE SESSION,PRIMARY,No,No,No,No,Chinese,Malay,Tamil,,,Music & Performing Arts,Developing 21st CC through Arts Education Programme @ Dazhong (AEP@D),,
83,DE LA SALLE SCHOOL,http://www.delasalle.moe.edu.sg,11   Choa Chu Kang St 52,689285,67667675,na,67622075,na,dlss@moe.edu.sg,YEW TEE MRT,"TIBS 302, 979",MDM CHERYL CHOO SHUEH-LI,MR CHING KIN HIN,,,,,,CHOA CHU KANG,WEST,GOVERNMENT-AIDED SCH,CO-ED SCHOOL,SINGLE SESSION,PRIMARY,No,No,No,No,Chinese,Malay,Tamil,,,Community Service & Student Leadership,Positive Education@DLS: Nurturing Mindful Servant Leaders,,
84,DEYI SECONDARY SCHOOL,http://www.deyisec.moe.edu.sg,1    ANG MO KIO STREET 42,569277,64561565,na,64583364,na,DEYI_SS@MOE.EDU.SG,ANG MO KIO MRT,"22, 24, 25, 45, 50, 55, 73, 74, 76, 88, 132, 135, 159, 162, 165, 261, 262, 268, 652, 853",MRS LIM AI POO,MDM TAN SHAO MAY,MR APOLLOS INDUCHOODAN S/O R A P,,,,,ANG MO KIO,SOUTH,GOVERNMENT SCHOOL,CO-ED SCHOOL,SINGLE SESSION,SECONDARY,No,No,No,No,Chinese,Malay,Tamil,Languages & Humanities,"Pen it down, Mike it up!",Music & Performing Arts,Nurturing Confident Communicators and Gracious Citizens through the Arts,,
85,DUNEARN SECONDARY SCHOOL,http://www.dunearnsec.moe.edu.sg,21   BUKIT BATOK WEST AVENUE 2,659204,65653692,na,65668650,na,DUNEARN_SS@MOE.EDU.SG,"BUKIT BATOK MRT, BUKIT GOMBAK MRT","160, 180, 187, 188, 945, 947, 985",MDM TAN MIAO LING,MRS SHANTHIMALAR SOMASUNDRAM,MISS TAY JIA MING JASMINE,,,,,BUKIT BATOK,WEST,GOVERNMENT SCHOOL,CO-ED SCHOOL,SINGLE SESSION,SECONDARY,No,No,No,No,Chinese,Malay,Tamil,STEM,FSciTech: Developing Dunearnites as confident and creative young scientists through Food Science and Technology,Community & Youth Leadership,Every Dunearnite a Community Youth Leader,,
86,DUNMAN HIGH SCHOOL,http://www.dunmanhigh.moe.edu.sg,10   TANJONG RHU ROAD,436895,63450533,na,63442316,na,DHS@MOE.EDU.SG,"ALJUNIED MRT, KALLANG MRT, MOUNTBATTEN MRT","12, 14, 30, 158, 196",MR LOW TECK ENG TONY,MISS LIE SUYIN JAMIE,MDM LEONG SOOK HING,MR CHUA KAH SHENG,,,,KALLANG,EAST,GOVERNMENT SCHOOL,CO-ED SCHOOL,SINGLE SESSION,MIXED LEVELS,Yes,Yes,Yes,Yes,Chinese,na,na,,,,,,
87,DUNMAN SECONDARY SCHOOL,http://www.dunmansec.moe.edu.sg,21   TAMPINES STREET 45,529093,67862668,na,67842164,na,DUNMAN_SS@MOE.EDU.SG,TAMPINES EAST MRT,"28, 29, 293",MR TOH THIAM CHYE,MRS CLAIRE CHO,MR MOHAMED SAYADI BIN MOHAMED NOR,,,,,TAMPINES,EAST,GOVERNMENT SCHOOL,CO-ED SCHOOL,SINGLE SESSION,SECONDARY,No,Yes,No,No,Chinese,Malay,Tamil,,,,,,
88,EAST SPRING PRIMARY SCHOOL,http://www.eastspringpri.moe.edu.sg,31   TAMPINES ST 33,529258,67866192,na,67866649,na,esps@moe.edu.sg,Tampines,"291, 28,18",MR WONG KIN MUN,MRS LEE-GOH SIEW LING MARIA,,,,,,TAMPINES,EAST,GOVERNMENT SCHOOL,CO-ED SCHOOL,SINGLE SESSION,PRIMARY,No,No,No,No,Chinese,Malay,Tamil,ICT & Media,Digital Creativity @ ESPS,Sports & Outdoor Education,SPRING for Life ? Developing Character through Sports,,
89,EAST SPRING SECONDARY SCHOOL,http://www.eastspringsec.moe.edu.sg,30   TAMPINES STREET 34,529231,65873805,na,65873804,na,esss@moe.edu.sg,"TAMPINES MRT, TAMPINES EAST MRT","3, 4, 9, 12, 17, 18, 19, 21, 28, 29, 34, 37, 39, 59, 81, 291, 518",MISS HO SUSIE,MR ANG JOHNNY,MR TAN SHIN EIK,,,,,TAMPINES,EAST,GOVERNMENT SCHOOL,CO-ED SCHOOL,SINGLE SESSION,SECONDARY,No,No,No,No,Chinese,Malay,Tamil,STEM,21st Century Innovators through Health Science,Community & Youth Leadership,Every Student a Leader Through Service,,
90,EDGEFIELD PRIMARY SCHOOL,http://www.edgefieldpri.moe.edu.sg,41   EDGEFIELD PLAINS,828869,63126091,na,63126093,na,edgefield_ps@moe.edu.sg,Punggol MRT,"3, 34, 62, 82, 83, 136",MR MICHEL SAW MUN SEONG,MR LOW KAH HENG THOMAS,MDM FAZILAH MARICAR D/O MD ALI M,,,,,PUNGGOL,NORTH,GOVERNMENT SCHOOL,CO-ED SCHOOL,SINGLE SESSION,PRIMARY,No,No,No,No,Chinese,Malay,Tamil,Science,Environmental Science and Sustainability,Music & Performing Arts,Values Inculcation through the Aesthetics,,
91,EDGEFIELD SECONDARY SCHOOL,http://www.edgefieldsec.moe.edu.sg,36   PUNGGOL FIELD,828814,68839511,na,63153120,na,edgefield_ss@moe.edu.sg,PUNGGOL MRT,"3, 34, 62, 82, 83, 119, 136, 381, 382G",MR LEE PECK PING,MDM LIM PUAY KHENG,MR BENSON TEO HONG GUAN,,,,,PUNGGOL,NORTH,GOVERNMENT SCHOOL,CO-ED SCHOOL,SINGLE SESSION,SECONDARY,No,No,No,No,Chinese,Malay,Tamil,Business & Entrepreneurship,Growing the Entrepreneurial Mindset (GEM),Sports & Outdoor Education,Character Education Through Sports (Anchored on Taekwondo),,
92,ELIAS PARK PRIMARY SCHOOL,http://www.eliasparkpri.moe.edu.sg,11   PASIR RIS STREET 52,518866,65844393,na,65844392,na,epps@moe.edu.sg,Pasir Ris MRT,"3, 15, 39, 53, 81, 88, 89, 357, 403, 518",MDM CHUA PEI PEI,MRS ESTHER SEE-LING SZENGEN,MR MOHAMAD NOOR BIN ABDUL MANAF @,,,,,PASIR RIS,EAST,GOVERNMENT SCHOOL,CO-ED SCHOOL,SINGLE SESSION,PRIMARY,No,No,No,No,Chinese,Malay,Tamil,,,Community Service & Student Leadership,Character In Action @ EPPS,Music & Performing Arts,Arts Creatively Expressed @ Elias - ACE@Elias
93,ENDEAVOUR PRIMARY SCHOOL,https://endeavourpri.moe.edu.sg/,10   Admiralty Link,757521,64824650,64824835,64824670,na,endeavour_ps@moe.edu.sg,Sembawang MRT Station,"859, 962",MR KOH KIAN SENG THOMAS,MR RAZALI B SENIN,MDM CHUA HUI PIN,,,,,SEMBAWANG,NORTH,GOVERNMENT SCHOOL,CO-ED SCHOOL,SINGLE SESSION,PRIMARY,No,No,No,No,Chinese,Malay,na,Interdisciplinary,Nurturing Thinkers through Knowledge Building Practices,Music & Performing Arts,Every Child A Performer (ECAP),,
94,EUNOIA JUNIOR COLLEGE,http://www.eunoiajc.moe.edu.sg,2    Sin Ming Place,573838,63518388,na,63518399,na,eunoiajc@moe.edu.sg,"Bishan MRT Station, Marymount MRT Station, Ang Mo Kio MRT Station","13, 52, 74, 88, 130, 410G, 410W, 851, 852",MDM CHEANG MEI HENG,MR TAY JUNCHENG ADRIAN,MR CHEN XUANTING EDMUND,,,,,BISHAN,NORTH,GOVERNMENT SCHOOL,CO-ED SCHOOL,FULL DAY,JUNIOR COLLEGE,No,No,No,Yes,Chinese,Malay,Tamil,,,,,,
95,EUNOS PRIMARY SCHOOL,http://www.eunospri.moe.edu.sg/,95   JALAN EUNOS,419529,67463336,na,67488554,na,eunos_ps@moe.edu.sg,Nearest MRT Station - Eunos,"Bus Services (SBS): 15, 21, 25, 51, 55, 63, 93, 94, 60 Bus Services (SMRT) : 61, 854, 966",MDM PHUA YIN LIN GRACE,MDM TAN KIM YAN,,,,,,GEYLANG,EAST,GOVERNMENT SCHOOL,CO-ED SCHOOL,SINGLE SESSION,PRIMARY,No,No,No,No,Chinese,Malay,Tamil,,,Music & Performing Arts,Student Development in the Arts and through the Arts,,
96,EVERGREEN PRIMARY SCHOOL,http://www.evergreenpri.moe.edu.sg/,31   WOODLANDS CIRCLE,738908,63687705,na,63688084,na,EVERGREEN_PS@MOE.EDU.SG,Admiralty,"913(front), 911 & 858(back)",MDM RABIATHUL BAZRIYA D/O ABU BAKAR,MDM YEO SIAU YEN,MRS PETRINA KOH,,,,,WOODLANDS,NORTH,GOVERNMENT SCHOOL,CO-ED SCHOOL,SINGLE SESSION,PRIMARY,No,No,No,No,Chinese,Malay,Tamil,,,Music & Performing Arts,Learning Through the Arts & Learning In the Arts,,
97,EVERGREEN SECONDARY SCHOOL,http://www.evergreensec.moe.edu.sg,11   WOODLANDS STREET 83,738489,63656392,na,63658083,na,EVERGREEN_SS@MOE.EDU.SG,WOODLANDS MRT,911,MR TOH KIM YONG VINCENT,MR CHUA TUNG KIAN,MR LAK YAU HUI,,,,,WOODLANDS,NORTH,GOVERNMENT SCHOOL,CO-ED SCHOOL,SINGLE SESSION,SECONDARY,No,No,No,No,Chinese,Malay,Tamil,Languages & Humanities,"Developing Effective Communicators, Caring Leaders and Inventive Thinking through National Education",Sports & Outdoor Education,Strengthening Resilience and Character through Leadership and Sports Education,,
98,FAIRFIELD METHODIST SCHOOL (PRIMARY),http://www.fmsp.moe.edu.sg/,100  DOVER ROAD,139648,67788431,na,67762948,na,fmsp@moe.edu.sg,"One-North MRT, Buona Vista MRT & Dover MRT","SBS Bus 14,33,74,166 & 196",MDM LAW LI MEI,MDM QUEK TSUI LAN PRISCA,,,,,,QUEENSTOWN,SOUTH,GOVERNMENT-AIDED SCH,CO-ED SCHOOL,SINGLE SESSION,PRIMARY,No,No,No,No,Chinese,Malay,Tamil,Languages,SPEAK (School-wide Programme to Enhance Articulateness among Kids): Pathways to Oracy,Music & Performing Arts,HeARTS - Developing empathy and building social awareness through the ARTS,,
99,FAIRFIELD METHODIST SCHOOL (SECONDARY),http://www.fairfieldmethodistsec.moe.edu.sg,102  DOVER ROAD,139649,67788702,na,67797482,na,FMSS@MOE.EDU.SG,"BUONA VISTA MRT, ONE-NORTH MRT","33, 74, 166, 196",MS CHEN LI YING AUDREY,MR LIM SIN HENG,MR LIM YONG CHAI ALAN,,,,,QUEENSTOWN,SOUTH,GOVERNMENT-AIDED SCH,CO-ED SCHOOL,SINGLE SESSION,SECONDARY,No,Yes,No,No,Chinese,Malay,Tamil,,,,,,
100,FAJAR SECONDARY SCHOOL,http://www.fajarsec.moe.edu.sg,31   GANGSA ROAD,678972,67691491,na,67633025,na,FAJAR_SS@MOE.EDU.SG,"BUKIT PANJANG MRT, BUKIT PANJANG LRT, PETIR LRT","67, 75, 75A, 170, 171, 176, 177, 178, 180, 180A, 920, 922, 960, 961, 963, 963E, 963R, 970, 972, 972A, 973, 973A, 975, 976, 979",MISS HO SOOK FUN DORIS,MS CHOO WAN XIAN,MR NGOH SING KIEN ARTHUR,,,,,BUKIT PANJANG,WEST,GOVERNMENT SCHOOL,CO-ED SCHOOL,SINGLE SESSION,SECONDARY,No,No,No,No,Chinese,Malay,Tamil,STEM,Sustainability through 21st Century Applied Critical and Inventive Thinking Skills (ACIT),Community & Youth Leadership,Rise to Lead,,
101,FARRER PARK PRIMARY SCHOOL,http://www.farrerparkpri.moe.edu.sg,2    FARRER PARK ROAD,217567,62952272,na,62942272,na,fpps@moe.edu.sg,Farrer Park MRT Station,131,MISS CHEONG HWEE KHIM,MR RAMESH MUKUNDHAN,,,,,,KALLANG,SOUTH,GOVERNMENT SCHOOL,CO-ED SCHOOL,SINGLE SESSION,PRIMARY,No,No,No,No,Chinese,Malay,Tamil,Languages,Drama in Education (iDREaM),Community Service & Student Leadership,iCARE - Leaders of Tomorrow,,
102,FENGSHAN PRIMARY SCHOOL,http://www.fengshanpri.moe.edu.sg,307  BEDOK NORTH ROAD,469680,65860123,na,65860122,na,fsps@moe.edu.sg,Bedok MRT,"18, 228, 222, 17, 69, 66, 67, 168, 28, 506, 14, 45",MR POH CHEE YANG,MDM LAI KAI CHING,MR LEE MIN SEN,,,,,BEDOK,EAST,GOVERNMENT SCHOOL,CO-ED SCHOOL,SINGLE SESSION,PRIMARY,No,No,No,No,Chinese,Malay,Tamil,,,Sports & Outdoor Education,Anchored and Driven Leaders through Sports Excellence,,
103,FERN GREEN PRIMARY SCHOOL,www.ferngreenpri.moe.edu.sg,70   Fernvale Link,797538,68343100,na,68343116,na,ferngreen_ps@moe.edu.sg,Kupang LRT Station (SW3),"85, 102",MRS TANG- CHIM LEE MAI,MR SEE KOK KIONG,MDM KYLICIA SOO GEOK LING,,,,,SENG KANG,EAST,GOVERNMENT SCHOOL,CO-ED SCHOOL,SINGLE SESSION,PRIMARY,No,No,No,No,Chinese,Malay,Tamil,,,,,,
104,FERNVALE PRIMARY SCHOOL,www.fernvalepri.moe.edu.sg,1    Fernvale Lane,797701,63153051,na,63153067,na,fernvale_ps@moe.edu.sg,Fernvale LRT (Sengkang West Loop),"Along Sengkang West Ave - Bus Services 50, 163; Along Yio Chu Kang Road - Bus Services 70, 86, 103 and 854.",MDM BALAKRISHNA VYJANTHIMALA,MISS YAP AI LI,MR YAP LIH MIN SAMUEL,,,,,SENG KANG,NORTH,GOVERNMENT SCHOOL,CO-ED SCHOOL,SINGLE SESSION,PRIMARY,No,No,No,No,Chinese,Malay,Tamil,Science,Future Skills Programme,Community Service & Student Leadership,"Greenova - To nurture, innovative, responsible, young environmentalists who love and care for the environment",,
105,FIRST TOA PAYOH PRIMARY SCHOOL,http://www.firsttoapayohpri.moe.edu.sg,7    LORONG 8 TOA PAYOH,319252,62567822,na,62561102,na,FTPPS@MOE.EDU.SG,Braddell & Toa Payoh Stations,"157,153,105,159,88,FS238",MR CHUA CHOON GUAN,MDM LOW LEE CHERN,,,,,,TOA PAYOH,SOUTH,GOVERNMENT SCHOOL,CO-ED SCHOOL,SINGLE SESSION,PRIMARY,No,No,No,No,Chinese,Malay,Tamil,,First Clicks - Literacy Through Photography (Visual Arts & Design),Sports & Outdoor Education,Character Building Through Outdoor Experiential Learning,,
106,FRONTIER PRIMARY SCHOOL,http://www.frontierpri.moe.edu.sg,20   Jurong West Street 61,648200,65789555,na,67908596,na,frontier_ps@moe.edu.sg,Pioneer MRT Station (EW28),"241, 974, 179",MDM LEE YEW KOON TONNINE,MDM CHAN YEE CHIN WILNA,MDM DAPHNE CHAN PEI SZE,,,,,JURONG WEST,WEST,GOVERNMENT SCHOOL,CO-ED SCHOOL,SINGLE SESSION,PRIMARY,No,No,No,No,Chinese,Malay,Tamil,Languages,Frontier?s Approach to Communicating Effectively,Music & Performing Arts,danceFRONT,,
107,FUCHUN PRIMARY SCHOOL,http://www.fuchunpri.moe.edu.sg,23   WOODLANDS AVENUE 1,739063,63683925,na,63670117,na,FCPS@MOE.EDU.SG,Marsiling,"187,856,912,925,950,960,961,963,963E,963R,966",MRS EUNICE LIM,MISS LIM PEI LIN OLIVIA,MR TAN CHIN KEE,,,,,WOODLANDS,NORTH,GOVERNMENT SCHOOL,CO-ED SCHOOL,SINGLE SESSION,PRIMARY,No,No,No,No,Chinese,Malay,Tamil,Languages,Speak Up! at Fuchun,Music & Performing Arts,Aesthetically Responding To Shine (ARTS),,
108,FUCHUN SECONDARY SCHOOL,http://www.fuchunsec.moe.edu.sg,21   WOODLANDS AVENUE 1,739062,63681984,na,63670180,na,fcss@moe.edu.sg,"MARSILING MRT, WOODLANDS MRT","187, 856, 912, 913M, 925, 925M, 926, 950, 960, 960E, 961, 961M, 963, 963E, 963R, 966, 912B, 912M",MDM ONG BEE LIAN DORIS,"MR SIM KOK HIAN, KENNETH",MR KWAN YEW MENG,,,,,WOODLANDS,NORTH,GOVERNMENT SCHOOL,CO-ED SCHOOL,SINGLE SESSION,SECONDARY,No,No,No,No,Chinese,Malay,Tamil,STEM,Innovations in Science & Technology for Sustain-Ability,Music & Performing Arts,Values Through Dance,,
109,FUHUA PRIMARY SCHOOL,http://www.fuhuapri.moe.edu.sg,65   JURONG EAST STREET 13,609647,65624370,na,65639542,na,fhps@moe.edu.sg,JURONG EAST MRT STATION,"JURONG EAST CENTRAL (BS28441): 41,49,52,105,160,160A,160M,176,183,334,506    JURONG EAST CENTRAL (BS28431):51,66,78,79,143, 143M, 176, 335",MR GANESAN S/O RAMAN,MDM TEO SIEW KHIM,,,,,,JURONG EAST,WEST,GOVERNMENT SCHOOL,CO-ED SCHOOL,SINGLE SESSION,PRIMARY,No,No,No,No,Chinese,Malay,Tamil,Coding,Students As Designers for the 21st Century,Community Service & Student Leadership,Environmental Champions @ FHPS Programme,,
110,FUHUA SECONDARY SCHOOL,http://www.fuhuasec.moe.edu.sg,5    JURONG WEST STREET 41,649410,65633067,na,65634379,na,FHSS@MOE.EDU.SG,"CHINESE GARDEN MRT, LAKESIDE MRT","49, 98, 99, 157, 180, 185, 187, 198, 334, 335, 502, 657",MISS FOONG LAI LEONG,MR SIM HOW CHONG,MRS SHAIMA ANSHAD,,,,,JURONG WEST,WEST,GOVERNMENT SCHOOL,CO-ED SCHOOL,SINGLE SESSION,SECONDARY,No,No,No,No,Chinese,Malay,Tamil,STEM,Forensic Science@Fuhua,Community & Youth Leadership,"Values in Action, Leadership through Service",,
111,GAN ENG SENG PRIMARY SCHOOL,http://www.ganengsengpri.moe.edu.sg,100  REDHILL CLOSE,158901,64717451,na,64794152,na,gesps@moe.edu.sg,Redhill,"14, 63, 147, 196, 197, 855, 961","MR LEE WEI YAP, ROY",MDM RINA D/O BHASI,,,,,,BUKIT MERAH,SOUTH,GOVERNMENT SCHOOL,CO-ED SCHOOL,SINGLE SESSION,PRIMARY,No,No,No,No,Chinese,Malay,Tamil,Interdisciplinary,From Farm to Table,Music & Performing Arts,"Nurturing Aesthetics and Values Development in Children through Band, Choir and Performing Arts",,
112,GAN ENG SENG SCHOOL,http://www.ganengsengsch.moe.edu.sg,1    HENDERSON ROAD,159561,64745594,na,64732479,na,GESS@MOE.EDU.SG,"REDHILL MRT, TIONG BAHRU MRT","14, 16, 32, 33, 51, 63, 64, 120, 122, 145, 139, 186, 851, 970",MISS TAN HWEE PIN,MR CHUNG KWOK LEONG DANIEL,MDM SARAWATHY D/O VARADARAJU,,,,,BUKIT MERAH,SOUTH,GOVERNMENT SCHOOL,CO-ED SCHOOL,SINGLE SESSION,SECONDARY,No,No,No,No,Chinese,Malay,Tamil,STEM,GESS Probes Programme,Community & Youth Leadership,GESS LIFE Programme,,
113,GEYLANG METHODIST SCHOOL (PRIMARY),www.geylangmethodistpri.moe.edu.sg,4    Geylang East Central,389706,67486746,na,67488980,na,GMSP@moe.edu.sg,Aljunied,"80, 134, 155",MDM JENNIFER HAN ENG JUAN,MR LUA EE PING,,,,,,GEYLANG,EAST,GOVERNMENT-AIDED SCH,CO-ED SCHOOL,SINGLE SESSION,PRIMARY,No,No,No,No,Chinese,Malay,Tamil,,,Community Service & Student Leadership,"GM Earth Warriors Environment Education (EE): To Develop Student Leaders who Empathise, Enrich and Empower",,
114,GEYLANG METHODIST SCHOOL (SECONDARY),http://www.geylangmethodistsec.moe.edu.sg,2    GEYLANG EAST CENTRAL,389705,67466503,na,67477317,na,gmss@moe.edu.sg,ALJUNIED MRT,"40, 62, 63, 80, 100, 125, 134, 155, 158",MR WEE TAT CHUEN,MDM LOY WEE MENG,MR LEW KING LUN JULIAN,,,,,GEYLANG,EAST,GOVERNMENT-AIDED SCH,CO-ED SCHOOL,SINGLE SESSION,SECONDARY,No,No,No,No,Chinese,Malay,Tamil,STEM,Environmental Science and Sustainable Living,Community & Youth Leadership,Nurturing Confident and Compassionate Leaders via Values-in-Action,,
115,GONGSHANG PRIMARY SCHOOL,http://www.gongshangpri.moe.edu.sg,1    TAMPINES STREET 42,529176,67831191,na,67880004,na,GSPS@MOE.EDU.SG,Tampines (Downtown Line and East West Line) and Tampines East (Downtown Line),"4, 8, 18, 19, 21, 37, 38, 81, 293",MDM LIM TZYY SHIUAN,MRS SELINA LEE,,,,,,TAMPINES,EAST,GOVERNMENT SCHOOL,CO-ED SCHOOL,SINGLE SESSION,PRIMARY,No,No,No,No,Chinese,Malay,na,,,Sports & Outdoor Education,Character Through Sports,,
116,GREENDALE PRIMARY SCHOOL,http://www.greendalepri.moe.edu.sg,50   Edgedale Plains,828848,68861413,na,68861419,na,greendale_ps@moe.edu.sg,Punggol LRT:  Coral Edge,"3,62, 83, 85, 386",MDM NG SOH HUA,MDM SEING JEE CHING JASMINE,MR TAN SIAN YEOW TERENCE,,,,,PUNGGOL,NORTH,GOVERNMENT SCHOOL,CO-ED SCHOOL,SINGLE SESSION,PRIMARY,No,No,No,No,Chinese,Malay,Tamil,Interdisciplinary,Developing Critical and Inventive Thinking Skills through Toy Design,Sports & Outdoor Education,Developing 21st Century Lifelong Learners through Outdoor Education,,
117,GREENDALE SECONDARY SCHOOL,http://www.greendalesec.moe.edu.sg,51   EDGEDALE PLAINS,828866,63158616,na,63158420,na,greendale_ss@moe.edu.sg,"PUNGGOL MRT, MERIDIAN LRT","3, 62, 83, 85, 136, 386",MISS NG AMY,MR LOH CHIH HUI,MRS ANNE CHAN,,,,,PUNGGOL,NORTH,GOVERNMENT SCHOOL,CO-ED SCHOOL,SINGLE SESSION,SECONDARY,No,No,No,No,Chinese,Malay,Tamil,STEM,SMART Living: Design. Code. Build,Sports & Outdoor Education,Character Development through Outdoor and Adventure Education,,
118,GREENRIDGE PRIMARY SCHOOL,http://www.greenridgepri.moe.edu.sg,11   JELAPANG ROAD,677744,67604265,na,67620189,na,GRPS@MOE.EDU.SG,"Senja LRT station, Jelapang LRT Station","Bus 920, 922, 972",MDM ONG FEI MIN,MDM GOH LUNG ENG,,,,,,BUKIT PANJANG,WEST,GOVERNMENT SCHOOL,CO-ED SCHOOL,SINGLE SESSION,PRIMARY,No,No,No,No,Chinese,Malay,Tamil,,,Community Service & Student Leadership,NE2+ (positive): Nurturing Ethical and Effective Leaders with Positive mind-sets,,
119,GREENRIDGE SECONDARY SCHOOL,http://www.greenridgesec.moe.edu.sg,32   BUKIT PANJANG RING ROAD,679938,67601052,na,67628334,na,gss@moe.edu.sg,BANGKIT LRT,"722, 920, 922, 971, 972, 972M, 976",MDM KOH HOON CHOO JESSIE,MRS FIRDOUSE-DALINA ABDULLAH,,,,,,BUKIT PANJANG,WEST,GOVERNMENT SCHOOL,CO-ED SCHOOL,SINGLE SESSION,SECONDARY,No,No,No,No,Chinese,Malay,Tamil,Languages & Humanities,The Use of Media in Engaging 21st Century Learners in the English Language Classroom -- Camera. Lights. Action. Programme (CLAP),Music & Performing Arts / Visual Arts & Design,"Developing Creative and Confident persons, impacting the community through the Arts",,
120,GREENWOOD PRIMARY SCHOOL,http://www.greenwoodpri.moe.edu.sg,11   WOODLANDS  DR  62,737942,63666158,na,63666159,na,greenwood_ps@moe.edu.sg,Admiralty MRT Station,"912, 913, 962",MDM TANG PEI LU TRICILIA,MR SATHYA PRASAD S/O G,"MR LEE HUAN SIAK, JAMES",,,,,WOODLANDS,NORTH,GOVERNMENT SCHOOL,CO-ED SCHOOL,SINGLE SESSION,PRIMARY,No,No,No,No,Chinese,Malay,Tamil,Languages,Bilingual LIterature Appreciation Student Series (BLISS),Community Service & Student Leadership,"WHIZZ - We are Thinking, Inventive and Zealous KIdZ to serve the community",,
121,GUANGYANG PRIMARY SCHOOL,http://www.guangyangpri.moe.edu.sg,6    Bishan Street 12,579806,62580455,na,62580010,na,GYPS@MOE.EDU.SG,Bishan MRT,"13,52,54,55,56,57,59,88,93,156,157,163,410",MR LAU ENOCH,MR HO SENG TAT SUNNY,,,,,,BISHAN,SOUTH,GOVERNMENT SCHOOL,CO-ED SCHOOL,SINGLE SESSION,PRIMARY,No,No,No,No,Chinese,Malay,Tamil,,,Music & Performing Arts,"LIVE YOUR PASSION ? developing life-long learners with a passion for Music, Dance and Drama",,
122,GUANGYANG SECONDARY SCHOOL,http://guangyangsec.moe.edu.sg,8    BISHAN STREET 12,579807,62589781,na,63543108,na,gyss@moe.edu.sg,BISHAN MRT,"13, 56, 57, 59, 71, 88, 93, 157, 163, 410",MR LIM HOCK CHUAN ALVIN,MR KOH LIP KANG,,,,,,BISHAN,SOUTH,GOVERNMENT SCHOOL,CO-ED SCHOOL,SINGLE SESSION,SECONDARY,No,No,No,No,Chinese,Malay,Tamil,STEM,Environmental Science for Sustainable Living,Music & Performing Arts,heARTbeat -- Art for Life,,
123,HAI SING CATHOLIC SCHOOL,http://www.haisingcatholic.moe.edu.sg,9    PASIR RIS DRIVE 6,519421,65827864,na,65822543,na,HSHS@MOE.EDU.SG,PASIR RIS MRT,"3, 5, 6, 12, 17, 21, 89, 354, 358",MR ANG TECK SIANG DANIEL,MRS TEO-TAY CHAI HONG,MISS SHEREEN WONG MINGRUI,,,,,PASIR RIS,EAST,GOVERNMENT-AIDED SCH,CO-ED SCHOOL,SINGLE SESSION,SECONDARY,No,No,No,No,Chinese,Malay,Tamil,STEM,Applied Learning in Robotics and Engineering,Community & Youth Leadership,Developing Leadership Competencies in Every HaiSian,,
124,HAIG GIRLS' SCHOOL,http://www.haiggirls.moe.edu.sg,51   Koon Seng Road,427072,63440293,na,64474169,na,HAIGGIRLSSCH@MOE.EDU.SG,"Eunos, Dakota","16,33",MISS LO YEN NIE,MISS PHUA AI LEI,MDM LEE LI LI,,,,,GEYLANG,EAST,GOVERNMENT SCHOOL,GIRLS' SCHOOL,SINGLE SESSION,PRIMARY,No,No,No,No,Chinese,Malay,Tamil,Interdisciplinary,Innovation and Service Learning through Integrated Project Work (IPW@HGS),Music & Performing Arts,Character and Leadership through the Performing and Visual Arts,,
125,HENRY PARK PRIMARY SCHOOL,http://www.henryparkpri.moe.edu.sg,1    HOLLAND GROVE ROAD,278790,64663600,na,64691840,na,HPPS@MOE.EDU.SG,"Buona Vista MRT, Clementi MRT","7, 61, 75, 156, 157, 165, 92","MR KOH CHIN THONG, MARTIN",MDM WONG SU MAY,MR CHUA CHYE HOCK,,,,,BUKIT TIMAH,WEST,GOVERNMENT SCHOOL,CO-ED SCHOOL,SINGLE SESSION,PRIMARY,No,No,Yes,No,Chinese,Malay,Tamil,Science,Science for Life @ HPPS,Sports & Outdoor Education,Sports4Life @ HHPS,,
126,HILLGROVE SECONDARY SCHOOL,http://www.hillgrovesec.moe.edu.sg,10   BUKIT BATOK STREET 52,659250,65603726,na,65630920,na,HILLGROVE_SS@MOE.EDU.SG,"BUKIT BATOK MRT, BUKIT GOMBAK MRT","176, 985, 945",MDM ONG HUI MIIN ANGELINE,MR MALVIN CHAN HUAN JIAN,MR SNG CHIN SENG,,,,,BUKIT BATOK,WEST,GOVERNMENT SCHOOL,CO-ED SCHOOL,SINGLE SESSION,SECONDARY,No,No,No,No,Chinese,Malay,Tamil,STEM,Broadening our Learning Horizons through Flight and Aerospace,Music & Performing Arts,Nurturing Confident and Passionate Hillgrovians through the Arts,,
127,HOLY INNOCENTS' HIGH SCHOOL,http://www.holyinnocentshigh.moe.edu.sg,1191 UPPER SERANGOON ROAD,534786,62833381,na,62831737,na,HIHS@MOE.EDU.SG,HOUGANG MRT,"27, 72, 74, 80, 87, 89, 101, 107, 113, 116, 119, 132, 136, 147, 153, 161, 165, 324, 325",MRS REBECCA CHEW,MR NG CHENG SONG JEREMY,MR CHIA KENG HWEE,,,,,HOUGANG,SOUTH,GOVERNMENT-AIDED SCH,CO-ED SCHOOL,SINGLE SESSION,SECONDARY,No,No,No,No,Chinese,Malay,Tamil,Languages,Journalism and Broadcasting -- Developing Critical Thinkers and Confident Communicators,Community & Youth Leadership,Good Samaritan Programme,,
128,HOLY INNOCENTS' PRIMARY SCHOOL,http://www.holyinnocentspri.moe.edu.sg/,5    Lorong Low Koon,536451,62886516,na,62876393,na,HOLYINNOCENTSPRI@MOE.EDU.SG,2km walk to Hougang MRT,"51,72,80,101,119,132,136,153.",MISS SEET ENG GEOK LENA,MS KOH CHIOW TEE THERESA,MDM YUE  SHARON,,,,,HOUGANG,SOUTH,GOVERNMENT-AIDED SCH,CO-ED SCHOOL,SINGLE SESSION,PRIMARY,Yes,No,No,No,Chinese,na,na,Coding,Digiminds@HIPS,Music & Performing Arts,ARTistry@HIPS,,
129,HONG WEN SCHOOL,http://www.hongwen.moe.edu.sg,30   TOWNER ROAD,327829,62943340,na,62937625,na,hws@moe.edu.sg,Boon Keng MRT,"Serangoon Road: 13, 23, 31, 64, 65, 66, 125, 133, 147, 857, 985 Balestier Road: 21, 125, 130, 139, 145",MRS THERESA HONG-NG,MR LIM CHONG ENG,,,,,,KALLANG,SOUTH,GOVERNMENT-AIDED SCH,CO-ED SCHOOL,SINGLE SESSION,PRIMARY,Yes,No,No,No,Chinese,na,na,,,Sports & Outdoor Education,Developing 21st Century Learners Holistically through Sports and Games,Community Service & Student Leadership,Everyone A Gracious LEader who contributes to Society (EAGLES)
130,HORIZON PRIMARY SCHOOL,http://www.horizonpri.moe.edu.sg,61   Edgedale Plains,828819,67535411,na,67523971,na,horizon_ps@moe.edu.sg,Punggol MRT Station (NE17)  (LRT: Kadaloor [PE5] or Oasis [PE6]),"3, 50, 83, 85, 569",MDM GRACE HO LI JUN,MR OW EU GENE JOHN,MDM SENTHIL POONKODI D/O R K,,,,,PUNGGOL,NORTH,GOVERNMENT SCHOOL,CO-ED SCHOOL,SINGLE SESSION,PRIMARY,No,No,No,No,Chinese,Malay,Tamil,Mathematics,Computational Thinking in Mathematics,Community Service & Student Leadership,I-LEAD ? A Whole School Student Leadership Development Programme,,
131,HOUGANG PRIMARY SCHOOL,http://www.hougangpri.moe.edu.sg/,1    HOUGANG ST 93,534238,64897445,na,64897446,na,HOUGANG_PS@MOE.EDU.SG,"Ang Mo Kio, Buangkok, Hougang, Sengkang, Yio Chu Kang","SBS 43, 72, 88, 101, 109, 116, 156, 159, 325, 329","MR GOH WAI MIN, JASON",MISS LIEW PANG HAI,,,,,,HOUGANG,NORTH,GOVERNMENT SCHOOL,CO-ED SCHOOL,SINGLE SESSION,PRIMARY,No,No,No,No,Chinese,Malay,Tamil,Science,"X-Cell in Science@HGP ? eXperiment, eXplore, eXperience",Sports & Outdoor Education,Character Development through Outdoor Adventure Education (OAE),,
132,HOUGANG SECONDARY SCHOOL,http://www.hougangsec.moe.edu.sg,2    HOUGANG STREET 93,534256,63851990,na,63852015,na,HOUGANG_SS@MOE.EDU.SG,"HOUGANG MRT, BUANGKOK MRT","43, 88, 101, 109, 156, 159, 161, 325, 329",MR ARIVAZHAGAN MANICKAM,MRS YOONG JIN ING,MDM JESMINE CHUNG KAH MIN,,,,,HOUGANG,NORTH,GOVERNMENT SCHOOL,CO-ED SCHOOL,SINGLE SESSION,SECONDARY,No,No,No,No,Chinese,Malay,Tamil,Languages & Humanities,English Communication Skills through Authentic Learning,Community & Youth Leadership,"GRC (Gratitude, Respect & Compassion) in Action, a Hougean way of life",,
133,HUA YI SECONDARY SCHOOL,http://www.huayisec.moe.edu.sg,60   JURONG WEST ST 42,649371,65634568,na,65634505,na,HYSS@MOE.EDU.SG,"LAKESIDE MRT, CHINESE GARDEN MRT","49, 98, 98B, 98M, 99, 157, 185, 187, 198, 198A, 334, 335, 502",MISS GWEE SU PIN SANDRA,MDM KHOO HENG OI CATHERINE,MDM TAN KAY BIN,,,,,JURONG WEST,WEST,GOVERNMENT SCHOOL,CO-ED SCHOOL,SINGLE SESSION,SECONDARY,No,No,No,No,Chinese,Malay,Tamil,STEM,Health Sciences: Healthcare technologies for the elderly,Community & Youth Leadership,Community and Youth Leadership in Hua Yi,,
134,HUAMIN PRIMARY SCHOOL,http://www.huaminpri.moe.edu.sg,21   YISHUN AVENUE 11,768857,67529004,na,67552455,na,huamin_ps@moe.edu.sg,Yishun MRT Station,"806, 804",MDM NOORISMAWATY BTE ISMAIL,MDM BALAKRISHNAN CORINNE ANNE,,,,,,YISHUN,NORTH,GOVERNMENT SCHOOL,CO-ED SCHOOL,SINGLE SESSION,PRIMARY,No,No,No,No,Chinese,Malay,Tamil,Interdisciplinary,Education for Sustainable Development (ESD @ Huamin),,Creative Arts Programme for Students (C.A.P.S.),,
135,HWA CHONG INSTITUTION,http://www.hwachong.edu.sg,661  BUKIT TIMAH ROAD,269734,64683955,64683956 / 64665912,67695857,na,admin@hci.edu.sg,TAN KAH KEE MRT,"66, 67, 74, 151, 154, 156, 157, 170, 170A, 174, 852, 961, 961M",MR PANG CHOON HOW,DR LIM HONG SENG MELVYN,MR CHAN KWOK LEONG,MRS CHIN-LEOW BEE KUAN,DR CHUNG WEN CHEE,,,BUKIT TIMAH,WEST,INDEPENDENT SCHOOL,CO-ED SCHOOL,SINGLE SESSION,MIXED LEVELS,Yes,No,No,Yes,Chinese,na,na,,,,,,
136,INNOVA PRIMARY SCHOOL,http://www.innovapri.moe.edu.sg/,80   Woodlands Drive 17,737888,68944693,na,68942573,na,innova_pri@moe.edu.sg,Woodlands,"900A (weekdays only - 7.00 am to 8.30 am & 4.30 pm to 6.30 pm), 901",MISS WINDERSALAM SHYAMALA DEVI,MDM TAY GEK KHIM,MR LAU YEAN HUI,,,,,WOODLANDS,NORTH,GOVERNMENT SCHOOL,CO-ED SCHOOL,SINGLE SESSION,PRIMARY,No,No,No,No,Chinese,Malay,Tamil,Interdisciplinary,Creative Problem Solving (CPS) Programme: CPS@IPS for the Holistic Development of a 21st Century Child in Innova Primary School,Community Service & Student Leadership,Leading Through Serving,,
137,JIEMIN PRIMARY SCHOOL,http://www.jieminpri.moe.edu.sg,2    YISHUN STREET 71,768515,67586472,na,67559958,na,jiemin_ps@moe.edu.sg,Yishun MRT Station,"167,169,171,800,811,000,000,000,000,000,000",MR ANDY MICKEY CHOONG TEK CHOY,MRS NUR FATIMAH FRAUDER,MISS WONG KAH WAN JOY,,,,,YISHUN,NORTH,GOVERNMENT SCHOOL,CO-ED SCHOOL,SINGLE SESSION,PRIMARY,No,No,No,No,Chinese,Malay,Tamil,Languages,J-YEAR (Jiemin- Young Editors And Reporters ),Music & Performing Arts/ Visual Arts & Design,Aesthetics Alive,,
138,JING SHAN PRIMARY SCHOOL,http://www.jingshanpri.moe.edu.sg,5    ANG MO KIO ST 52,569228,64566305,na,64581619,na,jsps@moe.edu.sg,Ang Mo Kio MRT,Bus 265,MDM BOEY HUEY PENG SHARON,MISS REZIA RAHUMATHULLAH,MISS NG SUAT THENG ANGELA,,,,,ANG MO KIO,SOUTH,GOVERNMENT SCHOOL,CO-ED SCHOOL,SINGLE SESSION,PRIMARY,No,No,No,No,Chinese,Malay,Tamil,Science,"Learning Science ? the I3 (Inquiry, ICT & Innovation) Approach",Community Service & Student Leadership,"FLOURISH @ JSPS ? Developing Character Strengths, Resilience & Mindfulness through VIA",,
139,JUNYUAN PRIMARY SCHOOL,https://junyuanpri.moe.edu.sg,2    Tampines Street 91,528906,67830375,na,67887395,na,JUNYUAN_PS@MOE.EDU.SG,Tampines West (Downtown Line); Tampines (East-West Line),"76281: 22, 46, 129 76061: 10, 15, 20, 21, 23, 27, 31, 34, 39, 65, 67, 168, 292 75051: 5, 8, 18, 28, 59, 118",MR CHAN WENG CHEONG,MDM HO LAY YEN JENNY,,,,,,TAMPINES,EAST,GOVERNMENT SCHOOL,CO-ED SCHOOL,SINGLE SESSION,PRIMARY,No,No,No,No,Chinese,Malay,Tamil,Languages,Developing Every Pupil into a Confident Communicator,Music & Performing Arts,"Mind, Body and Soul",,
140,JUNYUAN SECONDARY SCHOOL,http://www.junyuansec.moe.edu.sg,11   TAMPINES STREET 84,528933,65873683,na,65873682,na,JUNYUAN_SS@MOE.EDU.SG,"TAMPINES MRT, TAMPINES WEST MRT","69, 291, 293",MR MOHAMED RAZALI B ABDUL HAMED,MR NG CHENG KEONG,,,,,,TAMPINES,EAST,GOVERNMENT SCHOOL,CO-ED SCHOOL,SINGLE SESSION,SECONDARY,No,No,No,No,Chinese,Malay,Tamil,STEM,Developing Application-based Learning through Food Science,Community & Youth Leadership,Cultivating Community Champions through Youth Leadership,,
141,JURONG PIONEER JUNIOR COLLEGE,http://jpjc.moe.edu.sg,21   Teck Whye Walk,688258,+65 6564 6878,na,+65 6765 1861,na,jpjc@moe.edu.sg,Choa Chu Kang / Bt Panjang / Phoenix Station (LRT),"975, 190, 985",DR HANG KIM HOO,MISS YEO SIOK EE,MR NAH HONG LEONG,,,,,CHOA CHU KANG,WEST,GOVERNMENT SCHOOL,CO-ED SCHOOL,FULL DAY,JUNIOR COLLEGE,No,No,No,No,Chinese,Malay,Tamil,,,,,,
142,JURONG PRIMARY SCHOOL,http://www.jurongpri.moe.edu.sg,320  JURONG EAST Street 32,609476,65618837,na,65641964,na,JPS@MOE.EDU.SG,"Lakeside MRT Station, Jurong East MRT Station",333,MR ONG THIAM HUAT ROBIN,MR CHEN ZHONGYI,,,,,,JURONG EAST,WEST,GOVERNMENT SCHOOL,CO-ED SCHOOL,SINGLE SESSION,PRIMARY,No,No,No,No,Chinese,Malay,Tamil,,,Sports & Outdoor Education,Every Child a Leader @ JPS (ECAL @ JPS),,
143,JURONG SECONDARY SCHOOL,http://www.jurongsec.moe.edu.sg,31   YUAN CHING ROAD,618652,62655980,na,62686414,na,JURONG_SS@MOE.EDU.SG,LAKESIDE MRT,"30, 49, 98, 98A, 154, 240, 246",MDM TAY SU- CHIN (ZHENG SUZHEN),MISS TAN HUI MIN DEBORAH,MDM LER SIAH WOON JULIA,,,,,JURONG WEST,WEST,GOVERNMENT SCHOOL,CO-ED SCHOOL,SINGLE SESSION,SECONDARY,No,No,No,No,Chinese,Malay,Tamil,Languages & Humanities,Environmental Studies: An Inter-disciplinary Approach To Sustainable Urban Living,Sports & Outdoor Education,"Sporty at Heart, Sporting in Mind",,
144,JURONG WEST PRIMARY SCHOOL,http://www.jurongwestpri.moe.edu.sg,30   JURONG WEST ST 61,648368,67933419,na,67936593,na,JWPS@MOE.EDU.SG,Pioneer MRT Station,192,MR CHRIS LOH KAI MUN,MR PILLAY P KRISHNAN,,,,,,JURONG WEST,WEST,GOVERNMENT SCHOOL,CO-ED SCHOOL,SINGLE SESSION,PRIMARY,No,No,No,No,Chinese,Malay,Tamil,Languages,Art of Communication for Personal Excellence,Sports & Outdoor Education,Experiential Learning of Lifeskills for Personal Excellence,,
145,JURONG WEST SECONDARY SCHOOL,http://www.jurongwestsec.moe.edu.sg,61   JURONG WEST STREET 65,648348,62623593,na,62623587,na,JWSS@MOE.EDU.SG,"BOON LAY MRT, PIONEER MRT","30, 154, 157, 180, 187, 198, 242",MR MICHAEL MUHUNTHAN S/O SUBRAMANIAM,MRS ROSIE LAU @ MDM ROSIE LIM,,,,,,JURONG WEST,WEST,GOVERNMENT SCHOOL,CO-ED SCHOOL,SINGLE SESSION,SECONDARY,No,No,No,No,Chinese,Malay,Tamil,Aesthetics,"Harnessing Technology, Communication and the Visual Arts in Authentic Contexts",Community & Youth Leadership,"Developing Character, Leadership and Citizenship",,
146,JURONGVILLE SECONDARY SCHOOL,http://www.jurongvillesec.moe.edu.sg,202  JURONG EAST AVENUE 1,609790,65638704,na,65662137,na,JURONGVILLE@MOE.EDU.SG,"JURONG EAST MRT, CHINESE GARDEN MRT","98, 98M, 99, 157, 185, 187, 198, 334, 502",MR CHAN YEW WOOI,MR YONG KEK SHOONG,,,,,,JURONG EAST,WEST,GOVERNMENT SCHOOL,CO-ED SCHOOL,SINGLE SESSION,SECONDARY,No,No,No,No,Chinese,Malay,Tamil,STEM,Real World Learning through Electronics,Sports & Outdoor Education,"Sports for Life - Character Education through Sports Exposure, Sports Empowerment and Sports Excellence",,
147,JUYING PRIMARY SCHOOL,http://www.juyingpri.moe.edu.sg/,31   JURONG WEST STREET 91,649037,67932039,na,67932040,na,JUYING_PS@MOE.EDU.SG,Boon Lay MRT Station (Jurong Point),SBS 99 (From Clementi Inter-change) SBS 241 (From Boon Lay Inter-change),MRS SROYA JASWANT,MDM SITI SUHAILA BTE SAPIHE,MDM WONG WEI YI,,,,,JURONG WEST,WEST,GOVERNMENT SCHOOL,CO-ED SCHOOL,SINGLE SESSION,PRIMARY,No,No,No,No,Chinese,Malay,Tamil,Interdisciplinary,ThINKabits,Community Service & Student Leadership,Environmental Education,,
148,JUYING SECONDARY SCHOOL,http://juyingsec.moe.edu.sg,33   JURONG WEST STREET 91,649038,63089898,na,67932835,na,JUYING_SS@MOE.EDU.SG,"BOON LAY MRT, PIONEER MRT, JOO KOON MRT","99, 241",MDM SOH BENG MUI,MR NG HAN MING,,,,,,JURONG WEST,WEST,GOVERNMENT SCHOOL,CO-ED SCHOOL,SINGLE SESSION,SECONDARY,No,No,No,No,Chinese,Malay,Tamil,Languages & Humanities,Developing Confident & Competent Communicators through Oracy Skills Programme,Music & Performing Arts,"Performing Arts : ?iACE@Juying? (I Appreciate, I Create, I Exhibit at Juying)",,
149,KEMING PRIMARY SCHOOL,http://www.kemingpri.moe.edu.sg,90   BUKIT BATOK EAST AVENUE 6,659762,68962054,na,65632356,na,KMPS@MOE.EDU.SG,Bukit Batok,"61,66,77,106,157,174,178,963",MRS YAP DAI JEE,"MDM ANG CHAI TING, JESSIE",MISS SARASWATHY D/O IDAMBAN,,,,,BUKIT BATOK,WEST,GOVERNMENT SCHOOL,CO-ED SCHOOL,SINGLE SESSION,PRIMARY,No,No,No,No,Chinese,Malay,Tamil,Science,INquiry Science Projects Involving Research and Experiments (I.N.S.P.I.R.E. the Scientist in Me),Sports & Outdoor Education,Sports4All@Keming: Character Development through Sports,,
150,KENT RIDGE SECONDARY SCHOOL,http://www.kentridgesec.moe.edu.sg,147  WEST COAST ROAD,127368,67731127,na,67735119,na,KRSS@MOE.EDU.SG,"CLEMENTI MRT, HAW PAR VILLA MRT","30, 51, 143, 175, 176, 201, 282",MR KEH CHIN CHUAN BENEDICT,MR OW KWOK LEONG,,,,,,CLEMENTI,SOUTH,GOVERNMENT SCHOOL,CO-ED SCHOOL,SINGLE SESSION,SECONDARY,No,No,No,No,Chinese,Malay,na,STEM,Developing Computational Thinking through Robotics,Sports & Outdoor Education,EVOKE!@KR (Educational Values of Olympism at Kent Ridge) through Sports and Outdoor Education,,
151,KHENG CHENG SCHOOL,http://www.khengcheng.moe.edu.sg/,15   LORONG 3 TOA PAYOH,319580,62552502,na,62556569,na,kcs@moe.edu.sg,Braddell,"SBS 235,56,73,88,157,159,163,231,",MDM LEONG CHUI YIN SARAH,MR KHOO GHEE HAN,,,,,,TOA PAYOH,SOUTH,GOVERNMENT-AIDED SCH,CO-ED SCHOOL,SINGLE SESSION,PRIMARY,No,No,No,No,Chinese,Malay,na,,,Community Service & Student Leadership,Student Voice & Advocacy (SVA) @ KCS,,
152,KONG HWA SCHOOL,http://www.konghwa.moe.edu.sg,350  GUILLEMARD ROAD,399772,63421195,na,63421120,na,KONGHWA_SCH@MOE.EDU.SG,Dakota,"Service 7,70,70M,197(to Guillemard Road)",MR POON SIOW LENG RAYMOND,MDM FOO MEI PING,MS LEE LEY HAR,,,,,GEYLANG,EAST,GOVERNMENT-AIDED SCH,CO-ED SCHOOL,SINGLE SESSION,PRIMARY,Yes,No,No,No,Chinese,na,na,Languages,Every Pupil an Effective Communicator,Sports & Outdoor Education,Exposure-Experience-Excel through Sports,,
153,KRANJI PRIMARY SCHOOL,http://kranjipri.moe.edu.sg,11   CHOA CHU KANG STREET 54,689189,67634812,na,67634568,na,kranji_ps@moe.edu.sg,Yew Tee MRT,"Bus No 307, 302",MDM GOH MEEI YUNN,MISS MARION DONNE TAY SZE LENG,,,,,,CHOA CHU KANG,WEST,GOVERNMENT SCHOOL,CO-ED SCHOOL,SINGLE SESSION,PRIMARY,No,No,No,No,Chinese,Malay,Tamil,Science,Nurturing Joyful Learners through Critical and Inventive Thinking,Sports & Outdoor Education,Developing Champions in Life through Sports,,
154,KRANJI SECONDARY SCHOOL,http://www.kranjisec.moe.edu.sg,61   CHOA CHU KANG STREET 51,689333,67662464,na,67662095,na,kranji_ss@moe.edu.sg,"CHUA CHU KANG MRT, YEW TEE MRT",302,MR GOH SOON HOE,MR CHRISTOPHER THOMAS,MDM ONG LAY LING,,,,,CHOA CHU KANG,WEST,GOVERNMENT SCHOOL,CO-ED SCHOOL,SINGLE SESSION,SECONDARY,No,No,No,No,Chinese,Malay,Tamil,Interdisciplinary,Nurturing Communities of Reflective and Independent Learners through Thinking Curriculum,Community & Youth Leadership,Nurturing a Leader in Every Kranjian through Community and Youth Leadership,,
155,KUO CHUAN PRESBYTERIAN PRIMARY SCHOOL,http://www.kuochuanpresbyterianpri.moe.edu.sg,8    BISHAN STREET 13,579793,62595396,na,62588012,na,KCPPS@MOE.EDU.SG,Bishan MRT Station,"54, 56, 410, 410G",MRS YEE-TOH GEK KHIAW,MISS CHEW MAY,MR TOH KIM SING (ZHUO JINSHENG),,,,,BISHAN,SOUTH,GOVERNMENT-AIDED SCH,CO-ED SCHOOL,SINGLE SESSION,PRIMARY,No,No,No,No,Chinese,Malay,Tamil,Languages,"E-Cube: Engage, Excite, Express",Visual Arts & Design,Learning for Life in Art and Design,,
156,KUO CHUAN PRESBYTERIAN SECONDARY SCHOOL,http://www.kuochuanpresbyteriansec.moe.edu.sg,10   BISHAN STREET 13,579795,62593811,na,63536535,na,kcpss@moe.edu.sg,BISHAN MRT,"54, 56, 410G, 410W",MR JUSTIN TAN,MR TAN CHE CHUEN TIMOTHY,,,,,,BISHAN,SOUTH,GOVERNMENT-AIDED SCH,CO-ED SCHOOL,SINGLE SESSION,SECONDARY,No,No,No,No,Chinese,Malay,Tamil,Languages & Humanities,"Participate, Access/ Analyse, Create, Evaluate (P.A.C.E) in KCPSS Media Literacy Programme",Community & Youth Leadership,Every KCPian a Servant Leader,,
157,LAKESIDE PRIMARY SCHOOL,http://www.lakesidepri.moe.edu.sg/,161  Corporation Walk,618310,62620918,na,62621021,na,lakeside_ps@moe.edu.sg,Lakeside MRT,"30, 49, 98, 98M",MDM TAN SIEW KHIAN FINELLA,MISS NARAYANASAMY UMA RANI,MISS TAN HUI PING,,,,,JURONG WEST,WEST,GOVERNMENT SCHOOL,CO-ED SCHOOL,SINGLE SESSION,PRIMARY,No,No,No,No,Chinese,Malay,Tamil,Interdisciplinary,ThInkers with Heart,Music & Performing Arts,ARTS De La Sc?ne,,
158,LIANHUA PRIMARY SCHOOL,http://www.lianhuapri.moe.edu.sg/,2    BUKIT BATOK STREET 52,659243,65639502,na,65639591,na,lianhua_ps@moe.edu.sg,Bukit Gombak/Bukit Batok,945,MISS KIEW HUI LI PAMELA,MR CHUA KYNN HOWE LEONARD,MDM TAN WAN PHING JANICE,,,,,BUKIT BATOK,WEST,GOVERNMENT SCHOOL,CO-ED SCHOOL,SINGLE SESSION,PRIMARY,No,No,No,No,Chinese,Malay,Tamil,Coding,Robotics Project Work,Sports & Outdoor Education,VIA through Sports,,
159,LOYANG VIEW SECONDARY SCHOOL,http://www.loyangviewsec.moe.edu.sg,12   PASIR RIS STREET 11,519073,65821727,na,65810557,na,loyangview_ss@moe.edu.sg,PASIR RIS MRT,"12, 21, 39, 53, 81, 109, 359, 518",MR LEE HAK BOON,MISS TAN CHOR HIANG,MS SAADIAH SAADON WYLDE,,,,,PASIR RIS,EAST,GOVERNMENT SCHOOL,CO-ED SCHOOL,SINGLE SESSION,SECONDARY,No,No,No,No,Chinese,Malay,Tamil,STEM,Design and Engineering,Sports & Outdoor Education,Sports and Outdoor Education,,
160,MAHA BODHI SCHOOL,http://www.mahabodhi.moe.edu.sg/,10   UBI AVENUE 1,408931,67442115,na,67443752,na,MBS@MOE.EDU.SG,"Eunos Station (Transfer Bus No.63, 63M) Ubi Station (Transfer Bus No. 137)","5,8,15,22,25,45,51,55,59,61,63,63M,65,66,93,94,854",MRS ELAINE QUEK-LIM HWEE BIN,MR LIM KIM MIN (LIN JINMIN),MDM WANG MING HWEE,,,,,GEYLANG,EAST,GOVERNMENT-AIDED SCH,CO-ED SCHOOL,SINGLE SESSION,PRIMARY,Yes,No,No,No,Chinese,na,na,Languages,Empathetic Listeners. Effective Communicators. Trailblazing Advocates (ELECTRA@MBS),Music & Performing Arts,Learning through an Ethnic Arts Programme (LEAP),,
161,MANJUSRI SECONDARY SCHOOL,http://www.manjusrisec.moe.edu.sg,20   UBI AVENUE 1,408940,68424558,na,67454492,na,manjusri_ss@moe.edu.sg,"UBI MRT, MACPHERSON MRT","5, 8, 15, 22, 25, 45, 51, 55, 59, 61, 63, 63M, 65, 66, 93, 94, 137, 854",MR SIM CHONG BOON,MDM HENG WEI SHAN,MISS ELEANOR CHIA SHUEN LI,,,,,GEYLANG,EAST,GOVERNMENT-AIDED SCH,CO-ED SCHOOL,SINGLE SESSION,SECONDARY,No,No,No,No,Chinese,Malay,na,STEM,Building Smart Homes with a Big Heart,Music & Performing Arts,Learning through the ARTS,,
162,MARIS STELLA HIGH SCHOOL,http://www.marisstellahigh.moe.edu.sg,25   MOUNT VERNON ROAD,368051,62803880 (Sec),62827743 (Pri),62886905 (Sec),62827905 (Pri),msh@moe.edu.sg,BARTLEY MRT,"28, 93, 129, 158",MRS WOO SOO MIN,MRS MARIA KOH,MR LIM KAY WAH BENEDICT,MR TAN CHING HUAT,MR TAN KIM KOON,,,TOA PAYOH,NORTH,GOVERNMENT-AIDED SCH,BOYS' SCHOOL,SINGLE SESSION,MIXED LEVELS,Yes,Yes,No,No,Chinese,na,na,,,Sports & Outdoor Education,The Marist Sports & Life Skills Experience,,
163,MARSILING PRIMARY SCHOOL,http://www.marsilingpri.moe.edu.sg,31   WOODLANDS CENTRE ROAD,738927,62696193,na,62699050,na,MARSILING_PS@MOE.EDU.SG,Marsiling MRT Station,"856, 911, 912",MISS CHEE CHUERN HWEI CHERYL,MISS ESTHER ONG CHIN CHIN,MR TAN CHOON SHING,,,,,WOODLANDS,NORTH,GOVERNMENT SCHOOL,CO-ED SCHOOL,SINGLE SESSION,PRIMARY,No,No,No,No,Chinese,Malay,Tamil,Languages,"Spark Ideas, Spark Interest, Spark Action: Igniting A Passion for Purposeful Storytelling (SPARKS@MPS)",Community Service & Student Leadership,"LEAD (Learn, Engage, Absorb, Demonstrate) to Serve @ MPS",,
164,MARSILING SECONDARY SCHOOL,http://www.marsilingsec.moe.edu.sg,12   MARSILING ROAD,739110,68941413,na,68946156,na,MARSILING_SS@MOE.EDU.SG,MARSILING MRT,"913, 911",MR GOH AIK CHOON,MR TAY KIM SENG,,,,,,WOODLANDS,NORTH,GOVERNMENT SCHOOL,CO-ED SCHOOL,SINGLE SESSION,SECONDARY,No,No,No,No,Chinese,Malay,Tamil,STEM,Eco-sustainability through Inquiry-Based Learning,Sports & Outdoor Education,Values and Character Building through Outdoor Curriculum (VALOUR),,
165,MARYMOUNT CONVENT SCHOOL,HTTP://WWW.MARYMOUNTCONVENT.MOE.EDU.SG,20   Marymount Road,297754,6256 6701,6256 6532,6254 3080,na,enquire@marymount.edu.sg,Braddell MRT Station or  Caldecott MRT Station,"141, 235",MRS ALLISON LIM,MDM LEE SWEE MEI CHERYL,MDM TAN MEI MEI ANNA,,,,,TOA PAYOH,SOUTH,GOVERNMENT-AIDED SCH,GIRLS' SCHOOL,SINGLE SESSION,PRIMARY,No,No,No,No,Chinese,Malay,Tamil,,,Sports & Outdoor Education,Sports Excellence (SPEX) @ Marymount,Music & Performing Arts/ Visual Arts & Design,Grooming Cultured and Refined Ladies through the Aesthetics
166,MAYFLOWER PRIMARY SCHOOL,http://www.mayflowerpri.moe.edu.sg,6    Ang Mo Kio Avenue 2,569948,64520849,na,64534116,na,MAYFLOWER_PS@MOE.EDU.SG,Yio Chu Kang MRT Station.,"13,86,138,162,269,851,852,853.",MRS LIM- CHUA SIOW LING,MDM CHNG HWUI LIN WINEFREDE,MISS KONG YUIT CHAN NOELLE,,,,,ANG MO KIO,SOUTH,GOVERNMENT SCHOOL,CO-ED SCHOOL,SINGLE SESSION,PRIMARY,No,No,No,No,Chinese,Malay,Tamil,Science,STEM@MFPS,Music & Performing Arts,"LLP@MFPS: Development of Character, Citizenship and 21CC in and through the Arts",,
167,MAYFLOWER SECONDARY SCHOOL,http://www.mayflowersec.moe.edu.sg,2    ANG MO KIO STREET 21,569384,64577783,na,64583284,na,MAYFLOWER_SS@MOE.EDU.SG,"ANG MO KIO MRT, MAYFLOWER MRT (Targeted to open in 2020)","71, 76, 132, 165, 166, 169, 262, 265, 268, 269",MDM LEE EET FONG,MR GOH KENG TENG GORDON,MR PRASHANT S/O JAYAPRAGAS,,,,,ANG MO KIO,SOUTH,GOVERNMENT SCHOOL,CO-ED SCHOOL,SINGLE SESSION,SECONDARY,No,No,No,No,Chinese,Malay,Tamil,Languages & Humanities,Developing confidence and curiosity through effective communication,Music & Performing Arts,Developing a zest for life through aesthetics,,
168,MEE TOH SCHOOL,http://www.meetoh.moe.edu.sg/,21   EDGEDALE PLAINS,828867,64893326,na,64893243,na,MEETOH_SCH@MOE.EDU.SG,Punggol Station,"3,62,83",MDM TAN SUN SUN,MDM TAN LAY WAH,MR LEE CHONG TART RONALD,,,,,PUNGGOL,NORTH,GOVERNMENT-AIDED SCH,CO-ED SCHOOL,SINGLE SESSION,PRIMARY,No,No,No,No,Chinese,Malay,na,Interdisciplinary,"Educate, Engage and Empower Eco-Citizens @MTS",Sports & Outdoor Education,SENCE @ MTS,,
169,MERIDIAN PRIMARY SCHOOL,http://www.meridianpri.moe.edu.sg/,20   PASIR RIS ST 71,518798,65832125,na,65834993,na,MERIDIAN_PS@MOE.EDU.SG,Pasir Ris MRT Station,"3,359",MS LIZA BTE RAHMAT,DR LAU HOCK SOON,,,,,,PASIR RIS,EAST,GOVERNMENT SCHOOL,CO-ED SCHOOL,SINGLE SESSION,PRIMARY,No,No,No,No,Chinese,Malay,Tamil,Interdisciplinary,"Nurturing Future Learners, Citizens and Leaders through a whole school interdisciplinary approach in Eco-Environmental Curriculum",Community Service & Student Leadership,Meridian Values-Based Student Leadership In Action For 21CC,,
170,MERIDIAN SECONDARY SCHOOL,http://www.meridiansec.moe.edu.sg,31   PASIR RIS STREET 51,518901,65831387,na,65836467,na,meridian_sec@moe.edu.sg,PASIR RIS MRT,"39, 53, 81, 89, 109, 359, 403, 518",MDM TAN HWEE TSIAN HILDA,MR MOHD AZMAN B MOHD SIDEK,MRS ROSE CHEN,,,,,PASIR RIS,EAST,GOVERNMENT SCHOOL,CO-ED SCHOOL,SINGLE SESSION,SECONDARY,No,No,No,No,Chinese,Malay,Tamil,Aesthetics,Aesthetics,Community & Youth Leadership,Community and Youth Leadership,,
171,METHODIST GIRLS' SCHOOL (PRIMARY),http://www.mgs.sch.edu.sg,11   Blackmore Drive,599986,64694800,na,64624166,na,mgps@moe.edu.sg,King Albert Park MRT,"66, 67, 74, 77, 151, 154, 157, 170, 171, 174, 852, 961, 970",NG WUN HAR GRACE,MISS LIM JING WEN KAREN,MISS HANNAH CHIA CUI'E,,,,,BUKIT TIMAH,WEST,GOVERNMENT-AIDED SCH,GIRLS' SCHOOL,SINGLE SESSION,PRIMARY,No,No,No,No,Chinese,Malay,Tamil,Languages,Language and Communication,Sports & Outdoor Education,Outdoor and Sports Programme at MGS,,
172,METHODIST GIRLS' SCHOOL (SECONDARY),http://www.mgs.moe.edu.sg,11   BLACKMORE DRIVE,599986,64694800,na,64698717,na,MGSS@MOE.EDU.SG,KING ALBERT PARK MRT,"66, 67, 74, 77, 151, 154, 157, 170, 174, 852, 961, 970",MISS NG WUN HAR GRACE,MDM WEE KHENG LIN CORINNE,MDM TAN P'ENG DIANA,,,,,BUKIT TIMAH,WEST,INDEPENDENT SCHOOL,GIRLS' SCHOOL,SINGLE SESSION,SECONDARY,No,No,No,Yes,Chinese,Malay,Tamil,,,,,,
173,MILLENNIA INSTITUTE,http://www.millenniainstitute.moe.edu.sg,60   Bukit Batok West Avenue 8,658965,63023700,na,63023767,na,millennia_inst@moe.edu.sg,Bukit Batok (NS 2),"157, 174, 174e, 178, 506, 991, 941, 160M",MRS TAN WAN YU,MR CHIA GUO HAO,MR LIN GUOJING,,,,,BUKIT BATOK,WEST,GOVERNMENT SCHOOL,CO-ED SCHOOL,FULL DAY,CENTRALISED INSTITUTE,No,No,No,No,Chinese,Malay,Tamil,,,,,,
174,MONTFORT JUNIOR SCHOOL,http://www.montfortjunior.moe.edu.sg/,52   HOUGANG AVENUE 8,538786,65101588,na,65101599,na,MONTFORT_JS@MOE.EDU.SG,Hougang MRT & Bus Interchange,"74,88,101,147,161,",MR WONG KENG YUIN WILBUR,MDM POH LEE SIEW,MR TAN WEE BOON,,,,,HOUGANG,NORTH,GOVERNMENT-AIDED SCH,BOYS' SCHOOL,SINGLE SESSION,PRIMARY,No,No,No,No,Chinese,Malay,Tamil,Science,"Developing Future Ready Monfortians: I Dream, I Believe, I Make",Sports & Outdoor Education,Character Matters: Developing Montfortians with CHRISTE values through sports,,
175,MONTFORT SECONDARY SCHOOL,https://montfortsec.moe.edu.sg/,50   HOUGANG AVENUE 8,538785,65107070,na,63862804,na,contact@montfortsec.edu.sg,HOUGANG MRT,"74, 74e, 88, 88A, 101, 147, 147A, 161",MR LIM HOCK SEONG KELVIN,MR LEE THUAN SIM,MDM CHING LEE HOE,,,,,HOUGANG,NORTH,GOVERNMENT-AIDED SCH,BOYS' SCHOOL,SINGLE SESSION,SECONDARY,No,No,No,No,Chinese,Malay,Tamil,STEM,"Made In Montfort ? Design, Code, Make",Sports & Outdoor Education,Student Leadership through Outdoor Adventure & Sports,,
176,NAN CHIAU HIGH SCHOOL,http://www.nchs.edu.sg,20   ANCHORVALE LINK,545079,64897971,na,64897970,na,nchs@moe.edu.sg,"SENGKANG MRT, RENJONG LRT, TONGKANG LRT","43, 83, 85, 109, 156, 159, 161, 163, 372",MISS SIAU FONG FUI,MDM CHOW NYET YOON,,,,,,SENG KANG,NORTH,GOVERNMENT-AIDED SCH,CO-ED SCHOOL,SINGLE SESSION,SECONDARY,Yes,No,No,No,Chinese,na,na,STEM,Electronics in Health Sciences and Health Care Technology,Music & Performing Arts,"Enhancing Expression, Creativity and Aesthetics Appreciation (ECAA) through the ARTS (Drama, Puppetry and Creative Lyrics Composition)",,
177,NAN CHIAU PRIMARY SCHOOL,http://www.ncps.moe.edu.sg,50   ANCHORVALE LINK,545080,64897905,na,64897906,na,NCPS@MOE.EDU.SG,Sengkang Station,"156, 159, 161, 371, 372",MRS ONG LOH JIA MIIN,MDM LIM SHEUE TYUG,MR JACKSON KEK,,,,,SENG KANG,NORTH,GOVERNMENT-AIDED SCH,CO-ED SCHOOL,SINGLE SESSION,PRIMARY,No,No,No,No,Chinese,Malay,Tamil,Interdisciplinary,Applied Learning@NCPS through Project Work,Community Service & Student Leadership,Watch Me Soar (Student Leadership LLP - A Whole School Approach),,
178,NAN HUA HIGH SCHOOL,http://www.nanhuahigh.moe.edu.sg,41   CLEMENTI AVENUE 1,129956,67788303,na,67751956,na,nhhs@moe.edu.sg,CLEMENTI MRT,"14, 33, 52, 78, 96, 97, 105, 106, 147, 151, 154, 165, 166, 183, 185, 188, 189, 196, 197, 198, 282, 285, 963",MRS TAN JONG LEK,MDM TAN MOK JEE,MR KONG KOK HENG MELVIN,,,,,CLEMENTI,WEST,GOVERNMENT SCHOOL,CO-ED SCHOOL,SINGLE SESSION,SECONDARY,Yes,Yes,No,No,Chinese,na,na,,,,,,
179,NAN HUA PRIMARY SCHOOL,http://www.nanhuapri.moe.edu.sg,30   Jalan Lempeng,128806,67788050,na,67784127,na,nhps@moe.edu.sg,Clementi MRT Station,"30, 51, 143, 175, 201, 533, 655, 727, 762",MDM CHIA HUI KHIM,MDM JOSEPHINE NG,MISS TAN PEIRU,,,,,CLEMENTI,WEST,GOVERNMENT-AIDED SCH,CO-ED SCHOOL,DOUBLE SESSION,PRIMARY,Yes,No,Yes,No,Chinese,na,na,Interdisciplinary,NHPS Thinking Programme,na,From ME to WE: Forging the Path to Purpose,,
180,NANYANG GIRLS' HIGH SCHOOL,https://www.nygh.edu.sg,2    LINDEN DRIVE,288683,64663275,na,64667564,na,nanyanggirls@nygh.edu.sg,"SIXTH AVENUE MRT, TAN KAH KEE MRT","66, 67, 74, 151, 154, 156, 157, 170, 174, 852, 961",MS NG CHUEN- YIN,DR LIU SHIUEH LING,MISS SEET YING LING BRITTA,MS NG MIEN MIEN AGNES,,,,BUKIT TIMAH,WEST,INDEPENDENT SCHOOL,GIRLS' SCHOOL,SINGLE SESSION,SECONDARY,Yes,No,Yes,Yes,Chinese,na,na,,,,,,
181,NANYANG JUNIOR COLLEGE,http://www.nanyangjc.moe.edu.sg/,128  SERANGOON AVENUE 3,556111,62842281,na,62855147,na,nyjc@moe.edu.sg,2-minute walk from the Lorong Chuan MRT Station (Circle Line),"22, 24, 53, 73, 133, 105, 135, 136, 156, 853",MR LOW CHUN MENG,MISS WU XINPING JENNIFER,MR KOH CHEE HUI,,,,,SERANGOON,SOUTH,GOVERNMENT-AIDED SCH,CO-ED SCHOOL,FULL DAY,JUNIOR COLLEGE,No,No,No,No,na,na,na,,,,,,
182,NANYANG PRIMARY SCHOOL,http://www.nyps.moe.edu.sg,52   KING'S ROAD,268097,64672677,na,64686913,na,NYPS@MOE.EDU.SG,Farrer Rd MRT Station,"66, 67, 74, 93, 151, 153, 154, 156, 157, 165, 170, 171, 174, 186, 852, 855, 961",MDM LER JIA LUEN,MDM NG BOON IN,MR CHAN CHEONG CHEONG,,,,,BUKIT TIMAH,WEST,GOVERNMENT-AIDED SCH,CO-ED SCHOOL,SINGLE SESSION,PRIMARY,Yes,No,Yes,No,Chinese,na,na,Innovation & Enterprise,Problem-Solving Through Maker Education,Music & Performing Arts,Building Cultural Quotience Through Dance,,
183,NATIONAL JUNIOR COLLEGE,http://www.nationaljc.moe.edu.sg,37   HILLCREST ROAD,288913,64661144,na,64684535,na,NJC@MOE.EDU.SG,"BOTANIC GARDENS MRT, TAN KAH KEE MRT, SIXTH AVENUE MRT","66, 67, 74, 151, 154, 156, 157, 170, 174, 852, 961, 972",MR ANG POW CHEW,MR HARMAN AUGUSTUS JOHLL,MDM TAN PHUAY BOON,,,,,BUKIT TIMAH,SOUTH,GOVERNMENT SCHOOL,CO-ED SCHOOL,FULL DAY,MIXED LEVELS,No,No,No,Yes,Chinese,Malay,Tamil,,,,,,
184,NAVAL BASE PRIMARY SCHOOL,http://www.navalbasepri.moe.edu.sg/,7    YISHUN AVE 4,769028,67537114,na,67555355,na,NBPS@MOE.EDU.SG,Yishun MRT Station,Feeder bus No. 811 from Yishun Interchange.,MRS SITA SINGH,MR MUHAMMAD FAISAL B PAIRIN,MDM LIM WAI CHOO,,,,,YISHUN,NORTH,GOVERNMENT SCHOOL,CO-ED SCHOOL,SINGLE SESSION,PRIMARY,No,No,No,No,Chinese,Malay,Tamil,,,Sports & Outdoor Education,Holistic Outdoor Physical Education & Sports (HOPES) Programmes,,
185,NAVAL BASE SECONDARY SCHOOL,http://www.navalbasesec.moe.edu.sg,901  YISHUN RING ROAD,768689,62571996,na,67557706,na,NBSS@MOE.EDU.SG,KHATIB MRT,"39, 85, 117, 670, 807, 811, 812, 851, 852, 853, 854, 855, 857, 858, 965, 969",MR SULAIMAN B MOHAMAD YUSOF,MR LIM SEOW KUAN,MR LYE GUO RONG LIONEL,,,,,YISHUN,NORTH,GOVERNMENT SCHOOL,CO-ED SCHOOL,SINGLE SESSION,SECONDARY,No,No,No,No,Chinese,Malay,Tamil,Aesthetics,Applied Learning in Art,Sports & Outdoor Education,"Character Education through Sports Awareness, Commitment and Empowerment (SpACE)",,
186,NEW TOWN PRIMARY SCHOOL,http://www.newtownpri.moe.edu.sg/,300  Tanglin Halt Road,148812,64748805,na,64741249,na,NTPS@MOE.EDU.SG,Commonwealth MRT Station,"SBS Numbers 32, 100, 105, 111, 145, 147, 195, 196, 198, 855",MRS TAN-NG WIE PIN,MR ONG SZE CHONG BRYAN,MRS CHAN-CHIN WEY LING LYNNE,,,,,QUEENSTOWN,SOUTH,GOVERNMENT SCHOOL,CO-ED SCHOOL,SINGLE SESSION,PRIMARY,No,No,No,No,Chinese,Malay,Tamil,,,Community Service & Student Leadership,A Leader in Every Child,,
187,NEW TOWN SECONDARY SCHOOL,http://www.newtownsec.moe.edu.sg,1020 DOVER ROAD,139657,67754140,na,67752310,na,ntss@moe.edu.sg,"DOVER MRT, CLEMENTI MRT","33, 96, 96A, 151, 196, 183",MDM TAN SIEW HONG (MRS SNG),MR CHAN KOK TUNG TOM,MR LEONARD TAN SOON TECK,,,,,QUEENSTOWN,WEST,GOVERNMENT SCHOOL,CO-ED SCHOOL,SINGLE SESSION,SECONDARY,No,No,No,No,Chinese,Malay,Tamil,Aesthetics,Developing critical and inventive thinkers through visual communication,Community & Youth Leadership,"Developing Confident & Compassionate Student Leaders to Lead, Serve & Excel",,
188,NGEE ANN PRIMARY SCHOOL,http://www.ngeeannpri.moe.edu.sg,344  MARINE TERRACE,449149,64418677,na,64417411,na,NAPS@MOE.EDU.SG,Nil,"13, 16, 16M, 31,36, 43, 47, 48, 55, 135, 196, 196E, 197, 853M (at Marine Parade road) 13, 16, 16M, 196 and 196E(at Marine Terrace)",MDM PANG SIU SAN,MISS LIAW SHAOJUN,,,,,,MARINE PARADE,EAST,GOVERNMENT-AIDED SCH,CO-ED SCHOOL,SINGLE SESSION,PRIMARY,No,No,No,No,Chinese,Malay,Tamil,,,Music & Performing Arts,"GRACE (Graciousness through Arts, Creating Excellence) in Performing Arts Programme",,
189,NGEE ANN SECONDARY SCHOOL,http://www.ngeeannsec.moe.edu.sg,1    TAMPINES STREET 32,529283,67844583,na,67840453,na,nass@moe.edu.sg,"TAMPINES MRT, SIMEI MRT, TAMPINES EAST MRT","3, 4, 8, 9, 12, 17, 18, 19, 21, 28, 29, 34, 37, 38, 39, 59, 81, 291, 293, 518, 552",MR TEO KOK HONG,MDM TAN LAY GIN,MR TAN YIT KEE,,,,,TAMPINES,EAST,GOVERNMENT-AIDED SCH,CO-ED SCHOOL,SINGLE SESSION,SECONDARY,No,Yes,No,No,Chinese,Malay,Tamil,,,,,,
190,NORTH SPRING PRIMARY SCHOOL,http://www.northspringpri.moe.edu.sg,1    RIVERVALE STREET,545088,68816887,63888764,63851044,na,nsps@moe.edu.sg,NEL - Sengkang Station LRT - Bakau Station,"SBS Transit Services 82, 85, 86, 88, 119, 136, 163, 372",MDM PHAN SWEE LIN SHERIN JACINTA,MR JASBIR SINGH,,,,,,SENG KANG,NORTH,GOVERNMENT SCHOOL,CO-ED SCHOOL,SINGLE SESSION,PRIMARY,No,No,No,No,Chinese,Malay,Tamil,,,Community Service & Student Leadership,NSPS CCE Learning Experience ? A Holistic and Engaging Approach,Sports & Outdoor Education,Play Your Hearts Out @  North Spring
191,NORTH VIEW PRIMARY SCHOOL,http://www.northviewpri.moe.edu.sg,210  YISHUN AVENUE 6,768960,67593235,na,67593237,na,NVPS@MOE.EDU.SG,Yishun Khatib,"Feeder Service 804, 806, 807, 860",MDM WONG MEI FOONG,MDM UE TAY SZE YIN,MR RAJINDER SINGH S/O PIARA SINGH,MR HANIFF A T,,,,YISHUN,NORTH,GOVERNMENT SCHOOL,CO-ED SCHOOL,SINGLE SESSION,PRIMARY,No,No,No,No,Chinese,Malay,Tamil,,,Music & Performing Arts,Every Pupil a Confident Performer,,
192,NORTH VISTA PRIMARY SCHOOL,http://www.northvistapri.moe.edu.sg,20   Compassvale Link,544974,64843566,na,64843568,na,nvtps@moe.edu.sg,"Buangkok MRT (NE15), Ranggung LRT (SE5)",na,MR ONG LYE WHATT,MR WEE HOCK MENG VICTOR,MR AMRAN B TASRIF,,,,,SENG KANG,NORTH,GOVERNMENT SCHOOL,CO-ED SCHOOL,SINGLE SESSION,PRIMARY,No,No,No,No,Chinese,Malay,na,ICT & Media,Developing 21st Century Competencies through ICT,Visual Arts & Design,Visual Arts & Design,,
193,NORTH VISTA SECONDARY SCHOOL,http://www.northvistasec.moe.edu.sg,11   RIVERVALE LINK,545081,68793930,na,68793931,na,northvistass@moe.edu.sg,"SENGKANG MRT, BUANGKOK MRT, RANGGUNG LRT","80, 82, 87, 88, 89, 119",MR YAP THIAM CHUAN,MR MOHAMED NASIM S/O ABDUL RAHIM,,,,,,SENG KANG,NORTH,GOVERNMENT SCHOOL,CO-ED SCHOOL,SINGLE SESSION,SECONDARY,No,No,No,No,Chinese,Malay,Tamil,STEM,Investigative Science in Health & Sports,Visual Arts & Design,Nurturing Creative Problem Solvers through the Arts & Design,,
194,NORTHBROOKS SECONDARY SCHOOL,http://www.northbrookssec.moe.edu.sg,585  YISHUN RING ROAD,768692,67524311,na,67566110,na,NORTHBROOKS@MOE.EDU.SG,"YISHUN MRT, KHATIB MRT","804, 806, 807, 860, 103",MR CHAN CHOON LOONG,MR ADAM BIN AHMAD,MISS POH SHI HUI,,,,,YISHUN,NORTH,GOVERNMENT SCHOOL,CO-ED SCHOOL,SINGLE SESSION,SECONDARY,No,No,No,No,Chinese,Malay,Tamil,STEM,Northbrooks Aerospace Programme (Applied Learning In Aerospace),Sports & Outdoor Education,"Northbrooks Outdoor Education: Adventure, Character, Environment (A.C.E.) Programme",,
195,NORTHLAND PRIMARY SCHOOL,http://www.northlandpri.moe.edu.sg,15   YISHUN AVENUE 4,769026,67598884,na,67559196,na,NORTHLAND_PS@MOE.EDU.SG,Yishun MRT Station,812 (next to bus service number 171) at Yishun Interchange,MR JAY WESTLY MAHARDALE,MDM NEO AIK SEO,,,,,,YISHUN,NORTH,GOVERNMENT SCHOOL,CO-ED SCHOOL,SINGLE SESSION,PRIMARY,No,No,No,No,Chinese,Malay,Tamil,Interdisciplinary,Skilling the Mind; Empowering the Thinking,Music & Performing Arts,"My Story, My Stage",,
196,NORTHLAND SECONDARY SCHOOL,http://www.northlandsec.moe.edu.sg,3    YISHUN STREET 22,768578,62576781,na,62573634,na,NORTHLAND_SS@MOE.EDU.SG,YISHUN MRT,"811, 804, 800",MDM TAN SIEW WOON,MS BIAN YU WEI,MR PETERSON JOSEPH STANLEY,,,,,YISHUN,NORTH,GOVERNMENT SCHOOL,CO-ED SCHOOL,SINGLE SESSION,SECONDARY,No,No,No,No,Chinese,Malay,Tamil,STEM,ALP Health Sciences - Healthy Lifestyle and Caring for Elderly,Sports & Outdoor Education,Game for Life ? Developing Social Emotional Competencies through Sports and Physical Activities,,
197,NORTHLIGHT SCHOOL,https://www.nls.edu.sg,151  Towner Road,327830,+65 69296290,na,+ 65 62912423,na,nls@moe.edu.sg,BOON KENG (NE9),"21, 125, 130, 139, 145, 13, 23, 31, 64, 65, 133, 147, 857, 985",MDM SUNG MEE HAR,MR RAJ KUMAR S/O V SIVALINGAM,,,,,,KALLANG,SOUTH,SPECIALISED SCHOOL,CO-ED SCHOOL,FULL DAY,SECONDARY,No,No,No,No,Chinese,Malay,Tamil,,,,,,
198,NORTHOAKS PRIMARY SCHOOL,http://www.northoakspri.moe.edu.sg,61   Sembawang Drive,757622,6753 8835,na,6753 8864,na,northoaks_ps@moe.edu.sg,Sembawang MRT,Bus number 962,"MR CHER TECK YIANG, LUKE MELVIN",MISS TAN YIT PENG,MDM HO JUN- LYNN,,,,,SEMBAWANG,NORTH,GOVERNMENT SCHOOL,CO-ED SCHOOL,SINGLE SESSION,PRIMARY,No,No,No,No,Chinese,Malay,Tamil,Innovation & Enterprise,Curriculum Integration through Innovation@Northoakes (CI=I@northoakes),Sports & Outdoor Education,"SporTs, OutdooR Programme and Inculcation of Values Education (STRIVE) @ Northoaks",,
199,NORTHSHORE PRIMARY SCHOOL,www.northshorepri.moe.edu.sg,30   Northshore Drive,828671,62026490,na,62026491,na,northhshore_ps@moe.edu.sg,Puggol Point LRT Station,"84, 384",MDM LEE YEN PING CHRISTINE,MDM GAN SER MIN,,,,,,PUNGGOL,EAST,GOVERNMENT SCHOOL,CO-ED SCHOOL,SINGLE SESSION,PRIMARY,No,No,No,No,Chinese,Malay,Tamil,,,,,,
200,NUS HIGH SCHOOL OF MATHEMATICS AND SCIENCE,www.nushigh.edu.sg,20   Clementi Avenue 1,129957,65161709,na,67756910,na,einstein@highsch.nus.edu.sg,Nearest MRT Stations - Clementi and Dover,"96, 97, 151, 183, 188, 189, 196, 197, 198",MDM SOH LAI LENG MAGDALEN,MR GOH HOCK LEONG,MR CLIFTON KOH SIEW BOON,,,,,CLEMENTI,WEST,SPECIALISED INDEPENDENT SCHOOL,CO-ED SCHOOL,FULL DAY,MIXED LEVELS,No,No,No,Yes,Chinese,Malay,Tamil,,,,,,
201,OASIS PRIMARY SCHOOL,http://www.oasispri.moe.edu.sg/,71   Edgefield Plains,828716,6320 9855,na,6320 9856,na,oasis_ps@moe.edu.sg,Damai LRT Station,"50, 386",MRS ONG-CHEW LU SEE,MDM NG YIN SZE JOSEPHINE,MDM CHUT SHI LIN,,,,,PUNGGOL,EAST,GOVERNMENT SCHOOL,CO-ED SCHOOL,SINGLE SESSION,PRIMARY,No,No,No,No,Chinese,Malay,Tamil,,,Community Service & Student Leadership,Lead with a Heart@Oasis,,
202,OPERA ESTATE PRIMARY SCHOOL,http://www.operaestatepri.moe.edu.sg,48   FIDELIO STREET,458436,62410417,na,64493042,na,oeps@moe.edu.sg,"Bedok, Kembangan",42,MDM LOE LAI PINK,MDM ADILA ONG KIM LUAN,MR RAYMOND TAY KOON MING,,,,,BEDOK,EAST,GOVERNMENT SCHOOL,CO-ED SCHOOL,SINGLE SESSION,PRIMARY,No,No,No,No,Chinese,Malay,Tamil,,,Music & Performing Arts,Ignite the Arts @ OEPS,Community Service & Student Leadership,"Learn to Lead, Lead to Serve"
203,ORCHID PARK SECONDARY SCHOOL,http://www.orchidparksec.moe.edu.sg,10   YISHUN STREET 81,768454,67598547,na,67588770,na,opss@moe.edu.sg,KHATIB MRT,811,MR SHAWAL BIN HUSSIN,MDM TEO MEI LIN YVONNE,"MR WONG TIEN CHIEH, GLENN",,,,,YISHUN,NORTH,GOVERNMENT SCHOOL,CO-ED SCHOOL,SINGLE SESSION,SECONDARY,No,No,No,No,Chinese,Malay,Tamil,Aesthetics,ARTopIA - Arts Appreciation & Values Inculcation through Visual Art,Community & Youth Leadership,OPSS CORE Programme ? Orchid Park Secondary School Community OutReach Education Programme,,
204,OUTRAM SECONDARY SCHOOL,http://www.outramsec.moe.edu.sg,3    YORK HILL,168622,67334077,na,62352337,na,OSS@MOE.EDU.SG,"OUTRAM PARK MRT, CHINATOWN MRT","174 , 123, 16, 175, 195, 33, 5, 63, 75, 851, 970, 123, 186, 51, 64",MR BOO HIAN KOK,MR LIM PANG CHUANG,MDM GUINIEVE YEO LI-LYN,,,,,CENTRAL,SOUTH,GOVERNMENT SCHOOL,CO-ED SCHOOL,SINGLE SESSION,SECONDARY,No,No,No,No,Chinese,Malay,Tamil,Business & Entrepreneurship,Business and Enterprise,Sports & Outdoor Education,Sports for Life,,
205,PALM VIEW PRIMARY SCHOOL,http://www.palmviewpri.moe.edu.sg,150  Compassvale Bow,544822,65087300,na,68754150,na,palmview_ps@moe.edu.sg,Buangkok,"27,43,109,156,159,161,163,163M,550",MRS MING KUM,MR LOH BIN,,,,,,SENG KANG,NORTH,GOVERNMENT SCHOOL,CO-ED SCHOOL,SINGLE SESSION,PRIMARY,No,No,No,No,Chinese,Malay,na,Languages,Act-cellence: Education through Drama Programme,Community Service & Student Leadership,"The Palm View Challenge ? A Leader, An Advocate, A Force For Good",,
206,PARK VIEW PRIMARY SCHOOL,http://www.parkviewpri.moe.edu.sg,60   PASIR RIS DRIVE 1,519524,65851421,na,65851401,na,PVPS@MOE.EDU.SG,Pasir Ris MRT Station,"358,39,53,81,89",MISS OH SEE MOEY,MDM HO FUI FONG,,,,,,PASIR RIS,EAST,GOVERNMENT SCHOOL,CO-ED SCHOOL,SINGLE SESSION,PRIMARY,No,No,No,No,Chinese,Malay,Tamil,,,Sports & Outdoor Education,Park View Sports Experiential Programme,Community Service & Student Leadership,Leader in Me
207,PASIR RIS CREST SECONDARY SCHOOL,http://www.prcss.moe.edu.sg,11   PASIR RIS STREET 41,518934,65811655,na,65813226,na,prcss@moe.edu.sg,PASIR RIS MRT,"358, 17, 81, 12, 3",MRS KOH CAIYU,MR ADRIAN LEOW LIP BOON,MR ASHRAF HYDER YUSOFF MANIAM,,,,,PASIR RIS,EAST,GOVERNMENT SCHOOL,CO-ED SCHOOL,SINGLE SESSION,SECONDARY,No,No,No,No,Chinese,Malay,Tamil,Languages & Humanities,Effective Communicators of the 21st Century,Music & Performing Arts,Nurturing Crestian Leaders of Tomorrow through Music and the Performing Arts,,
208,PASIR RIS PRIMARY SCHOOL,http://www.pasirrispri.moe.edu.sg,5    PASIR RIS STREET 21,518968,65822606,na,65828492,na,prps@moe.edu.sg,Pasir Ris MRT,"3,5,6,89",MR TAN KING MING,MDM THILAGAMANI D/O T SIVANANDAM,,,,,,PASIR RIS,EAST,GOVERNMENT SCHOOL,CO-ED SCHOOL,SINGLE SESSION,PRIMARY,No,No,No,No,Chinese,Malay,Tamil,,,Community Service & Student Leadership,Leaders Growing Leaders,Sports & Outdoor Education,E3 in Sports@PRPS
209,PASIR RIS SECONDARY SCHOOL,http://pasirrissec.moe.edu.sg,390  TAMPINES STREET 21,529400,65010800,65010855,65010900,na,prss@moe.edu.sg,"TAMPINES MRT, TAMPINES EAST MRT,  TAMPINES WEST MRT","3, 4, 8, 10, 15, 18, 19, 20, 21, 22, 23, 27, 28, 29, 31, 37, 38, 39, 46, 65, 67, 68, 69, 72, 81, 127, 129, 168, 291, 292, 293, 298, 969",MDM GRACE TAN BEE SIM,MR LIN PEI,,,,,,TAMPINES,EAST,GOVERNMENT SCHOOL,CO-ED SCHOOL,SINGLE SESSION,SECONDARY,No,No,No,No,Chinese,Malay,Tamil,Humanities,Applied Learning in Humanities and Languages through Project DRIVE!,Music & Performing Arts,Learning for Life Programme in Music and Performing Arts through SHINE@PRSS,,
210,PAYA LEBAR METHODIST GIRLS' SCHOOL (PRIMARY),http://www.payalebarmethodistgirlspri.moe.edu.sg/,298  LORONG AH SOO,536741,62862795,na,62803915,na,PLMGPS@MOE.EDU.SG,"Kovan (NE13), Serangoon(NE12/CC13)","45, 53, 53M, 62, 113",MRS JOYCE ANG,MS GRACE TAY MENG HON,,,,,,HOUGANG,EAST,GOVERNMENT-AIDED SCH,GIRLS' SCHOOL,SINGLE SESSION,PRIMARY,No,No,No,No,Chinese,Malay,Tamil,,,Sports & Outdoor Education,Aesthetics Sports Experience @ PL,Music & Performing Arts,Music Harmonises @ PL
211,PAYA LEBAR METHODIST GIRLS' SCHOOL (SECONDARY),http://www.plmgss.moe.edu.sg,296  LOR AH SOO,536742,62816606,na,63820558,na,plmgss@moe.edu.sg,"KOVAN MRT, SERANGOON MRT","45, 53, 53M, 62, 113",MRS QUEK LI GEK,MDM TAN MAY LIN SELINA,,,,,,HOUGANG,EAST,GOVERNMENT-AIDED SCH,GIRLS' SCHOOL,SINGLE SESSION,SECONDARY,No,Yes,No,No,Chinese,Malay,Tamil,,,,,,
212,PEI CHUN PUBLIC SCHOOL,http://www.peichunpublic.moe.edu.sg,16   LORONG 7 TOA PAYOH,319320,63539450,na,63538418,na,PCPS@MOE.EDU.SG,Toa Payoh MRT Station and Braddell MRT Station,"Bus Service 232, 57",MR LIM MENG WEI,MISS ADELINE LEONG QINGHUA,MISS SNG WAN XIAN,,,,,TOA PAYOH,SOUTH,GOVERNMENT-AIDED SCH,CO-ED SCHOOL,SINGLE SESSION,PRIMARY,Yes,No,No,No,Chinese,na,na,Languages,Bilingual Media Studies (BMS) Programme,Community Involvement & Student Leadership,Pei Chun Leaders Programme (PCLP),,
213,PEI HWA PRESBYTERIAN PRIMARY SCHOOL,http://www.peihwapresbyterianpri.moe.edu.sg/,7    PEI WAH AVENUE,597610,64663787,64663797,64621944,na,phpps@moe.edu.sg,Beauty World,"970, 852, 174, 173, 157, 77, 61",MRS ELSIE POEY,MRS JACQUELINE HIEW,MDM YONG MING WOEI CHLOE,,,,,BUKIT TIMAH,WEST,GOVERNMENT-AIDED SCH,CO-ED SCHOOL,DOUBLE SESSION,PRIMARY,Yes,No,No,No,Chinese,na,na,Languages,"Competent, Confident Communicators (C3) ? A 6 year progressive programme.",Sports & Outdoor Education,"STAR (Self-defence, Track & field, Adventure and Racquet games) @ PHPPS",,
214,PEI HWA SECONDARY SCHOOL,http://www.peihwasec.moe.edu.sg,21   FERNVALE LINK,797702,65009580,na,63438326,na,peihwasec@moe.edu.sg,"SENGKANG MRT, LAYAR LRT","50, 70, 86, 103, 163, 854",MDM YONG LI LING BELINDA,MR TAN CHER HUI PHILIP,MRS MICHELLE WILLMAN,,,,,SENG KANG,NORTH,GOVERNMENT SCHOOL,CO-ED SCHOOL,SINGLE SESSION,SECONDARY,No,No,No,No,Chinese,Malay,Tamil,STEM,"Robotics and Programming - Nurturing Leaders, Scholars and Altruists",Community & Youth Leadership,PRIDE of the Community: Developing Altruists,,
215,PEI TONG PRIMARY SCHOOL,http://www.peitongpri.moe.edu.sg/,15   CLEMENTI AVENUE 5,129857,67775458,na,67789784,na,PTPS@MOE.EDU.SG,Clementi,"7, 184, 282",MRS NG- TEO SOCK HUA,MDM LIM WAI PING PATRICIA,,,,,,CLEMENTI,SOUTH,GOVERNMENT SCHOOL,CO-ED SCHOOL,SINGLE SESSION,PRIMARY,No,No,No,No,Chinese,Malay,Tamil,,,Music & Performing Arts,MELODY@PEI TONG,,
216,PEICAI SECONDARY SCHOOL,http://www.peicaisec.moe.edu.sg,10   SERANGOON AVENUE 4,556094,62884159,na,62830480,na,peicai_ss@moe.edu.sg,SERANGOON MRT,"22, 24, 43, 53, 70, 76, 103, 109, 116, 147, 156, 315, 317, 853",MR LIM KOK HWA,MISS TAN LI PING,MR SHUE PEI YAN,,,,,SERANGOON,SOUTH,GOVERNMENT SCHOOL,CO-ED SCHOOL,SINGLE SESSION,SECONDARY,No,No,No,No,Chinese,Malay,Tamil,STEM,?We are what we eat; and what we do? ? Knowing Better; Living Healthier; Transforming Lives,Community & Youth Leadership,Becoming Persons for Others ? Leadership through and for the Community,,
217,PEIRCE SECONDARY SCHOOL,http://www.peircesec.moe.edu.sg,10   SIN MING WALK,575566,64576454,na,64576448,na,PEIRCE_SS@MOE.EDU.SG,"ANG MO KIO MRT, BISHAN MRT, MARYMOUNT MRT, BRIGHT HILL MRT (target opening in Q3, 2021)","52, 132, 162, 163, 165, 166, 167, 410, 855, 980",MDM BETTY CHANG,MRS NG MONG KHENG,MS NG BOON MIN,,,,,BISHAN,SOUTH,GOVERNMENT SCHOOL,CO-ED SCHOOL,SINGLE SESSION,SECONDARY,No,No,No,No,Chinese,Malay,Tamil,Languages,Broadcast Journalism,Community & Youth Leadership,Community & Youth Leadership,,
218,PEIYING PRIMARY SCHOOL,http://www.peiyingpri.moe.edu.sg,651  YISHUN RING ROAD,768687,62575684,na,67558802,na,peiying_ps@moe.edu.sg,Khatib,"851, 852, 853, 854, 855",MDM WONG WEI YONG,MR ABDUL RANI BIN IDRIS,,,,,,YISHUN,NORTH,GOVERNMENT SCHOOL,CO-ED SCHOOL,SINGLE SESSION,PRIMARY,No,No,No,No,Chinese,Malay,Tamil,Interdisciplinary,Project THINK (Thinking Holistic Innovative Networked Kids) for Home Earth,Sports & Outdoor Education,"Sports, Character Development and Adventure Learning Experiences @ Peiying (SCALE@PEIYING)",,
219,PING YI SECONDARY SCHOOL,http://pingyisec.moe.edu.sg,61   CHAI CHEE STREET,468980,64489580,na,64442731,na,pyss@moe.edu.sg,BEDOK MRT,"26, 222, 222B, 2, 7, 24, 25, 28, 30, 30E, 32, 33, 40, 67, 229, 854, 60, 87",MR ANG CHEE SENG,MR CHEONG HUEI LEONARD,,,,,,BEDOK,EAST,GOVERNMENT SCHOOL,CO-ED SCHOOL,SINGLE SESSION,SECONDARY,No,No,No,No,Chinese,Malay,Tamil,STEM,Design Education and Aeronautical Engineering,Community & Youth Leadership,Leadership through CCE,,
220,PIONEER PRIMARY SCHOOL,http://www.pioneerpri.moe.edu.sg,23   JURONG WEST STREET 81,649076,67932397,na,67933974,na,pioneer_ps@moe.edu.sg,Boon Lay Station,243,MDM LOKE WAI LING,MR TAN HOCK CHYE CHARLES,MDM CHOO SIEW HONG,,,,,JURONG WEST,WEST,GOVERNMENT SCHOOL,CO-ED SCHOOL,SINGLE SESSION,PRIMARY,No,No,No,No,Chinese,Malay,Tamil,Interdisciplinary,21CC PW,Music & Performing Arts,Fitness and Graciousness Through Dance,,
221,POI CHING SCHOOL,http://www.poiching.moe.edu.sg,21   TAMPINES STREET 71,529067,67856420,na,67857198,na,contact@poiching.moe.edu.sg,Tampines MRT,"Bus 293, 72, 27 and 168",MDM CHUA YE LING,MDM PEH TAN WEE,MS TAN SEOK KUAN,,,,,TAMPINES,EAST,GOVERNMENT-AIDED SCH,CO-ED SCHOOL,SINGLE SESSION,PRIMARY,Yes,No,No,No,Chinese,na,na,Languages,Developing a Bilingual and Effective Speaker and wriTer in every pupil (BEST),Music & Performing Arts,D?ARTS@PCS,,
222,PRESBYTERIAN HIGH SCHOOL,http://www.presbyterian.moe.edu.sg,5209 ANG MO KIO AVENUE 6,569845,64543722,na,64543430,na,presbyterian@moe.edu.sg,YIO CHU KANG MRT,"45, 70, 70M, 71, 76, 86, 668, 851, 851e, 852, 853",MR OWYONG TUCK SING VICTOR,MISS YEW MEI FOONG SARAH,,,,,,ANG MO KIO,SOUTH,GOVERNMENT-AIDED SCH,CO-ED SCHOOL,SINGLE SESSION,SECONDARY,No,No,No,No,Chinese,Malay,Tamil,STEM,Forensic & Pharmaceutical Science,Community & Youth Leadership,Community Youth Leadership,,
223,PRINCESS ELIZABETH PRIMARY SCHOOL,http://www.princesselizabethpri.moe.edu.sg,30   BUKIT BATOK WEST AVENUE 3,659163,65655111,na,65637859,na,PEPS@MOE.EDU.SG,Bukit Batok MRT Station,"Bus 174, 157, 178, 66, 941",MDM MOLIAH BINTE HASHIM,MISS NGIAM WEE HENG,MR LEE FOOK LOONG EUGENE,,,,,BUKIT BATOK,WEST,GOVERNMENT SCHOOL,CO-ED SCHOOL,SINGLE SESSION,PRIMARY,No,No,No,No,Chinese,Malay,Tamil,Innovation & Enterprise,Designing For InclUsivity (Design4U),Community Service & Student Leadership,ASPIRE to Serve and Lead,,
224,PUNGGOL COVE PRIMARY SCHOOL,https://punggolcovepri.moe.edu.sg/,52   Sumang Walk,828674,63857339,na,63857261,na,punggolcove_ps@moe.edu.sg,Nibong LRT Station,"382W, 84","MR YAP SWEE BENG, DENNIS",MISS THIA HWEI LING SHARON,MR WAN IMRAN BIN MOHAMED WOOJDY,,,,,PUNGGOL,EAST,GOVERNMENT SCHOOL,CO-ED SCHOOL,SINGLE SESSION,PRIMARY,No,No,No,No,Chinese,Malay,Tamil,Languages,Holistic English Literacy Programme (HELP),,,,
225,PUNGGOL GREEN PRIMARY SCHOOL,http://www.punggolgreenpri.moe.edu.sg,98   Punggol Walk,828772,65383011,na,65383210,na,admin_punggolgreen_ps@moe.edu.sg,Punggol MRT Station,na,MR HANAFI B ASMORE,MISS TAN HUILING CHERYL,DR LEE KOK SONK,,,,,PUNGGOL,EAST,GOVERNMENT SCHOOL,CO-ED SCHOOL,SINGLE SESSION,PRIMARY,No,No,No,No,Chinese,Malay,Tamil,,,Community Service & Student Leadership,Learning for Life through Environmental Education And Project Work (L.E.A.P.),,
226,PUNGGOL PRIMARY SCHOOL,http://www.punggolpri.moe.edu.sg/,61   HOUGANG AVENUE 8,538787,63850762,na,63877793,na,punggol_ps@moe.edu.sg,"Hougang, Buangkok",62 74 88 113 147 325,MISS CHEW TOCK LEE,MISS KAREN YAW LI LING,,,,,,HOUGANG,SOUTH,GOVERNMENT SCHOOL,CO-ED SCHOOL,SINGLE SESSION,PRIMARY,No,No,No,No,Chinese,Malay,Tamil,Interdisciplinary,GreeNovation @ PPS,Sports & Outdoor Education,SEL & character development Through Active paRticipation in Sports (S.T.A.R.S.),,
227,PUNGGOL SECONDARY SCHOOL,http://www.punggolsec.moe.edu.sg,51   EDGEFIELD PLAINS,828870,64897851,na,64897859,na,PUNGGOL_SS@MOE.EDU.SG,"PUNGGOL MRT, COVE LRT","3, 34, 62, 82, 83, 85, 136, 965, 386",MS TOH ENG BENG ANGELINE,MR ANITH KUMAR S/O NADESAN,MR VINCENT LEE WEI YEE,,,,,PUNGGOL,NORTH,GOVERNMENT SCHOOL,CO-ED SCHOOL,SINGLE SESSION,SECONDARY,No,No,No,No,Chinese,Malay,Tamil,STEM,Environment Education,Community & Youth Leadership,"Serving with values and good habits, developing the 21st century gentlemen/ ladies",,
228,PUNGGOL VIEW PRIMARY SCHOOL,http://www.punggolviewpri.moe.edu.sg,9    Punggol Place,828845,6570 1588,na,6570 3680,na,punggolview_ps@moe.edu.sg,Punggol MRT Station,50 382,DR ANG WEK CHENG,MDM SHARIFAH SAMIRAH BTE SYED MOHAMAD,MR GOH ZENSEN,,,,,PUNGGOL,EAST,GOVERNMENT SCHOOL,CO-ED SCHOOL,SINGLE SESSION,PRIMARY,No,No,No,No,Chinese,Malay,Tamil,,,Sports & Outdoor Education,Building Character through Outdoor Education,,
229,QIFA PRIMARY SCHOOL,http://www.qifapri.moe.edu.sg,50   WEST COAST AVENUE,128104,67783085,na,67761485,na,QIFA_PS@MOE.EDU.SG,Clementi MRT Station,"30,51,78,143,285,655",MRS CATHERINE CHIANG,"MDM CHAN SIN LI, CINDY",MR WONG WOEN LONG,,,,,CLEMENTI,WEST,GOVERNMENT SCHOOL,CO-ED SCHOOL,SINGLE SESSION,PRIMARY,No,No,No,No,Chinese,Malay,Tamil,Languages,Effective Communication,Sports & Outdoor Education,CHAMPS @Qifa,,
230,QIHUA PRIMARY SCHOOL,http://www.qihuapri.moe.edu.sg,5    WOODLANDS STREET 81,738525,62696250,na,62693114,na,QIHUA_PS@MOE.EDU.SG,Woodlands MRT Station,"911, 900",MRS LEE HUI FENG,MR FOO CHUAN KAI,MR GOH GIAM HWEE (WU JIANHUI),,,,,WOODLANDS,NORTH,GOVERNMENT SCHOOL,CO-ED SCHOOL,SINGLE SESSION,PRIMARY,No,No,No,No,Chinese,Malay,Tamil,Innovation & Enterprise,Inventive and Critical Thinking Skills through Innovation and Entrepreneurship Excellence Programme,Sports & Outdoor Education,Promotion of School Values through Sports Development Programme (SDP),,
231,QUEENSTOWN PRIMARY SCHOOL,http://www.queenstownpri.moe.edu.sg,310  MARGARET DR,149303,64741044,na,64713640,na,qtps@moe.edu.sg,Queenstown MRT,"32, 111, 145, 195",MISS NG POR JOO PEARLY,MR ATRAJU S/O KANAN RAMDAS,,,,,,QUEENSTOWN,SOUTH,GOVERNMENT SCHOOL,CO-ED SCHOOL,SINGLE SESSION,PRIMARY,No,No,No,No,Chinese,Malay,Tamil,Interdisciplinary,Environmental Project-Based Learning@Queenstown Primary School (E-PBL@QtPS),Visual Arts & Design,Connecting the heARTs with ARTs,,
232,QUEENSTOWN SECONDARY SCHOOL,http://www.queenstownsec.moe.edu.sg,1    STRATHMORE ROAD,148800,64741055,na,64741295,na,qtss@moe.edu.sg,"REDHILL MRT, QUEENSTOWN MRT","33, 51, 64, 111, 120, 139, 145, 186, 970",MDM RASIDAH BTE RAHIM,MR CHUA PUAY WEE ERIC,MRS YUE-CHANG TECK HUI,,,,,QUEENSTOWN,SOUTH,GOVERNMENT SCHOOL,CO-ED SCHOOL,SINGLE SESSION,SECONDARY,No,No,No,No,Chinese,Malay,Tamil,Humanities,Minds for the Future ? First Cultivating the Disciplined and Synthesising Mind,Community & Youth Leadership,Community & Youth Leadership,,
233,QUEENSWAY SECONDARY SCHOOL,http://www.queenswaysec.moe.edu.sg,2A   MARGARET DRIVE,149295,64741421,na,64741302,na,QSS@moe.edu.sg,"COMMONWEALTH MRT, QUEENSTOWN MRT","32, 51, 93, 100, 105, 111, 122, 123, 145, 147, 153, 186, 195, 196, 198, 855, 961, 970","MR TAN CHONG TZE, PETER",MR NG HOCK SOON,MR LOH KAR WAI JAY,,,,,QUEENSTOWN,SOUTH,GOVERNMENT SCHOOL,CO-ED SCHOOL,SINGLE SESSION,SECONDARY,No,No,No,No,Chinese,Malay,Tamil,STEM,Environmental Science Applied Learning Programme: Developing Confident Learners and Caring Citizens,Sports & Outdoor Education,Sports for Life & Outdoor Education Programme: Nurturing Responsible Citizens and Life-long Learners,,
234,RADIN MAS PRIMARY SCHOOL,http://www.radinmasps.moe.edu.sg,1    BUKIT PURMEI AVENUE,99840,62733937,na,62763083,na,rmps@moe.edu.sg,Tiong Bahru MRT HarbourFront MRT,"SBS 123, 131, 275 SBS 65",MR MUHAMMAD FARIZAL BIN UMAR EFFE,MRS LINDA TAN,,,,,,BUKIT MERAH,SOUTH,GOVERNMENT SCHOOL,CO-ED SCHOOL,SINGLE SESSION,PRIMARY,No,No,No,No,Chinese,Malay,Tamil,Coding,Nurturing 21st Century Competencies through Computational Thinking With Design Thinking,Sports & Outdoor Education,G.R.I.T@RMPS ? Growth Mindset.Resilience.Independence.Teamwork,,
235,RAFFLES GIRLS' PRIMARY SCHOOL,http://www.rafflesgirlspri.moe.edu.sg,21   Hillcrest Road,289072,64684377,na,64692024,na,RGPS@MOE.EDU.SG,TAN KAH KEE MRT STATION,"66, 67, 74, 151, 154, 156, 157, 170, 171, 174, 852, 961",MRS YUE YOKE MUN NEE WAI,MISS CHEN MEI CHUEN,MISS KONG SU MAY,,,,,BUKIT TIMAH,SOUTH,GOVERNMENT SCHOOL,GIRLS' SCHOOL,SINGLE SESSION,PRIMARY,No,No,Yes,No,Chinese,Malay,Tamil,Languages,Nurturing Confident Communicators,Music & Performing Arts,Developing Creatively Through Collaborative Music Making,,
236,RAFFLES GIRLS' SCHOOL (SECONDARY),http://www.rgs.edu.sg,2    BRADDELL RISE,318871,67371845,na,62353731,na,RGSS@MOE.EDU.SG,"BRADDELL MRT, CALDECOTT MRT","59, 93, 129, 156, 157, 163, 231, 232, 235",MDM HASLINDA BTE ZAMANI,MS CHIN JEN FU,MS TAN HWEE MIAN MAY,MRS MARY CHERIYAN,,,,CENTRAL,SOUTH,INDEPENDENT SCHOOL,GIRLS' SCHOOL,SINGLE SESSION,SECONDARY,No,No,Yes,Yes,Chinese,Malay,Tamil,,,,,,
237,RAFFLES INSTITUTION,http://www.ri.edu.sg,1    RAFFLES INSTITUTION LANE,575954,64199242,na,64199238,na,comms@ri.edu.sg,"BISHAN MRT, MARYMOUNT MRT","410,13,50,52,53,54,55,56,57,58,59,71,74,88,93,128,130,132,156,157,162,163,165,166,167,851,852,855,980",MR YEO KOK PENG FREDERICK,MDM THOR POH SIN THERESA,MR EDWARD NG,MR CHEN ZIYANG,MR ANG PENG SIONG BRIAN LAGMAN,MRS REAVLEY MUNN YE,MS NG MEI SZE,BISHAN,SOUTH,INDEPENDENT SCHOOL,CO-ED SCHOOL,SINGLE SESSION,MIXED LEVELS,No,No,Yes,Yes,Chinese,Malay,Tamil,,,,,,
238,RED SWASTIKA SCHOOL,http://www.redswastika.moe.edu.sg,350  BEDOK NORTH AVENUE 3,469719,64430380,na,62448391,na,REDSWASTIKA@MOE.EDU.SG,Bedok Reservoir MRT,"Bus 14, 17, 28, 46, 66, 67, 69, 222, 228",MS JESSIE LIM CHIEN CHIN,MS ANGELA GOH BEE LIAN,MDM ESTHER E TZY KWEI,,,,,BEDOK,EAST,GOVERNMENT-AIDED SCH,CO-ED SCHOOL,SINGLE SESSION,PRIMARY,Yes,No,No,No,Chinese,na,na,Science,Tinkers to Thinkers (T2T) Programme,Community Service & Student Leadership,Every RSS Student A Leader,,
239,REGENT SECONDARY SCHOOL,http://regentsec.moe.edu.sg,50   CHOA CHU KANG NORTH 5,689621,67653828,na,67653413,na,REGENT_SS@MOE.EDU.SG,"YEW TEE MRT, CHOA CHU KANG MRT","307, 160, 170, 178, 925, 927, 960, 961, 979",MR LEONG KOK KEE,MRS TANG HUAY JIUAN PATRINE,,,,,,CHOA CHU KANG,WEST,GOVERNMENT SCHOOL,CO-ED SCHOOL,SINGLE SESSION,SECONDARY,No,No,No,No,Chinese,Malay,Tamil,STEM,Engineering @ Regent,Community & Youth Leadership,"Empowering every Regenite to be a Responsible and Confident Leader, Committed to Excellence",,
240,RIVER VALLEY HIGH SCHOOL,https://rivervalleyhigh.moe.edu.sg/,6    BOON LAY AVENUE,649961,65678115,na,65677351,na,RVHS@MOE.EDU.SG,"BOON LAY MRT, LAKESIDE MRT","99, 157, 172, 174, 174E, 198, 240, 502, 974, NR5",MRS TEO KHIN HIANG NEE LEE WAI TAI,MR LAU WAI CHI ALVIN,MR KWOK YING LIANG,"MR LIM PENG YUAN, ANDY",,,,JURONG WEST,WEST,GOVERNMENT SCHOOL,CO-ED SCHOOL,SINGLE SESSION,MIXED LEVELS,Yes,Yes,No,Yes,Chinese,na,na,,,,,,
241,RIVER VALLEY PRIMARY SCHOOL,http://www.rivervalleypri.moe.edu.sg,2    RIVER VALLEY GREEN,237993,67371785,na,67321951,na,rvps@moe.edu.sg,Somerset MRT,"5, 16, 32, 54, 65, 75, 175, 970",MDM WONG LI PENG,MR PHANG ENG POH,DR AUDREY KOH CHOUK ENG,,,,,CENTRAL,SOUTH,GOVERNMENT SCHOOL,CO-ED SCHOOL,SINGLE SESSION,PRIMARY,No,No,No,No,Chinese,Malay,Tamil,,,Community Service & Student Leadership,Enhancing Character and Citizenship Education with Leadership Development to Edify Lives in RVPS,,
242,RIVERSIDE PRIMARY SCHOOL,http://www.riversidepri.moe.edu.sg,110  Woodlands Crescent,737803,63654490,na,63654460,na,riverside_ps@moe.edu.sg,Admiralty MRT Station,Bus No 913 and Bus No 964,MR TAN CHOON KHENG,MDM KHOO PHAIK HOON REGINA,MRS RANUKA PALANIVELU,,,,,WOODLANDS,NORTH,GOVERNMENT SCHOOL,CO-ED SCHOOL,SINGLE SESSION,PRIMARY,No,No,No,No,Chinese,Malay,Tamil,Interdisciplinary,Playworks ? Nurturing Critical and Inventive Thinkers,Community Service & Student Leadership,"PeerWorks ? Building Self, Supporting One Another, Serving the Community Together",,
243,RIVERSIDE SECONDARY SCHOOL,http://www.riversidesec.moe.edu.sg,3    WOODLANDS STREET 81,738524,62699631,na,63683677,na,RIVERSIDE_SS@MOE.EDU.SG,WOODLANDS MRT,"858, 900, 911, 913, 964, 962, 965, 969, 169, 903",MISS THAM YOKE CHUN,MR DERICK WONG TECK FATT,MDM LINDA YEO SOCK KHOON,,,,,WOODLANDS,NORTH,GOVERNMENT SCHOOL,CO-ED SCHOOL,SINGLE SESSION,SECONDARY,No,No,No,No,Chinese,Malay,Tamil,Languages & Humanities,Global Citizenship Education through Critical Social Inquiry,Music & Performing Arts / Visual Arts & Design,Arts for Life,,
244,RIVERVALE PRIMARY SCHOOL,http://www.rivervalepri.moe.edu.sg/,80   RIVERVALE DRIVE,545092,63887450,na,63887449,na,RIVERVALE_PS@MOE.EDU.SG,Nearest LRT Station : Rumbia,"Bus Service 86, 371.",MISS RADHA D/O G SUBRAMANIAM,MR KNG WEE BENG,,,,,,SENG KANG,NORTH,GOVERNMENT SCHOOL,CO-ED SCHOOL,SINGLE SESSION,PRIMARY,No,No,No,No,Chinese,Malay,Tamil,Science,Multi-Literacy Programme (MLP),Music & Performing Arts,DANCE FEVER ? Dance Aces Nurturing Cultural Expression For EVEry Riverlite,,
245,ROSYTH SCHOOL,https://www.rosyth.moe.edu.sg,21   Serangoon North Avenue 4,555855,64812273,na,64831102,na,rosyth_sch@schools.gov.sg,"Ang Mo Kio, Serangoon","73, 315, 116",MDM ELIS TAN LEE CHING,MR CHIEW JING WEN,MS POH HWEE THING,,,,,SERANGOON,NORTH,GOVERNMENT SCHOOL,CO-ED SCHOOL,SINGLE SESSION,PRIMARY,No,No,Yes,No,Chinese,Malay,Tamil,Science,Augmenting Science Learning through Innovation,Music & Performing Arts,Programme for Aesthetics Integration@Rosyth (PAIR),,
246,RULANG PRIMARY SCHOOL,http://www.rulangpri.moe.edu.sg/,6    JURONG WEST STREET 52,649295,65657771,na,65632382,na,RULANG_PS@MOE.EDU.SG,Lakeside,SBS 335,MS TRACY TAN I- LIAN,MISS NG MEI YUN,DR CHOONG PEK LAN,,,,,JURONG WEST,WEST,GOVERNMENT SCHOOL,CO-ED SCHOOL,DOUBLE SESSION,PRIMARY,No,No,No,No,Chinese,Malay,Tamil,Coding,Enhancing 21st Century Competencies Through Robotics,Sports & Outdoor Education,"Sports Teach Responsibility, Inventiveness, Values & Excellence (STRIVE) @ Rulang",,
247,"SCHOOL OF SCIENCE AND TECHNOLOGY, SINGAPORE",http://www.sst.edu.sg,1    Technology Drive,138572,(65) 65717200,na,(65) 68720856,na,contactus@sst.edu.sg,Dover,"14, 74, 105, 106, 147, 166, 185",MRS LINDA CHAN,MRS CHEW EU JIN NEE LIM WAI LEE,,,,,,CLEMENTI,WEST,SPECIALISED INDEPENDENT SCHOOL,CO-ED SCHOOL,FULL DAY,SECONDARY,No,No,No,No,Chinese,Malay,Tamil,,,,,,
248,"SCHOOL OF THE ARTS, SINGAPORE",http://www.sota.edu.sg/,1    Zubir Said Drive,227968,6338 9663,6342 5857,6338 9763,na,enquiries@sota.edu.sg,Dhoby Ghaut,"7, 14, 16, 36, 64, 65, 77, 106, 111, 124, 128, 131, 147, 162, 166, 167, 171, 174, 175, 190, 502, 518, 700, 857,",MDM WONG YEE MIN MARY,MR HO KOK SUN KEVIN,MS KHOO MEI LING AMY,MISS PAULINE ANN TAN POH LING,,,,CENTRAL,SOUTH,SPECIALISED INDEPENDENT SCHOOL,CO-ED SCHOOL,SINGLE SESSION,MIXED LEVELS,No,No,No,No,Chinese,Malay,Tamil,,,,,,
249,SEMBAWANG PRIMARY SCHOOL,http://www.sembawangpri.moe.edu.sg,10   SEMBAWANG DRIVE,757715,67567330,na,67560367,na,SEMBAWANG_PS@MOE.EDU.SG,Sembawang MRT (6 to 8-minute walk),"656, 859, 962, 980",MRS GRACE CHUA,MDM LIM SIEW CHENG CINDY,,,,,,SEMBAWANG,NORTH,GOVERNMENT SCHOOL,CO-ED SCHOOL,SINGLE SESSION,PRIMARY,No,No,No,No,Chinese,Malay,Tamil,Science,Nurturing Green Citizens & Leaders through Environmental Studies,,,,
250,SEMBAWANG SECONDARY SCHOOL,http://www.sembawangsec.moe.edu.sg,30   SEMBAWANG CRESCENT,757704,67566760,na,67585380,na,SEMBAWANG_SS@MOE.EDU.SG,SEMBAWANG MRT,"859, 859A, 962",MR JASWANT SINGH,MR GOH KEE YONG @ GOH CHONG HENG,MR LEE YONG KIANG JUSTIN,,,,,SEMBAWANG,NORTH,GOVERNMENT SCHOOL,CO-ED SCHOOL,SINGLE SESSION,SECONDARY,No,No,No,No,Chinese,Malay,Tamil,Languages & Humanities,Critical & Inventive Thinking (CIT) thru Media Literacy,Community & Youth Leadership,Developing Community Leaders through VIA and Outdoor Education,,
251,SENG KANG PRIMARY SCHOOL,http://www.sengkangpri.moe.edu.sg/,21   COMPASSVALE WALK,545166,63840809,na,63840839,na,SKPS@MOE.EDU.SG,Sengkang MRT,"27, 80, 82, 83, 86, 87, 88, 89, 119, 156, 163, 371, 372 & 965",MDM SEAH WHYE CHOO,MISS THIEN LI CHIN,,,,,,SENG KANG,NORTH,GOVERNMENT SCHOOL,CO-ED SCHOOL,SINGLE SESSION,PRIMARY,No,No,No,No,Chinese,Malay,Tamil,Languages,Enhanced Spoken English Programme,Sports & Outdoor Education,Developing Values and Leadership through Sports Education,,
252,SENG KANG SECONDARY SCHOOL,http://www.sengkangsec.moe.edu.sg,10   COMPASSVALE LANE,545090,63887258,na,63887254,na,skss@moe.edu.sg,"SENGKANG MRT, RANGGUNG LRT","27, 80, 85, 86, 87, 89, 89E, 163, 163M, 372",MR KOH YIAK KHENG,MR TAN TECK TIAN,MDM NAZIMAH BTE ABDULLAH,,,,,SENG KANG,NORTH,GOVERNMENT SCHOOL,CO-ED SCHOOL,SINGLE SESSION,SECONDARY,No,No,No,No,Chinese,Malay,Tamil,STEM,Health Science & Technology,Sports & Outdoor Education,Building Character Through Physical Education & Sports,,
253,SENGKANG GREEN PRIMARY SCHOOL,http://www.sengkanggreenpri.moe.edu.sg/,15   Fernvale Road,797636,63864255,na,62428796,na,sengkanggreen_ps@moe.edu.sg,Fernvale LRT (SW5) - (Sengkang West Loop),"Sengkang and Toa Payoh interchange - no 163, Along Yio Chu Kang Road, - no 70, 86, 103 and 854.Punggol Temp Interchange to Bishan Interchange - Bus 50",MR GAU POH TECK,MR LIM JIT HIN,MISS SABARIAH BTE SUBARI,,,,,SENG KANG,EAST,GOVERNMENT SCHOOL,CO-ED SCHOOL,SINGLE SESSION,PRIMARY,No,No,No,No,Chinese,Malay,Tamil,,,Music & Performing Arts/ Visual Arts & Design,ICAR2E THROUGH THE ARTS,,
254,SERANGOON GARDEN SECONDARY SCHOOL,http://www.sgs.edu.sg,21   SERANGOON NORTH AVENUE 1,555889,62889227,65789177,62888695,na,sgss@moe.edu.sg,"SERANGOON MRT, ANG MO KIO MRT","25, 55, 73, 74, 74e, 76, 132, 165, 315",MDM GOH MIEN HUI VALERIE,MDM LEE HWEE PING,MR QUEK CHOON HSIONG,,,,,SERANGOON,SOUTH,GOVERNMENT SCHOOL,CO-ED SCHOOL,SINGLE SESSION,SECONDARY,No,No,No,No,Chinese,Malay,Tamil,Humanities,Researching Society using Media Communication,Community & Youth Leadership,Nurturing Confident and Compassionate Leaders through Uniformed Groups,,
255,SERANGOON SECONDARY SCHOOL,http://www.serangoonsec.moe.edu.sg,11   UPPER SERANGOON VIEW,534237,63851589,na,63851635,na,SERANGOON_SS@MOE.EDU.SG,"HOUGANG MRT, KANGKAR LRT","62, 74, 102, 113, 119, 136, 147, 324",MDM TAY SIOK HWA,MR JIN SEBASTIAN,MR TAN SOON HUI,,,,,HOUGANG,NORTH,GOVERNMENT SCHOOL,CO-ED SCHOOL,SINGLE SESSION,SECONDARY,No,No,No,No,Chinese,Malay,Tamil,STEM,Real-world Explorations in ICT,Community & Youth Leadership,Project Ablaze: Harnessing Student Leadership in the Service of Community,,
256,SHUQUN PRIMARY SCHOOL,http://www.shuqunpri.moe.edu.sg,8    JURONG WEST STREET 51,649332,65637129,na,65637418,na,sqps@moe.edu.sg,W11 Lakeside,"98, 187, 335",MRS SARA DE SOUZA,MDM ADELINE CHONG,MR MUHAMMAD FADYLLA B RASHIMAN,,,,,JURONG WEST,WEST,GOVERNMENT SCHOOL,CO-ED SCHOOL,SINGLE SESSION,PRIMARY,No,No,No,No,Chinese,Malay,Tamil,Interdisciplinary,Caring and Responsible Environmentalist (CaRE) Programme,Sports & Outdoor Education,Character and Leadership development through ADventure (CLAD),,
257,SI LING PRIMARY SCHOOL,http://www.silingpri.moe.edu.sg,61   WOODLANDS AVENUE 1,739067,62698832,na,63675516,na,SLPS@MOE.EDU.SG,Woodlands,912 from Woodlands Interchange,MR KOE EE TIONG,MR ANDREW NG SIOK KWANG,,,,,,WOODLANDS,NORTH,GOVERNMENT SCHOOL,CO-ED SCHOOL,SINGLE SESSION,PRIMARY,No,No,No,No,Chinese,Malay,Tamil,Science,Environmental Science Programme,Community Service & Student Leadership,Community and Student Leadership,,
258,SINGAPORE CHINESE GIRLS' PRIMARY SCHOOL,www.scgs.moe.edu.sg,190  DUNEARN ROAD,309437,62527966,na,62523076,na,SCGPS@MOE.EDU.SG,Stevens,"66, 67, 105, 132, 151, 153, 154, 156, 170, 171, 186, 190, 605, 700, 960",MDM TAN YUNCHIN EUGENIA,MDM PHUA KIA LING,,,,,,NOVENA,NORTH,GOVERNMENT-AIDED SCH,GIRLS' SCHOOL,SINGLE SESSION,PRIMARY,No,No,No,No,Chinese,Malay,Tamil,Languages,"Stories Opening Windows to the world: Using narratives to appreciate Culture, build Connections and effect Change",Music & Performing Arts,PAM@SC ? Performing Arts and Music at SC,,
259,SINGAPORE CHINESE GIRLS' SCHOOL,http://www.scgs.moe.edu.sg,190  DUNEARN ROAD,309437,62527966,na,62523076,na,SCGSS@MOE.EDU.SG,STEVENS MRT,"48, 66, 67, 105, 132, 151, 153, 154, 156, 170, 186, 190, 960, 971E, 972",MDM TAN YUNCHIN EUGENIA,MRS SHERMAINE TANG,MDM HO HUI PING,,,,,NOVENA,NORTH,INDEPENDENT SCHOOL,GIRLS' SCHOOL,SINGLE SESSION,SECONDARY,No,No,No,Yes,Chinese,Malay,Tamil,,,,,,
260,SINGAPORE SPORTS SCHOOL,http://www.sportsschool.edu.sg,1    Champions Way,737913,67660100,na,67662100,na,enquire@sportsschool.edu.sg,Woodlands South MRT,"665, 900A, 901, 901M",MR ONG KIM SOON,MR HO BENG KIAT,MISS LOW YING XIU,,,,,WOODLANDS,NORTH,SPECIALISED INDEPENDENT SCHOOL,CO-ED SCHOOL,FULL DAY,MIXED LEVELS,No,No,No,No,Chinese,Malay,Tamil,,,,,,
261,SOUTH VIEW PRIMARY SCHOOL,http://www.southviewpri.moe.edu.sg,6    Choa Chu Kang Central,689762,67697176,na,67631091,na,SVPS@MOE.EDU.SG,Choa Chu Kang MRT Station,307 / South View LRT Station,MDM SHARIDA BINTE BATCHA SAHIB,MISS TAN WAN KHENG,MISS ACHARY GOPALAN SHIYAMALA,,,,,CHOA CHU KANG,WEST,GOVERNMENT SCHOOL,CO-ED SCHOOL,SINGLE SESSION,PRIMARY,No,No,No,No,Chinese,Malay,Tamil,ICT & Media,"energIze, exCite, and exalT! - Learning through Empowering @ SVPS",Music & Performing Arts,Love Dance.  Love Life!,,
262,SPECTRA SECONDARY SCHOOL,https://www.spectra.edu.sg,1    WOODLANDS DRIVE 64,737758,64660775,na,64623928,na,spectra@schools.gov.sg,ADMIRALTY MRT,"901M, 904, 912, 913, 962, 964, 965, 969",MR TAN TECK HOCK,MR HOW PUI SENG,MR YIP CHOONG SENG JIMMY,,,,,WOODLANDS,NORTH,SPECIALISED SCHOOL,CO-ED SCHOOL,SINGLE SESSION,SECONDARY,No,No,No,No,Chinese,Malay,Tamil,,,,,,
263,SPRINGDALE PRIMARY SCHOOL,http://springdalepri.moe.edu.sg/,71   Anchorvale Link,544799,+65 63157600,na,+65 63153351,na,springdale_ps@moe.edu.sg,Sengkang Station (NE16)  Nearest LRT station: Farmway  *10-15 min walk from either station,"50, 85, 102, 372    Nearest Bus Stop: In front of Blk 326 Car Park  *1-2 min walk from bus stop; enter by Main Gate along Anchorvale Link or Rear Gate",MDM NEO LAY WAH,MR HO WEE MIN KELVIN,MR SHOEB BURHANUDDIN,,,,,SENG KANG,EAST,GOVERNMENT SCHOOL,CO-ED SCHOOL,SINGLE SESSION,PRIMARY,No,No,No,No,Chinese,Malay,Tamil,Interdisciplinary,Out-of-Door Education (ODE) through Curriculum Integration,Community Service & Student Leadership,Nurturing Leaders with a Heart,,
264,SPRINGFIELD SECONDARY SCHOOL,http://www.springfieldsec.moe.edu.sg,30   TAMPINES AVENUE 8,529593,63183053,na,63183050,na,SPRINGFIELDS@MOE.EDU.SG,"TAMPINES MRT, TAMPINES WEST MRT","8, 15, 23, 58, 69, 118, 129, 291, 293, 298, 513, 518",MRS MABEL LEONG,MR CHAN WENG ONN MARTIN,MR KEITH TAN,,,,,TAMPINES,EAST,GOVERNMENT SCHOOL,CO-ED SCHOOL,SINGLE SESSION,SECONDARY,No,No,No,No,Chinese,Malay,na,STEM,Exploring Health Sciences through SP2A,Community & Youth Leadership,"GEARing Springfielders for Success - Grounding in Values, Engaged to Learn and Lead, Aspiring to Serve, Ready to Soar",,
265,ST. ANDREW'S JUNIOR COLLEGE,http://www.standrewsjc.moe.edu.sg/,5    Sorby Adams Drive,357691,62857008,62852007,62850037,na,sajc@moe.edu.sg,Potong Pasir NE10,"SBSTransit: 8, 26, 31, 90, 142 ,151, 154 (Diocese of Singapore) SMRT Buses:  857, 966, 985 (Diocese of Singapore),  853 (Upper Serangoon Road)",MR THAM KINE THONG,MR ANG KHENG SAN CECIL,MRS WHANG AI LEE,,,,,TOA PAYOH,SOUTH,GOVERNMENT-AIDED SCH,CO-ED SCHOOL,FULL DAY,JUNIOR COLLEGE,No,No,No,No,na,na,na,,,,,,
266,ST. ANDREW'S JUNIOR SCHOOL,http://www.saintandrewsjunior.moe.edu.sg,2    FRANCIS THOMAS DRIVE,359337,62884303,na,62895242,na,sajs@moe.edu.sg,"Potong Pasir,Toa Payoh","8,13,26,31,90,90A,107,133,142,147,853,NR6",MISS NEO PHEI TZE PATSY,MR THAM KINE CHUEN THOMAS,,,,,,TOA PAYOH,SOUTH,GOVERNMENT-AIDED SCH,BOYS' SCHOOL,SINGLE SESSION,PRIMARY,No,No,No,No,Chinese,Malay,Tamil,Interdisciplinary,A Saint who Thinks Holistically,Sports & Outdoor Education,"Sports for Life ? Spectator, Supporter and Sportsman",,
267,ST. ANDREW'S SECONDARY SCHOOL,http://www.standrewssec.moe.edu.sg,15   FRANCIS THOMAS DRIVE,359342,62851944,na,63823779,na,sass@moe.edu.sg,POTONG PASIR MRT,"8, 13, 26, 31, 90, 90A, 107, 133, 142, 147, 853",MR LEE HAN HWA,"MR TEO HAN WOON, DENNIS",MISS TEO PEK HOON AGNES,,,,,TOA PAYOH,SOUTH,GOVERNMENT-AIDED SCH,BOYS' SCHOOL,SINGLE SESSION,SECONDARY,No,No,No,No,Chinese,Malay,Tamil,STEM,Saints Engineering Design Programme,Sports & Outdoor Education,Saints Rugby for Life,,
268,ST. ANTHONY'S CANOSSIAN PRIMARY SCHOOL,http://www.stanthonyscanossianpri.moe.edu.sg,1602 BEDOK NORTH AVE 4,469701,64492239,na,64492146,na,sacps@moe.edu.sg,Bedok MRT,17,MDM KOK LAI YOKE,MRS IRENE GOH HOCK NGUAN,MDM ARIKEN CHARMAINE CARRIE,,,,,BEDOK,EAST,GOVERNMENT-AIDED SCH,GIRLS' SCHOOL,SINGLE SESSION,PRIMARY,No,No,No,No,Chinese,Malay,Tamil,,,Sports & Outdoor Education,SACPS is FIT for Life ? Building Resilience & Perseverance through Sports & Games,Music & Performing Arts,Developing Confidence and Creativity through the Performing Arts
269,ST. ANTHONY'S CANOSSIAN SECONDARY SCHOOL,http://www.stanthonyscanossiansec.moe.edu.sg,1600 BEDOK NORTH AVENUE 4,469700,64490616,na,64490162,na,sacss@moe.edu.sg,"BEDOK MRT, BEDOK RESERVOIR MRT","17, 14, 46, 222",MDM KOH TYNG YUANN FIONA,MDM NG MEOW LENG NANCY,MISS WANG SIEW PING,,,,,BEDOK,EAST,GOVERNMENT-AIDED SCH,GIRLS' SCHOOL,SINGLE SESSION,SECONDARY,No,Yes,No,No,Chinese,Malay,Tamil,,,,,,
270,ST. ANTHONY'S PRIMARY SCHOOL,http://www.stanthonyspri.moe.edu.sg,30   Bukit Batok St 32,659401,65690822,na,65690811,na,SAPS@MOE.EDU.SG,Bukit Gombak MRT Station,945,MISS CECILIA LIM SEOK CHENG,MDM SEOW SWEE NEO CHRISTINA,MISS MATHEW ANNA,,,,,BUKIT BATOK,WEST,GOVERNMENT-AIDED SCH,CO-ED SCHOOL,SINGLE SESSION,PRIMARY,No,No,No,No,Chinese,Malay,Tamil,STEM,CODE@SAPS,Visual Arts & Design,Visual Arts Programme for Active Learning (VAPAL),,
271,ST. GABRIEL'S PRIMARY SCHOOL,http://www.stgabrielspri.moe.edu.sg,220  Lorong Chuan,556742,62803628,na,63820344,na,STGPS@MOE.EDU.SG,Lor Chuan MRT Station (Circle Line),"73, 105, 159",MR MARTIN TAN SIEW KIN,MR KEITH TAN CHIN HENG,,,,,,SERANGOON,SOUTH,GOVERNMENT-AIDED SCH,BOYS' SCHOOL,SINGLE SESSION,PRIMARY,No,No,No,No,Chinese,Malay,Tamil,,,Community Service & Student Leadership,Montfortian Leadership Programme (MLP),,
272,ST. GABRIEL'S SECONDARY SCHOOL,http://www.stgabrielssec.moe.edu.sg,24   SERANGOON AVENUE 1,556140,62889470,na,62898615,na,STGSS@MOE.EDU.SG,SERANGOON MRT,158,MR LIM CHEE KOON SHAWN,MISS CHENG LI NGOH JACKIE,MDM YEE WHOY CHONG,,,,,SERANGOON,SOUTH,GOVERNMENT-AIDED SCH,BOYS' SCHOOL,SINGLE SESSION,SECONDARY,No,No,No,No,Chinese,Malay,Tamil,STEM,Project GaIA - Gabrielites Inspired for Aviation,Community & Youth Leadership,Developing Life Skills through Uniformed Groups Experience,,
273,ST. HILDA'S PRIMARY SCHOOL,http://www.shps.moe.edu.sg,2    Tampines Ave 3,529706,67811916,na,67830527,na,shps@moe.edu.sg,"Tampines West, Tampines Central",Feeder Bus service: 293 from Tampines Interchange (towards St 71),MDM LEONG BENG YUET DAPHNE,MR ANG WEI TECK,MDM GOH HUI CHENG,,,,,TAMPINES,EAST,GOVERNMENT-AIDED SCH,CO-ED SCHOOL,SINGLE SESSION,PRIMARY,No,No,Yes,No,Chinese,Malay,Tamil,Languages,Developing confident communicators through an enriched global education -- The Hildan Ambassador?s Education,Visual Arts & Design,"IMPRINTS Alive! Nurturing Creativity and Culture through Performing Arts, Visual Arts and Leadership",,
274,ST. HILDA'S SECONDARY SCHOOL,http://www.sthildassec.moe.edu.sg,2    TAMPINES STREET 82,528986,63055277,na,67865011,na,SHSS@MOE.EDU.SG,"TAMPINES MRT, TAMPINES WEST MRT","22, 129, 293, 298","MDM HENG SUE LIN, JANICE",MDM SO MUN YEE,,,,,,TAMPINES,EAST,GOVERNMENT-AIDED SCH,CO-ED SCHOOL,SINGLE SESSION,SECONDARY,No,No,No,No,Chinese,Malay,Tamil,Languages & Humanities,iTHink -- the HILDAN Approach to Learning the English Language,Sports & Outdoor Education,Develop the Whole Person through Sports and Outdoor Education,,
275,ST. JOSEPH'S INSTITUTION,http://www.sji.edu.sg,38   MALCOLM ROAD,308274,62500022,na,62533640,na,contact@sji.edu.sg,STEVENS MRT,"105, 132, 151, 153, 154, 156, 186, 190, 960, 972",FR ADRIAN AUGUSTUS DANKER,MR DOMINIC ANG SWEE KENG,MDM LOH YOON LIN,MDM LIM LAY HOON,,,,NOVENA,SOUTH,INDEPENDENT SCHOOL,CO-ED SCHOOL,SINGLE SESSION,MIXED LEVELS,No,No,No,Yes,Chinese,Malay,Tamil,,,,,,
276,ST. JOSEPH'S INSTITUTION JUNIOR,http://www.sjijunior.edu.sg,3    ESSEX ROAD,309331,62552700,na,62557455,na,sjijunior@moe.edu.sg,Novena,21;54;56;57;124;131;141;166;518;851;980,MR LEONG YEW HON ERIC,"MISS YAK HIOK WOON, FAITH",,,,,,NOVENA,SOUTH,GOVERNMENT-AIDED SCH,BOYS' SCHOOL,SINGLE SESSION,PRIMARY,No,No,No,No,Chinese,Malay,Tamil,Interdisciplinary,Observe ? Reflect ? Act (ORA @ SJI Junior),Sports & Outdoor Education,Sports Experience Reinforcing Values Education (Serve@SJIJ),,
277,ST. MARGARET'S PRIMARY SCHOOL,na,2    Mattar Road,387724,na,na,na,na,na,Mattar MRT Station (DT25),"40, 61, 63, 65, 66, 135, 154, 155, 158",MRS KO-TAN LI LING,MDM ALISON ANG SIOK PHING,,,,,,CENTRAL,SOUTH,GOVERNMENT-AIDED SCH,GIRLS' SCHOOL,SINGLE SESSION,PRIMARY,No,No,No,No,Chinese,Malay,Tamil,,,Music & Performing Arts,"Dance A.L.I.V.E!: Dance for Agility, Life, Ingenuity, Versatility and Expression",Sports & Outdoor Education,Sports A. C2. E: Sports for All; Sports for Continuity & Character; Sports for Excellence
278,ST. MARGARET'S SECONDARY SCHOOL,http://www.stmargaretssec.moe.edu.sg,111  FARRER ROAD,259240,64664525,na,64666709,na,stmargaretss@moe.edu.sg,FARRER ROAD MRT,"48, 93, 153, 165, 174, 186, 855, 961",MISS LIM HUI KHENG LINDA,MS TOH SUSAN,,,,,,BUKIT TIMAH,SOUTH,GOVERNMENT-AIDED SCH,GIRLS' SCHOOL,SINGLE SESSION,SECONDARY,No,Yes,No,No,Chinese,Malay,Tamil,,,,,,
279,ST. PATRICK'S SCHOOL,http://www.stpatricks.moe.edu.sg,490  EAST COAST ROAD,429058,63440929,63441429,63445152,na,stpatricksch@moe.edu.sg,KEMBANGAN MRT,"10, 10E, 12, 13, 14, 14E, 15, 16, 31, 32, 36, 40, 43, 47, 48, 55, 135, 150, 155, 196, 197",MR MARK GERARD MINJOOT,MR LEONG TSHUN KHONG PAUL,MS NG FOONG MENG,,,,,BEDOK,EAST,GOVERNMENT-AIDED SCH,BOYS' SCHOOL,SINGLE SESSION,SECONDARY,No,No,No,No,Chinese,Malay,Tamil,STEM,Sports and Health Science,Music & Performing Arts,Music Development Programme,,
280,ST. STEPHEN'S SCHOOL,http://www.ststephens.moe.edu.sg,20   SIGLAP VIEW,455789,62419513,64441645,64422576,na,STSTEPHENSCH@MOE.EDU.SG,Kembangan MRT Station,"2,7,24,25,26,28,30,32,33,67,854",MR GOH HENG LIANG TIMOTHY,MR EDWIN HENG TOW YANG,,,,,,BEDOK,EAST,GOVERNMENT-AIDED SCH,BOYS' SCHOOL,SINGLE SESSION,PRIMARY,No,No,No,No,Chinese,Malay,Tamil,,,Music & Performing Arts,MUsic for STephenians  (MUST),Sports & Outdoor Education,Physical EducAtion and Sports for every StephenIAN  (PASSIAN)
281,STAMFORD PRIMARY SCHOOL,http://www.stamfordpri.moe.edu.sg,1    VICTORIA LANE,198423,62945074,na,62919262,na,STAMFORD_PS@MOE.EDU.SG,"Bugis MRT Station, Jalan Besar MRT Station","Along Victoria Street:2,7,12,32,33, 51, 61,63,80,130,133,145, 175, 197",MDM FAN YUEN FUN CASSIE,MDM RAHIMA BTE ABDUL RAHMAN,,,,,,CENTRAL,SOUTH,GOVERNMENT SCHOOL,CO-ED SCHOOL,SINGLE SESSION,PRIMARY,No,No,No,No,Chinese,Malay,Tamil,Interdisciplinary,Caring for the Community through Interdisciplinary Learning@Stamford Primary School (C2IL@Stamford),Sports & Outdoor Education,Character and Leadership through Sports and Outdoor Education,,
282,SWISS COTTAGE SECONDARY SCHOOL,http://www.swisscottagesec.moe.edu.sg,3    BUKIT BATOK STREET 34,659322,65637173,na,65693028,na,SCSS@MOE.EDU.SG,BUKIT GOMBAK MRT,"187, 188, 985, 945",MR SHERWIN CHENG SAN SHIAN,MR HOI WENG KIT DERRICK,MISS WONG WEE LING,,,,,BUKIT BATOK,WEST,GOVERNMENT SCHOOL,CO-ED SCHOOL,SINGLE SESSION,SECONDARY,No,No,No,No,Chinese,Malay,Tamil,STEM,Applied Sciences for Sustainable Development,Community & Youth Leadership,Swiss Thoughtful Leadership Programme,,
283,TAMPINES MERIDIAN JUNIOR COLLEGE,http://www.tmjc.moe.edu.sg,21   Pasir Ris Street 71,518799,63493660,na,63493667,na,tmjc@moe.edu.sg,Pasir Ris MRT Station,"3, 39, 53, 81, 89, 109, 358, 518",MISS YOONG NYOK KE PAMELA,MR ANG YEOU PENG,MDM TOH LAY HAR,,,,,PASIR RIS,EAST,GOVERNMENT SCHOOL,CO-ED SCHOOL,FULL DAY,JUNIOR COLLEGE,No,No,No,No,Chinese,Malay,Tamil,,,,,,
284,TAMPINES NORTH PRIMARY SCHOOL,http://www.tampinesnorthpri.moe.edu.sg,30   TAMPINES AVENUE 9,529565,67854329,na,67863117,na,TNPS@MOE.EDU.SG,Tampines MRT,"SBS Transit 28, 29, 293",MDM RATNA KUMARI D/O R RAMACHANDRA,MR HO FU CHEW,MR MOHAMED IMRAN B MOHAMED IHSAN,,,,,TAMPINES,EAST,GOVERNMENT SCHOOL,CO-ED SCHOOL,SINGLE SESSION,PRIMARY,No,No,No,No,Chinese,Malay,Tamil,,,Community Service & Student Leadership,Green for Life (G4Life) Programme: Character Building through Environment Education,,
285,TAMPINES PRIMARY SCHOOL,http://www.tampinespri.moe.edu.sg,250  TAMPINES STREET 12,529426,67831190,na,67843521,na,TPPS@MOE.EDU.SG,Tampines MRT,"8, 10, 17,18, 27, 31, 65, 292, 293, or any bus going into Tampines Interchange",MDM LEE LAY SEE/ MRS LAY SEE NEUFELD,MRS ZAHIRA BINTE MOHAMED SEDIK,,,,,,TAMPINES,EAST,GOVERNMENT SCHOOL,CO-ED SCHOOL,SINGLE SESSION,PRIMARY,No,No,No,No,Chinese,Malay,Tamil,,,Music & Performing Arts,"STAR ACTtituDE:Pupils with Strengths, Talents, Aspiration and Resilience to achieve A Character Turnaround and Transformation inspired through Drama in Education",,
286,TAMPINES SECONDARY SCHOOL,https://www.tampinessec.moe.edu.sg,252  TAMPINES ST 12,529427,67835423,na,67843059,na,TPSS@MOE.EDU.SG,TAMPINES MRT,"3,  8,  10,  15,  17,  18,  20,  21,  23,  27,  28,  31,  34,  39,  59,  65,  129,  168,  292,  298,  518",MR LAN MINGJUN,MS SANTHA SUKUMARAN,MR CHEONG TIEN BENG,,,,,TAMPINES,EAST,GOVERNMENT SCHOOL,CO-ED SCHOOL,SINGLE SESSION,SECONDARY,No,No,No,No,Chinese,Malay,Tamil,STEM,Creative Engineering: Inter-disciplinary Authentic Problem Solving,Music & Performing Arts / Visual Arts & Design,Creative Expressions: Expressing creatively through visual and performing arts (Arts Education),,
287,TANGLIN SECONDARY SCHOOL,http://www.tanglinsec.moe.edu.sg,301  WEST COAST ROAD,127391,64248200,na,67734457,na,tanglin_ss@moe.edu.sg,CLEMENTI MRT,"30, 51, 78, 143, 285, 655",MR CHONG JACK SHENG,MR CHEEN HSIEN HONG,DR LIM SIEW YEE,,,,,CLEMENTI,SOUTH,GOVERNMENT SCHOOL,CO-ED SCHOOL,SINGLE SESSION,SECONDARY,No,No,No,No,Chinese,Malay,Tamil,Languages & Humanities,Tanglin P.L.U.S. (Perspectives and Literacies to Understand Society),Music & Performing Arts / Visual Arts & Design,S3 through the Arts@Tanglin Secondary School (TSS),,
288,TANJONG KATONG GIRLS' SCHOOL,http://www.tkgs.moe.edu.sg,20   Dunman Lane,439272,63441593,na,63451487,64409187(from 2017),tkgs@moe.edu.sg,"PAYA LEBAR MRT, DAKOTA MRT","10, 16, 31, 32, 33, 40, 43, 134, 135, 197",MISS CHEW ING LIM,MDM YEHIDAAH BEEVI D/O SHAIK A,,,,,,MARINE PARADE,EAST,GOVERNMENT SCHOOL,GIRLS' SCHOOL,SINGLE SESSION,SECONDARY,No,Yes,No,No,Chinese,Malay,Tamil,,,,,,
289,TANJONG KATONG PRIMARY SCHOOL,http://www.tanjongkatongpri.moe.edu.sg/,10   Seraya Road,437259,63444728,na,63445370,na,TKPS@MOE.EDU.SG,na,na,MDM CHUA LAY TIN,MDM HOO WAI LING,MDM TOH LENG LENG,,,,,MARINE PARADE,EAST,GOVERNMENT SCHOOL,CO-ED SCHOOL,SINGLE SESSION,PRIMARY,No,No,No,No,Chinese,Malay,Tamil,,,Sports & Outdoor Education,Team Sports Excellence @ TKP,,
290,TANJONG KATONG SECONDARY SCHOOL,http://www.tanjongkatongsec.moe.edu.sg,130  HAIG ROAD,438796,63443471,na,64409624,na,tkss@moe.edu.sg,"PAYA LEBAR MRT, DAKOTA MRT","10, 16, 31, 32, 33, 40, 76, 135, 197",MRS DOLLY ONG KIM LENG,MR KOH TONG SEAH,MDM NG SIEW CHIN,,,,,MARINE PARADE,EAST,GOVERNMENT SCHOOL,CO-ED SCHOOL,SINGLE SESSION,SECONDARY,No,Yes,No,No,Chinese,Malay,Tamil,,,,,,
291,TAO NAN SCHOOL,http://www.taonan.moe.edu.sg,49   MARINE CRESCENT,449761,64428307,na,64435973,na,taonan_sch@moe.edu.sg,"Paya Lebar, Eunos","13, 16, 31, 36, 43, 48, 55, 134, 196, 197",MDM POH QINYU,MR LEOW YEN MIN (LIAO YANMING),MISS CHOW CHIA MIN AGNES,,,,,MARINE PARADE,EAST,GOVERNMENT-AIDED SCH,CO-ED SCHOOL,SINGLE SESSION,PRIMARY,Yes,No,Yes,No,Chinese,na,na,Mathematics,Application of Mathematics for Lifelong Learning (AML2),Sports & Outdoor Education,ENRICH@TNS,,
292,TECK GHEE PRIMARY SCHOOL,http://www.teckgheepri.moe.edu.sg,1    ANG MO KIO STREET 32,569299,64548769,na,64589886,na,tgps@moe.edu.sg,Ang Mo Kio & Bishan,"22,24,135,853,162,262,159",MR WONG JIA WANG,MDM RAPS AZRINAH,,,,,,ANG MO KIO,SOUTH,GOVERNMENT SCHOOL,CO-ED SCHOOL,SINGLE SESSION,PRIMARY,No,No,No,No,Chinese,Malay,Tamil,,,Visual Arts & Design,Confident Communicators with Ceramics (C3),,
293,TECK WHYE PRIMARY SCHOOL,http://www.teckwhyepri.moe.edu.sg,11   TECK WHYE WALK,688261,67691025,na,67635191,na,twps@moe.edu.sg,Choa Chu Kang MRT & LRT,"975, 190 & 985",MISS WONG LIANG- JI TABITHA,MRS CHAY GEK NOI,,,,,,CHOA CHU KANG,WEST,GOVERNMENT SCHOOL,CO-ED SCHOOL,SINGLE SESSION,PRIMARY,No,No,No,No,Chinese,Malay,Tamil,ICT & Media,Media Whiz Kids! Nurturing Confident and Media Literate Communicators,Community Service & Student Leadership,"I-LEAD, I-SERVE ? Leadership through and as Service",,
294,TECK WHYE SECONDARY SCHOOL,http://www.teckwhyesec.moe.edu.sg,31   TECK WHYE CRESCENT,688848,67691386,na,67630487,na,TWSS@MOE.EDU.SG,"CHUA CHU KANG MRT, PHOENIX LRT","975, 985, 190, 982E",MR N SIVARAJAN,MISS DIANA GOH BOON LANG,MDM JANE LEE EE LEI,,,,,CHOA CHU KANG,WEST,GOVERNMENT SCHOOL,CO-ED SCHOOL,SINGLE SESSION,SECONDARY,No,No,No,No,Chinese,Malay,Tamil,STEM,Re-designing the Future with Materials Science,Sports & Outdoor Education,"Sports and Sportsmanship Programme @ TWSS (Experience, Expose, Excel)",,
295,TELOK KURAU PRIMARY SCHOOL,http://www.telokkuraupri.moe.edu.sg,50   BEDOK RESERVOIR RD,479239,62441600,na,62442182,na,telokkuraups@moe.edu.sg,Kaki Bukit MRT (nearest),"8, 15, 22, 55, 65, 60,66, 87 & 506",MISS LAU WAN SZE,MDM CHUA WANG LING IRENE,,,,,,BEDOK,EAST,GOVERNMENT SCHOOL,CO-ED SCHOOL,SINGLE SESSION,PRIMARY,No,No,No,No,Chinese,Malay,Tamil,Coding,Innovative Thinking through Coding and Robotics,Sports & Outdoor Education,Character Development through Team Sports,,
296,TEMASEK JUNIOR COLLEGE,http://www.temasekjc.moe.edu.sg,22   BEDOK SOUTH ROAD,469278,64428066,na,64428762,na,TEMASEK_JC@MOE.EDU.SG,BEDOK MRT,"12, 12E, 16, 31, 38, 47, 137, 155, 196, 196A, 197, 229",MDM SIM AY NAR,MDM TAN KIA HUAN,MR LOW CHEE WAI,,,,,BEDOK,EAST,GOVERNMENT SCHOOL,CO-ED SCHOOL,FULL DAY,MIXED LEVELS,No,No,No,Yes,Chinese,Malay,Tamil,,,,,,
297,TEMASEK PRIMARY SCHOOL,http://www.temasekpri.moe.edu.sg,501  BEDOK SOUTH AVE 3,469300,64438134,na,64495871,na,temasek_ps@moe.edu.sg,Tanah Merah MRT,"229, 10, 14, 13, 48, 43, 506",MDM ANG GEK LENG ALISON AMANDA,MDM HASLINDAH BTE BAHROM,,,,,,BEDOK,EAST,GOVERNMENT SCHOOL,CO-ED SCHOOL,SINGLE SESSION,PRIMARY,No,No,No,No,Chinese,Malay,Tamil,Coding,RoboALERT (Applicative Learning Experience through Robotics at Temasek),Sports & Outdoor Education,SOAR ? Sports Opportunities for Active lifestyle and physical Resilience and Sporting Excellence,,
298,TEMASEK SECONDARY SCHOOL,https://temaseksec.moe.edu.sg,600  UPPER EAST COAST ROAD,465561,64495020,na,64491450,na,temasek_ss@moe.edu.sg,"BEDOK MRT, TANAH MERAH MRT","10, 10E, 13, 14, 25, 43, 46, 55, 137, 229, 506, 531, 853",MS LEAH AW,MR PONG WEN LONG,MR TAY MENG KIAT,,,,,BEDOK,EAST,GOVERNMENT SCHOOL,CO-ED SCHOOL,SINGLE SESSION,SECONDARY,No,Yes,No,No,Chinese,Malay,Tamil,,,,,,
299,TOWNSVILLE PRIMARY SCHOOL,http://www.townsvillepri.moe.edu.sg/,3    ANG MO KIO AVE 10,569730,64574345,na,64570141,na,TOWNSVILLEPS@MOE.EDU.SG,"Bishan MRT, Ang Mo Kio MRT Stations","45, 50, 55, 261, 548, 22, 24, 128, 135, 159, 162, 162M, 262, 853",MR TAN BOON HONG VICTOR,MDM LYNETTE FERNANDEZ,,,,,,ANG MO KIO,SOUTH,GOVERNMENT SCHOOL,CO-ED SCHOOL,SINGLE SESSION,PRIMARY,No,No,No,No,Chinese,Malay,Tamil,,,Visual Arts & Design,Visual Arts for Life @ Townsville,,
300,UNITY PRIMARY SCHOOL,http://www.unitypri.moe.edu.sg,21   CHOA CHU KANG CRESCENT,688268,67676750,na,67676751,na,UNITY_PS@MOE.EDU.SG,Yew Tee MRT,TIBs 302,MRS LEE-KOH SIEW CHENG,MR KOH PENG YEOW,MDM LEE SUET FONG,,,,,CHOA CHU KANG,WEST,GOVERNMENT SCHOOL,CO-ED SCHOOL,SINGLE SESSION,PRIMARY,No,No,No,No,Chinese,Malay,na,Languages,CAPtivate! ? Critical Thinking Accelerated Programme @ UPS,Community Service & Student Leadership,CharGE UP! (Character Development through Green & Experiential Learning @ Unity Primary),,
301,UNITY SECONDARY SCHOOL,http://www.unitysec.moe.edu.sg,20   CHOA CHU KANG STREET 62,689143,67671070,na,67654189,na,UNITY_SS@MOE.EDU.SG,YEW TEE MRT,307,MDM AINI BTE MAAROF,MR DANIEL ONG POH SOON,MS NG TIEN NI JENNY,,,,,CHOA CHU KANG,WEST,GOVERNMENT SCHOOL,CO-ED SCHOOL,SINGLE SESSION,SECONDARY,No,No,No,No,Chinese,Malay,Tamil,STEM,Inspire through Scientific Innovation and Enterprise,Sports & Outdoor Education,Lead through Outdoor and Sporting Adventures,,
302,VALOUR PRIMARY SCHOOL,valourpri.moe.edu.sg,49   Punggol Central,828728,62426390,na,na,na,valour_ps@moe.edu.sg,na,na,MRS CHARIS WONG,MDM TAN PIN PIN,,,,,,PUNGGOL,EAST,GOVERNMENT SCHOOL,CO-ED SCHOOL,SINGLE SESSION,PRIMARY,No,No,No,No,Chinese,Malay,na,,,,,,
303,VICTORIA JUNIOR COLLEGE,http://www.victoriajc.moe.edu.sg/,20   MARINE VISTA,449035,64485011,na,64438337,na,victoria_jc@moe.edu.sg,"Nearest MRT Stations:  Kembangan, Eunos","13, 16, 31, 36, 43, 48, 55, 135, 196, 196e, 197",MISS EK SOO BEN,MR GURUSHARAN SINGH S/O M SINGH,MS LEE YUN YUN GRACE,,,,,BEDOK,EAST,GOVERNMENT SCHOOL,CO-ED SCHOOL,FULL DAY,JUNIOR COLLEGE,No,No,No,Yes,Chinese,Malay,Tamil,,,,,,
304,VICTORIA SCHOOL,http://www.victoria.moe.edu.sg,2    SIGLAP LINK,448880,62912965,na,64452609,na,VICTORIA_SCH@MOE.EDU.SG,"BEDOK MRT, PAYA LEBAR MRT","31, 36, 43, 47, 48, 55, 135, 155, 196, 196E, 197, 401, 853C",MR CHOW WEISI,MR TAN ENG HONG JONATHAN,MR NEO WEI CHUNG,,,,,BEDOK,EAST,GOVERNMENT SCHOOL,BOYS' SCHOOL,SINGLE SESSION,SECONDARY,No,Yes,Yes,Yes,Chinese,Malay,Tamil,,,,,,
305,WATERWAY PRIMARY SCHOOL,https://waterwaypri.moe.edu.sg,70   Punggol Drive,828802,6636 6880,na,6315 3451,na,waterway_ps@moe.edu.sg,Kadaloor LRT Station,"50, 381",MRS WEE KWAN LIAM,MDM CHUA KIM LAN JUDY,,,,,,PUNGGOL,EAST,GOVERNMENT SCHOOL,CO-ED SCHOOL,SINGLE SESSION,PRIMARY,No,No,No,No,Chinese,Malay,Tamil,Languages,Orators@Waterway,,Growth and Benefit Mindset,,
306,WELLINGTON PRIMARY SCHOOL,http://www.wellingtonpri.moe.edu.sg,10   WELLINGTON CIRCLE,757702,67533319,na,67533765,na,WELLINGTONPS@MOE.EDU.SG,Sembawang MRT,"980, 856, 859",MR ALCANTARA ALBERT ALFRED,MS KONG YEE LOON,,,,,,SEMBAWANG,NORTH,GOVERNMENT SCHOOL,CO-ED SCHOOL,SINGLE SESSION,PRIMARY,No,No,No,No,Chinese,Malay,Tamil,ICT & Media,Promoting Student Enquiry & Independent Learning through New Media,Music & Performing Arts,"Developing Student Talent and Life-long Learning in Dance through ADDAM (Academy of Dance, Drama, Art & Music)",,
307,WEST GROVE PRIMARY SCHOOL,http://www.westgrovepri.moe.edu.sg/,1    JURONG WEST ST 72,649223,62679234,na,62679235,na,WGPS@MOE.EDU.SG,Boon Lay MRT,"Bus 99, 242",MRS CHANDLER JAY SIVA,MDM SITI RASHIDAH BTE ABDUL RAHMAN,,,,,,JURONG WEST,WEST,GOVERNMENT SCHOOL,CO-ED SCHOOL,SINGLE SESSION,PRIMARY,No,No,No,No,Chinese,Malay,Tamil,,,Music & Performing Arts,Thoughtful Learning through the Arts,,
308,WEST SPRING PRIMARY SCHOOL,http://www.westspringpri.moe.edu.sg,60   Bukit Panjang Ring Road,679946,63144192,na,na,63140648,westspring_ps@moe.edu.sg,Jelapang LRT,"920, 922",MR WILLY TAN NGUAN PENG,MDM KUM LAI MENG,MR SIM KOOI SUEN,,,,,BUKIT PANJANG,WEST,GOVERNMENT SCHOOL,CO-ED SCHOOL,SINGLE SESSION,PRIMARY,No,No,No,No,Chinese,Malay,Tamil,Science,Sustaining the Earth with Applied Solutions (SEAS),Sports & Outdoor Education,Joyful ExperienC.E. @ West Spring (ExperienC.E. ? Experience Challenging Endeavours),,
309,WEST SPRING SECONDARY SCHOOL,http://www.westspringsec.moe.edu.sg,61   SENJA  ROAD,677737,68920369,na,68929468,na,westspringss@moe.edu.sg,"JELAPANG LRT, SENJA LRT","920, 972, 976",MR TAN CHIN ENG ADOLPHUS,MR LIM HAN SENG ANDREW,MR V SIVA KUMAR,,,,,BUKIT PANJANG,WEST,GOVERNMENT SCHOOL,CO-ED SCHOOL,SINGLE SESSION,SECONDARY,No,No,No,No,Chinese,Malay,Tamil,Languages & Humanities,Effective Communication and Critical Thinking through Media Literacy,Sports & Outdoor Education,"FOCUS (Finding, Optimising, Communicating, Understanding Sports)",,
310,WEST VIEW PRIMARY SCHOOL,http://www.westviewpri.moe.edu.sg,31   SENJA ROAD,677742,67600178,na,67600147,na,wvps@moe.edu.sg,"Bukit Panjang MRT, SENJA LRT (A13)","170,171,176,178,180,000,000,000,000,000",MR EDDIE FOO CHIT CHEONG,MDM LAI SEOW POH,,,,,,BUKIT PANJANG,WEST,GOVERNMENT SCHOOL,CO-ED SCHOOL,SINGLE SESSION,PRIMARY,No,No,No,No,Chinese,Malay,Tamil,Science,F.R.I.E.N.D of Earth,Music & Performing Arts,"ACE the Arts (Appreciate, Create, Explore to Excel)",,
311,WESTWOOD PRIMARY SCHOOL,http://www.westwoodpri.moe.edu.sg,1    Jurong West Street 73,649188,64121690,na,67945084,na,westwood_ps@moe.edu.sg,Boon Lay MRT Station,"181, 502 & 243",MR MAH SENG THONG ANDREW,MRS RUTH TAI MEI FEN,MR LOW MIN CHYE,,,,,JURONG WEST,WEST,GOVERNMENT SCHOOL,CO-ED SCHOOL,SINGLE SESSION,PRIMARY,No,No,No,No,Chinese,Malay,Tamil,Innovation & Enterprise,Positive Design Applied Learning Programme,Community Service & Student Leadership,Inspiring Student Leadership and Community Service through Positive Education,,
312,WESTWOOD SECONDARY SCHOOL,http://www.westwoodsec.moe.edu.sg,11   JURONG WEST STREET 25,648350,67929737,na,67929738,na,WESTWOOD_SS@MOE.EDU.SG,BOON LAY MRT,"172, 181, 181M, 185, 199, 405, 974",MR ABDUL HARRIS B SUMARDI,MISS TAN MING MING,,,,,,JURONG WEST,WEST,GOVERNMENT SCHOOL,CO-ED SCHOOL,SINGLE SESSION,SECONDARY,No,No,No,No,Chinese,Malay,Tamil,Business & Entrepreneurship,Innovation & Social Entrepreneurship,Music & Performing Arts,Arts for Life (AfL),,
313,WHITE SANDS PRIMARY SCHOOL,http://www.whitesandspri.moe.edu.sg,2    PASIR RIS ST 11,519075,69229100,na,65815013,na,wsps@moe.edu.sg,Pasir Ris MRT Station,"12, 17, 21, 39, 53, 81, 518, 109",MDM WONG LIN LIN AUDREY,MDM GOH SWEE LIN EVELYN,MS REZINA KHAN D/O ABDUL RAHIM,,,,,PASIR RIS,EAST,GOVERNMENT SCHOOL,CO-ED SCHOOL,SINGLE SESSION,PRIMARY,No,No,No,No,Chinese,Malay,Tamil,ICT & Media,Digital Media in Aesthetics & Languages,Visual & Performing Arts,Visual Art,,
314,WHITLEY SECONDARY SCHOOL,http://www.whitleysec.moe.edu.sg,30   BISHAN STREET 24,579747,64561336,na,64591330,na,WHITLEY_SS@MOE.EDU.SG,"BISHAN MRT, MARYMOUNT MRT","13, 52, 54, 74, 74E, 88, 162, 162M,  588, 410, 851, 852",MDM S SAROJA,MR TYEBALLY AZIZ,MR KANG LENG KHIM VINCENT,,,,,BISHAN,SOUTH,GOVERNMENT SCHOOL,CO-ED SCHOOL,SINGLE SESSION,SECONDARY,No,No,No,No,Chinese,Malay,Tamil,Languages,Speech Communication Arts,Community & Youth Leadership,Active Citizenship for Social Change,,
315,WOODGROVE PRIMARY SCHOOL,http://www.woodgrovepri.moe.edu.sg/,2    WOODLANDS DRIVE 14,738079,68943371,na,68943372,na,WOODGROVE_PS@MOE.EDU.SG,Woodlands MRT Station,901,MS ADELINE TAN WEE KIAW,MRS AHKEELA JULIA EDISON,DR. NG SIEW HIANG SALLY,,,,,WOODLANDS,NORTH,GOVERNMENT SCHOOL,CO-ED SCHOOL,SINGLE SESSION,PRIMARY,No,No,No,No,Chinese,Malay,Tamil,Languages,Effective Communication via Drama,Music & Performing Arts,Shine and Succeed through Dance,,
316,WOODGROVE SECONDARY SCHOOL,https://woodgrovesec.moe.edu.sg/,3    WOODLANDS AVENUE 6,738990,68932564,na,68934458,na,woodgrove_ss@moe.edu.sg,"WOODLANDS MRT, WOODLANDS SOUTH MRT","901, 901M",MR CHUA CHOR HUAT,MR TAN BOON CHENG,MISS FOO SIEW YONG,,,,,WOODLANDS,NORTH,GOVERNMENT SCHOOL,CO-ED SCHOOL,SINGLE SESSION,SECONDARY,No,No,No,No,Chinese,Malay,Tamil,STEM,Materials Science for Sustainable Living,Community & Youth Leadership,Learners and Leaders for Life,,
317,WOODLANDS PRIMARY SCHOOL,http://www.woodlandspri.moe.edu.sg,10   WOODLANDS DRIVE 50,738853,62697410,na,63671165,na,wdp@moe.edu.sg,Woodlands,912 & 912E,MISS KUCK LI LIAN LILLIAN,MDM WONG YEN LING,MDM KOMATHI D/O GOVINDASAMY,,,,,WOODLANDS,NORTH,GOVERNMENT SCHOOL,CO-ED SCHOOL,SINGLE SESSION,PRIMARY,No,No,No,No,Chinese,Malay,Tamil,Languages,Joy of Learning Languages (JOL2@WOODS),Sports & Outdoor Education,Sports Performance And Character Education (SPACE),,
318,WOODLANDS RING PRIMARY SCHOOL,HTTP://www.woodlandsringpri.moe.edu.sg,11   WOODLANDS RING ROAD,738240,63643679,na,63643490,na,WRPS@MOE.EDU.SG,Admiralty MRT Station,912,MISS GEETHA D/O DORAISAMY,"MR BOH CHEK KEOW, THOMAS",,,,,,WOODLANDS,NORTH,GOVERNMENT SCHOOL,CO-ED SCHOOL,SINGLE SESSION,PRIMARY,No,No,No,No,Chinese,Malay,Tamil,Science,Investigative Project Work @ WRPS,,,,
319,WOODLANDS RING SECONDARY SCHOOL,http://www.woodlandsringsec.moe.edu.sg,10   WOODLANDS RING ROAD,738239,63643712,na,63643713,na,wrss@moe.edu.sg,ADMIRALTY MRT,912,MDM NG SIEW BEE,MDM NUR HIDAYANI IBRAHIM,MDM KOMATHI D/O P KESAVAN,,,,,WOODLANDS,NORTH,GOVERNMENT SCHOOL,CO-ED SCHOOL,SINGLE SESSION,SECONDARY,No,No,No,No,Chinese,Malay,Tamil,STEM,The Robotics Education & Enterprise (TREE),Community & Youth Leadership,Student Leadership Development through Involvement in the Community Programme,,
320,WOODLANDS SECONDARY SCHOOL,http://www.woodlandssec.moe.edu.sg,11   MARSILING ROAD,739111,68494400,na,62691774,na,wdl_ss@moe.edu.sg,"MARSILING MRT, WOODLANDS MRT","913, 913M, 913T, 178, 856, 903",MDM TAN YANG FERN,MDM MASAYU BINTE MAHMUD,MR CHEN BING HONG,,,,,WOODLANDS,NORTH,GOVERNMENT SCHOOL,CO-ED SCHOOL,SINGLE SESSION,SECONDARY,No,No,No,No,Chinese,Malay,Tamil,STEM,"Real Food, Real Science",Community & Youth Leadership,Active Glocal Citizens Programme,,
321,XINGHUA PRIMARY SCHOOL,http://www.xinghuapri.moe.edu.sg,45   HOUGANG AVENUE 1,538882,62889121,na,62838831,na,XINGHUA_PS@MOE.EDU.SG,Kovan MRT Station,"Bus services 53, 62, 112, 113, 115",MR CHEW MUN WAI,MR CHONG CHOONG HIAN,,,,,,HOUGANG,SOUTH,GOVERNMENT SCHOOL,CO-ED SCHOOL,SINGLE SESSION,PRIMARY,No,No,No,No,Chinese,Malay,Tamil,Interdisciplinary,Students as Advocates of Environmental Issues in the Community,Visual Arts & Design,Developing Higher Order Thinking Through Visual Art,,
322,XINGNAN PRIMARY SCHOOL,http://www.xingnanpri.moe.edu.sg,5    JURONG WEST STREET 91,649036,67913679,na,67921493,na,XINGNAN_PS@MOE.EDU.SG,Pioneer MRT Station,Bus 99 & 241,MR CHAN GEOK ANN CHARLES,MDM S ANITHA,MRS ONG LAY KHIM,,,,,JURONG WEST,WEST,GOVERNMENT SCHOOL,CO-ED SCHOOL,SINGLE SESSION,PRIMARY,No,No,No,No,Chinese,Malay,Tamil,Science,Xingnan Explorers,Music & Performing Arts,FLAIR@XINGNAN ? An experience with Performing Arts,,
323,XINMIN PRIMARY SCHOOL,http://www.xinminpri.moe.edu.sg/,9    HOUGANG AVENUE 8,538784,62835479,na,62880334,na,xinmin_ps@moe.edu.sg,Nil,"74, 147, 165, 112",MDM TAN KAY LING,MR MOHAMED YAZEED BIN MOHAMED SAID,,,,,,HOUGANG,NORTH,GOVERNMENT SCHOOL,CO-ED SCHOOL,SINGLE SESSION,PRIMARY,No,No,No,No,Chinese,Malay,Tamil,,,Community Service & Student Leadership,Cultivating a Life of Values and Excellence (CLOVE),,
324,XINMIN SECONDARY SCHOOL,http://www.xinminsec.moe.edu.sg,11   HOUGANG AVENUE 8,538789,62889382,na,63851068,na,xinminss_email@schools.gov.sg,HOUGANG MRT,"25, 43, 43M, 55, 70, 70A, 70B, 70M, 72, 72A, 73, 73A, 74, 74E, 88, 88A, 103, 109, 109A, 112, 116, 132, 147, 159, 159A, 161, 165, 329, 660, 854, 854E",MR TAN KUO CHEANG,MDM NURAZIAN BINTE BAJURI,MDM WU DANPING,,,,,HOUGANG,NORTH,GOVERNMENT SCHOOL,CO-ED SCHOOL,SINGLE SESSION,SECONDARY,No,Yes,No,No,Chinese,Malay,Tamil,,,,,,
325,XISHAN PRIMARY SCHOOL,https://www.xishanpri.moe.edu.sg/,8    YISHUN STREET 21,768611,67588837,na,67588361,na,XISHAN_PS@MOE.EDU.SG,o   Alight at Yishun MRT Station o   Take Exit C o   Walk towards Yishun Street 21,"Along Yishun Ave 2,take Bus Service 117, 169, 804, 812, 965. Alight at Blk 220. Along Yishun Ring Road,take Bus Service 1N, 800, 804, NR1. Alight at Blk 227 or 236.",MRS QUEK-SIM KIM LIANG ANNE,MISS LATHA D/O SINASAMY,,,,,,YISHUN,NORTH,GOVERNMENT SCHOOL,CO-ED SCHOOL,SINGLE SESSION,PRIMARY,No,No,No,No,Chinese,Malay,Tamil,Languages,News Enrichment Xishanites Unitedly Share (NEXUS),Sports & Outdoor Education,Empowerment through Sports Education,,
326,YANGZHENG PRIMARY SCHOOL,http://www.yangzhengpri.moe.edu.sg/,15   SERANGOON AVENUE 3,556108,62846298,na,62879778,na,YZPS@MOE.EDU.SG,Serangoon Station,"58 & 105 (Outside the school, Serangoon Ave 3) 133 & 135(Serangoon Ave 2)",MRS LIM- FOO BOON CHING,MDM NG LI YI,,,,,,SERANGOON,SOUTH,GOVERNMENT SCHOOL,CO-ED SCHOOL,SINGLE SESSION,PRIMARY,No,No,No,No,Chinese,Malay,Tamil,,,Community Service & Student Leadership,Student Leadership and Life Skills Development through Uniformed Groups,,
327,YEW TEE PRIMARY SCHOOL,http://www.yewteepri.moe.edu.sg,10   CHOA CHU KANG ST 64,689100,67670027,na,67675450,na,YTPS@MOE.EDU.SG,Yew Tee MRT Station,307,MISS ANG MUI KHOONG,MDM SIM EE KOON PATRICIA,MDM TOH GUAT HWA PAULINE,,,,,CHOA CHU KANG,WEST,GOVERNMENT SCHOOL,CO-ED SCHOOL,SINGLE SESSION,PRIMARY,No,No,No,No,Chinese,Malay,Tamil,Interdisciplinary,"D.R.E.A.M.@Yew Tee (Developing Reflective Learners, Empowering Creative Minds)",Sports & Outdoor Education,Holistic Enriching and Rewarding Outdoor Education & Sports (HEROES) @ YTPS,,
328,YIO CHU KANG PRIMARY SCHOOL,http://www.yiochukangpri.moe.edu.sg,1    HOUGANG STREET 51,538720,63851365,na,63855915,na,admin_yckps@moe.edu.sg,Hougang MRT Station Yio Chu Kang MRT Station,"88,101,109,159,161 and 325",MR NG AIK BOON,MR CHAN TUCK CHEONG,MDM RAMACHANDRA SUGUNA,,,,,HOUGANG,NORTH,GOVERNMENT SCHOOL,CO-ED SCHOOL,SINGLE SESSION,PRIMARY,No,No,No,No,Chinese,Malay,Tamil,Science,ESTEM@YCKPS (ALP in Environmental STEM-based applied learning AT YCKPS),Music & Performing Arts,CREATE@ YCKPS,,
329,YIO CHU KANG SECONDARY SCHOOL,http://www.yiochukangsec.moe.edu.sg,3063 ANG MO KIO AVENUE 5,569868,64560669,na,65522927,na,yckss@moe.edu.sg,YIO CHU KANG MRT,"13, 45, 86, 138, 162, 269, 851, 852, 853",MRS LIM CAROL,MISS S G SARAH ABDULLAH,MR LIM HOCK CHYE KEVIN,,,,,ANG MO KIO,SOUTH,GOVERNMENT SCHOOL,CO-ED SCHOOL,SINGLE SESSION,SECONDARY,No,No,No,No,Chinese,Malay,Tamil,STEM,Developing inquiring minds and creative learners through Arduino,Music & Performing Arts,"Growing Character Leadership through Arts, Media and Design",,
330,YISHUN INNOVA JUNIOR COLLEGE,https://yijc.moe.edu.sg/,3    YISHUN RING ROAD,768675,62579873,na,62574373,na,yijc@moe.edu.sg,"Yishun, Khatib","167, 169, 171, 800, 812,",MR MICHAEL DE SILVA,MR TAY YUAN ZHUANG,MR LIM KAH LEONG MARC,,,,,YISHUN,NORTH,GOVERNMENT SCHOOL,CO-ED SCHOOL,FULL DAY,JUNIOR COLLEGE,No,No,No,No,Chinese,Malay,Tamil,,,,,,
331,YISHUN PRIMARY SCHOOL,http://www.yishunpri.moe.edu.sg,500  YISHUN RING ROAD,768679,62577461,na,67554198,na,YPS@MOE.EDU.SG,Yishun,Translink Feeder Service 800 & 812,MR CHAN WENG YEW MARVIN,MR SADANANDHAN S/O PALANI ANANDAN,MR TAN YEW LEE,,,,,YISHUN,NORTH,GOVERNMENT SCHOOL,CO-ED SCHOOL,SINGLE SESSION,PRIMARY,No,No,No,No,Chinese,Malay,Tamil,Science,"Work as a Team, Be Environmentally Green",Music & Performing Arts,"Viva De Symphonie ? Championing Values: Living, Learning and Growing through Music",,
332,YISHUN SECONDARY SCHOOL,http://www.yishunsec.moe.edu.sg,4    YISHUN STREET 71,768516,68767129,na,67557748,na,YISHUN_SS@MOE.EDU.SG,"YISHUN MRT, KHATIB MRT","167,  169,  171,  800,  807, 811, 812,  856,  858,  859,  860,  969, 980",MRS REGINA LEE,MR TAN HOCK CHUAN MICHAEL,MR TAY HIANG SOON,,,,,YISHUN,NORTH,GOVERNMENT SCHOOL,CO-ED SCHOOL,SINGLE SESSION,SECONDARY,No,No,No,No,Chinese,Malay,Tamil,Aesthetics,"Sonic Arts ? Applied Learning in Music, Media and Technology",Community & Youth Leadership,Leadership for Life,,
333,YISHUN TOWN SECONDARY SCHOOL,http://www.yishuntownsec.moe.edu.sg,6    YISHUN STREET 21,768610,67587219,na,67559112,na,YTSS@MOE.EDU.SG,YISHUN MRT,"39, 85, 171, 800, 803, 804, 806, 811, 812, 851, 852, 853, 853C, 854, 854E, 855, 856, 857, 859, 860",MR NG TEO HENG,MR OW WENG KEONG,MR LOONG CHIEH YUNG (LONG JIRONG),,,,,YISHUN,NORTH,GOVERNMENT SCHOOL,CO-ED SCHOOL,SINGLE SESSION,SECONDARY,No,Yes,No,No,Chinese,Malay,Tamil,,,,,,
334,YU NENG PRIMARY SCHOOL,http://www.ynps.moe.edu.sg/,56   BEDOK NORTH ST 3,469623,64490121,na,64498564,na,YNPS@MOE.EDU.SG,"Bedok MRT Station (East-West Line), Bedok Reservoir MRT STation (Downtown line)","14, 17, 18, 28, 66, 67, 69, 225",MR NG YEOW LING,MRS TAY-LEE LI THENG,MISS ONG PEI FEN JAMIE,,,,,BEDOK,EAST,GOVERNMENT SCHOOL,CO-ED SCHOOL,SINGLE SESSION,PRIMARY,No,No,No,No,Chinese,Malay,na,ICT & Media,The 3E Experience @ YNPS: Nurturing Future-Ready 21st Century Learners,Sports & Outdoor Education,GOal GR3IT ? Character Development through Sports @ Yu Neng Primary,,
335,YUAN CHING SECONDARY SCHOOL,http://www.yuanchingsec.moe.edu.sg,103  YUAN CHING ROAD,618654,62612489,na,62616275,na,YCSS@MOE.EDU.SG,LAKESIDE MRT,"98, 154, 154A, 180, 182, 187, 240, 240A, 246",MS NG SOOK KIT,MR LOH KOK NIAM VINCENT,MR CHEONG LIT SERN WESLEY,,,,,JURONG WEST,WEST,GOVERNMENT SCHOOL,CO-ED SCHOOL,SINGLE SESSION,SECONDARY,No,No,No,No,Chinese,Malay,Tamil,STEM,Marine Robotics,Sports & Outdoor Education,gRowing Values through Sports and Outdoor Education,,
336,YUHUA PRIMARY SCHOOL,http://www.yuhuapri.moe.edu.sg,158  JURONG EAST STREET 24,609558,65605062,na,65648278,na,YUHUA_PS@MOE.EDU.SG,"Jurong East, Bukit Batok","98,98A,187,333,502,507,NR5",MDM TENG LAI KWAN,MDM HEATHER SIM SIAW CHENG,MDM ZOEY LIM CHING SIA,,,,,JURONG EAST,WEST,GOVERNMENT SCHOOL,CO-ED SCHOOL,SINGLE SESSION,PRIMARY,No,No,No,No,Chinese,Malay,Tamil,Interdisciplinary,Think@Yuhua ? Developing Critical and Creative Thinkers,Music & Performing Arts,Building Good Character through Music and the Performing Arts,,
337,YUHUA SECONDARY SCHOOL,http://www.yuhuasec.moe.edu.sg,35   JURONG WEST STREET 41,649406,65661985,na,65696689,na,YUHUA_SS@MOE.EDU.SG,LAKESIDE MRT,"49, 98, 99, 157, 180, 185, 187, 198, 334, 335, 502","MR PANG CHIN KEAT, KEVIN",MR TAN WEIMING BRIAN,MR CHNG PUAY KEONG,,,,,JURONG WEST,WEST,GOVERNMENT SCHOOL,CO-ED SCHOOL,SINGLE SESSION,SECONDARY,No,No,No,No,Chinese,Malay,Tamil,STEM,"Coding, Design, Thinking and Robotics (CODER)",Music & Performing Arts,"MELODY- Music Empowered Learners, Our Dynamic Yuhuans",,
338,YUMIN PRIMARY SCHOOL,http://www.yuminpri.moe.edu.sg,3    TAMPINES STREET 21,529393,67811262,na,67845554,na,YUMIN_PS@MOE.EDU.SG,Tampines MRT Station,na,MDM CHILUKURI DIMPS RAO,MR ABDUL MUTALIB B MOHAMMED AMIN,MRS SHARON CLARISSA FOO,,,,,TAMPINES,EAST,GOVERNMENT SCHOOL,CO-ED SCHOOL,SINGLE SESSION,PRIMARY,No,No,No,No,Chinese,Malay,na,Coding,"I3QUEST ?Question, Imagine, Innovate, Inspire",Community Service & Student Leadership,"Compassionate Champions, Rooted Singaporeans, Citizens of the World ? Developing 21st CC in Yumin Champions",,
339,YUSOF ISHAK SECONDARY SCHOOL,http://www.yusofishaksec.moe.edu.sg,11   BUKIT BATOK STREET 25,658712,65009800,na,65675502,na,yiss@moe.edu.sg,BUKIT BATOK MRT,"61, 66, 77, 106, 157, 174, 178, 506, 852, 963",MDM LEE WEE LIN MAUREEN,MR WILSON TAY SWEE KIAT,,,,,,BUKIT BATOK,WEST,GOVERNMENT SCHOOL,CO-ED SCHOOL,SINGLE SESSION,SECONDARY,No,No,No,No,Chinese,Malay,Tamil,STEM,"Programme for Authentic Science, Technology and Environmental Learning",Music & Performing Arts / Visual Arts & Design,H2eArts in Tune Programme: History & Heritage through Arts & Music Programme,,
340,YUYING SECONDARY SCHOOL,http://www.yuyingsec.moe.edu.sg,47   HOUGANG AVENUE 1,538884,62827968,na,62871607,na,yuying_ss@moe.edu.sg,"KOVAN MRT, SERANGOON MRT, HOUGANG MRT","25, 51, 53, 53M, 55, 62, 87, 113, 119, 151, 854",MR LO CHEE LIN,MDM NIAM HWEE PENG,MR FOO JUNG HIN SIMON,,,,,HOUGANG,SOUTH,GOVERNMENT-AIDED SCH,CO-ED SCHOOL,SINGLE SESSION,SECONDARY,No,No,No,No,Chinese,Malay,Tamil,Business & Entrepreneurship,Fostering  Inventive and  Critical Thinking through Design Thinking for Enterprising Learners,Community & Youth Leadership,Totally Wholesome Engaged and Empowered TeenS (TWEETS),,
341,ZHANGDE PRIMARY SCHOOL,http://www.zhangdepri.moe.edu.sg/,51   Jalan Membina,169485,62740357,na,62763042,na,ZHANGDE_PS@MOE.EDU.SG,Tiong Bahru MRT Station,"16,33,63,123,195,605,851,14,65,147,167,196,197,961",MDM RITA RAJLAL,MISS TAY HWEE LIN,MRS PEGGY KOH,,,,,BUKIT MERAH,SOUTH,GOVERNMENT SCHOOL,CO-ED SCHOOL,SINGLE SESSION,PRIMARY,No,No,No,No,Chinese,Malay,Tamil,Science,Developing Zhangde GIVER3S Values Through Environment Education,,,,
342,ZHENGHUA PRIMARY SCHOOL,http://www.zhenghuapri.moe.edu.sg,9    Fajar Road,679002,67697478,na,67636459,na,zhenghua_ps@moe.edu.sg,LRT: Fajar Station,"190, 184, 187, 700, 700A, 921",MDM WONG HIAN HWEE CONSTANCE,MDM JOSEPHINE SNG,MISS SANTHANA MARY D/O POOBALAN,,,,,BUKIT PANJANG,WEST,GOVERNMENT SCHOOL,CO-ED SCHOOL,SINGLE SESSION,PRIMARY,No,No,No,No,Chinese,Malay,Tamil,Interdisciplinary,Advocates and Innovators for Sustainable Living,Music & Performing Arts,Aesthetics Appreciation through Dance Arts Education,,
343,ZHENGHUA SECONDARY SCHOOL,http://www.zhenghuasec.moe.edu.sg,91   SENJA ROAD,677741,67639455,na,67633577,na,ZHENGHUA_SS@MOE.EDU.SG,JELAPANG LRT,"920, 922, 976",MR LIN YUCHENG EUGENE,MR PHOR HOAY GUAN,MDM TAN PEI LEE ELAINE,,,,,BUKIT PANJANG,WEST,GOVERNMENT SCHOOL,CO-ED SCHOOL,SINGLE SESSION,SECONDARY,No,No,No,No,Chinese,Malay,Tamil,STEM,Game Design and Simulation and Robotics,Sports & Outdoor Education,Outdoor Education for Character & Leadership Development,,
344,ZHONGHUA PRIMARY SCHOOL,http://www.zhonghuapri.moe.edu.sg,12   SERANGOON AVENUE 4,556095,62835413,na,62823882,na,zhonghua_ps@moe.edu.sg,"Ang Mo Kio MRT, Bishan MRT, Serangoon MRT","Boundary Road: 22,24,53,105,156,315,853,501,502 Yio Chu Kang Road: 70,76,103,147,156,501,502",MDM ROSTINAH BTE MOHAMAD SAID,MDM THAM SIEW LENG,MRS TRINA YEE-POOK SIM NAR,,,,,SERANGOON,SOUTH,GOVERNMENT SCHOOL,CO-ED SCHOOL,SINGLE SESSION,PRIMARY,No,No,No,No,Chinese,Malay,Tamil,STEM,ZPS STE(A)M ? Thinknovate,Community Service & Student Leadership,Green Education Movement @ Zhonghua Primary School (GEM@ZPS),,
345,ZHONGHUA SECONDARY SCHOOL,http://www.zhonghuasec.moe.edu.sg,13   SERANGOON AVENUE 3,556123,62824339,na,62823472,na,ZHONGHUA_SS@MOE.EDU.SG,SERANGOON MRT,"22, 43, 45, 53, 58, 70, 81, 82, 100, 101, 103, 105, 107, 109, 133, 135, 147, 153, 158, 315, 317, 853",MISS LOW SHIOK CHENG CINDY,MR KOH KAI HONG,,,,,,SERANGOON,SOUTH,GOVERNMENT SCHOOL,CO-ED SCHOOL,SINGLE SESSION,SECONDARY,No,Yes,No,No,Chinese,Malay,na,,,,,,
